<?xml version="1.0" encoding="utf-8"?>

<kml>
	<Document>
		<name>
			Geofences
		</name>
		<Placemark>
			<name>
				5594 Гарден пахта очик 2026
			</name>
			<description>
				XXX
			</description>
			<Style>
				<LineStyle>
					<color>
						990ac2ff
					</color>
					<width>
						50.0
					</width>
				</LineStyle>
				<PolyStyle>
					<color>
						990ac2ff
					</color>
				</PolyStyle>
			</Style>
			<Polygon>
				<outerBoundaryIs>
					<LinearRing>
						<coordinates>
							64.4274141988,39.9486657414,0 64.4275107583,39.9485547046,0 64.4275751314,39.9483778678,0 64.4275804958,39.9482750556,0 64.4275751314,39.9479748429,0 64.4275536737,39.9476458411,0 64.4275375804,39.9474895647,0 64.4275107583,39.9472880499,0 64.4275053939,39.9470659717,0 64.4275053939,39.9468109921,0 64.4275000295,39.9465601241,0 64.4275000295,39.946469647,0 64.42740347,39.9464573091,0 64.4268026552,39.9464202957,0 64.4265290698,39.9463873949,0 64.4265237054,39.9481969182,0 64.4266117319,39.9483269326,0 64.4267082914,39.9484009574,0 64.4267887577,39.9484626447,0 64.4268455705,39.9485218048,0 64.4269206724,39.9485464796,0 64.4271245202,39.9486040543,0 64.427274724,39.9486863037,0 64.4274141988,39.9486657414,0
						</coordinates>
					</LinearRing>
				</outerBoundaryIs>
			</Polygon>
		</Placemark>
		<Placemark>
			<name>
				5595 Гарден пахта очик 2026
			</name>
			<description>
				XXX
			</description>
			<Style>
				<LineStyle>
					<color>
						990ac2ff
					</color>
					<width>
						50.0
					</width>
				</LineStyle>
				<PolyStyle>
					<color>
						990ac2ff
					</color>
				</PolyStyle>
			</Style>
			<Polygon>
				<outerBoundaryIs>
					<LinearRing>
						<coordinates>
							64.4265129265,39.9482010691,0 64.4262929853,39.9480735815,0 64.4262715778,39.947880255,0 64.4262554845,39.947769217,0 64.4260516366,39.9476622912,0 64.4254937372,39.9472757123,0 64.4253274402,39.9470495214,0 64.4250484905,39.9466958397,0 64.4248553714,39.9463133679,0 64.4248768291,39.9462434534,0 64.4250914058,39.9462434534,0 64.4256761274,39.9463051427,0 64.4260999164,39.946354494,0 64.4264968833,39.9464120705,0 64.4265129265,39.9482010691,0
						</coordinates>
					</LinearRing>
				</outerBoundaryIs>
			</Polygon>
		</Placemark>
		<Placemark>
			<name>
				1391 Гарден пахта очик 2026
			</name>
			<description>
				&amp;lt;b&amp;gt;&amp;lt;/b&amp;gt;
			</description>
			<Style>
				<LineStyle>
					<color>
						990ac2ff
					</color>
					<width>
						10.0
					</width>
				</LineStyle>
				<PolyStyle>
					<color>
						990ac2ff
					</color>
				</PolyStyle>
			</Style>
			<Polygon>
				<outerBoundaryIs>
					<LinearRing>
						<coordinates>
							64.5261662749,40.005102315,0 64.5258664784,40.0041698308,0 64.5271753606,40.0045298206,0 64.5271757226,40.004529918,0 64.528197549,40.0047923653,0 64.5282399971,40.0048076836,0 64.5283504396,40.0048475357,0 64.5284049772,40.0048672158,0 64.5284072949,40.0048679391,0 64.5284080539,40.0048681291,0 64.5287258545,40.0049431294,0 64.5287328084,40.0049439218,0 64.5287723936,40.0049438127,0 64.528804564,40.0050120781,0 64.5288046503,40.0050122605,0 64.5289173232,40.0052513473,0 64.5289182467,40.0052530398,0 64.5290854843,40.0055272323,0 64.5290867482,40.0055290768,0 64.5292361066,40.0057245604,0 64.5292466007,40.0060586145,0 64.5292253403,40.0064882598,0 64.5291269182,40.0070011839,0 64.5290403502,40.007076356,0 64.528346151,40.0071122071,0 64.5275848621,40.0070538242,0 64.5274336289,40.007038474,0 64.5271512893,40.0070098141,0 64.5270070297,40.0069734746,0 64.5269591909,40.0069547774,0 64.5269098814,40.0069355054,0 64.526907518,40.0069346813,0 64.5268968325,40.0069313841,0 64.5268922781,40.006929979,0 64.526890918,40.0069295894,0 64.5268863357,40.0069286852,0 64.5267475909,40.0069103513,0 64.526741406,40.0068911139,0 64.5267344225,40.0068693958,0 64.5267259271,40.0068429727,0 64.5266235407,40.0065245319,0 64.5266147391,40.0064971553,0 64.5265163565,40.0061911668,0 64.5264779984,40.0060718649,0 64.5263649275,40.0057201862,0 64.5263391763,40.0056400927,0 64.5263105758,40.0055511345,0 64.5261698924,40.0051135685,0 64.5261662749,40.005102315,0
						</coordinates>
					</LinearRing>
				</outerBoundaryIs>
			</Polygon>
		</Placemark>
		<Placemark>
			<name>
				1392 Гарден пахта очик 2026
			</name>
			<description>
				&amp;lt;b&amp;gt;&amp;lt;/b&amp;gt;
			</description>
			<Style>
				<LineStyle>
					<color>
						990ac2ff
					</color>
					<width>
						10.0
					</width>
				</LineStyle>
				<PolyStyle>
					<color>
						990ac2ff
					</color>
				</PolyStyle>
			</Style>
			<Polygon>
				<outerBoundaryIs>
					<LinearRing>
						<coordinates>
							64.52675,40.00695,0 64.5246724648,40.0071447868,0 64.5241843027,40.0068366146,0 64.5235673947,40.0063106643,0 64.522891478,40.0057674045,0 64.521775679,40.0049291561,0 64.5206384224,40.0040580243,0 64.5225910706,40.0038287815,0 64.5234279198,40.0037457291,0 64.5242379469,40.0038196939,0 64.5251240045,40.0039537166,0 64.5258857519,40.0041673918,0 64.52675,40.00695,0
						</coordinates>
					</LinearRing>
				</outerBoundaryIs>
			</Polygon>
		</Placemark>
		<Placemark>
			<name>
				1460 Гарден пахта очик 2026
			</name>
			<description>
				&amp;lt;b&amp;gt;&amp;lt;/b&amp;gt;
			</description>
			<Style>
				<LineStyle>
					<color>
						990ac2ff
					</color>
					<width>
						10.0
					</width>
				</LineStyle>
				<PolyStyle>
					<color>
						990ac2ff
					</color>
				</PolyStyle>
			</Style>
			<Polygon>
				<outerBoundaryIs>
					<LinearRing>
						<coordinates>
							64.5056316346,39.9805833761,0 64.5056276138,39.9805690682,0 64.5055844246,39.9804153998,0 64.505465502,39.980030245,0 64.5055643625,39.9800129391,0 64.5063260298,39.9798940928,0 64.507424327,39.9797653577,0 64.5075705748,39.9797214478,0 64.5075349042,39.9797639195,0 64.5076188545,39.9797789962,0 64.5076778631,39.9805312317,0 64.5077100497,39.9808395226,0 64.5077368717,39.9811025963,0 64.507767531,39.9814069186,0 64.5078387957,39.9816780667,0 64.5080641012,39.9823686247,0 64.5065183356,39.9825603027,0 64.5062115897,39.9825988335,0 64.5061576728,39.9824011333,0 64.5060676643,39.9820401234,0 64.5060005556,39.9818051017,0 64.5059485261,39.9816925963,0 64.5058702568,39.9814255082,0 64.5058702119,39.9814253582,0 64.5058229677,39.9812641385,0 64.5056414227,39.9806182025,0 64.5056316346,39.9805833761,0
						</coordinates>
					</LinearRing>
				</outerBoundaryIs>
			</Polygon>
		</Placemark>
		<Placemark>
			<name>
				1463 Гарден пахта очик 2026
			</name>
			<description>
				&amp;lt;b&amp;gt;&amp;lt;/b&amp;gt;
			</description>
			<Style>
				<LineStyle>
					<color>
						990ac2ff
					</color>
					<width>
						10.0
					</width>
				</LineStyle>
				<PolyStyle>
					<color>
						990ac2ff
					</color>
				</PolyStyle>
			</Style>
			<Polygon>
				<outerBoundaryIs>
					<LinearRing>
						<coordinates>
							64.5074959739,39.9797001697,0 64.5071916193,39.9797436592,0 64.5064256384,39.9798531044,0 64.506344455,39.9798647048,0 64.5055523565,39.9799596994,0 64.5055510854,39.9799598708,0 64.5055499733,39.9799600511,0 64.5053856076,39.979988824,0 64.5053385135,39.9798230419,0 64.5052393296,39.9794621917,0 64.5051944641,39.9792989625,0 64.5050344688,39.9787168533,0 64.5050342271,39.9787157137,0 64.5050321215,39.9787058007,0 64.5048924999,39.9780484739,0 64.5048666733,39.9779268805,0 64.5048376667,39.9777903226,0 64.5047634749,39.9774410196,0 64.5047444387,39.9773514004,0 64.5047318488,39.9772937942,0 64.5047247952,39.9772615183,0 64.5046386154,39.976867203,0 64.504630827,39.9768315619,0 64.5045757045,39.9765793453,0 64.5044736164,39.9761122247,0 64.5045235421,39.9760468611,0 64.504653725,39.9760446654,0 64.5046539936,39.9760716783,0 64.5047227902,39.976071274,0 64.5060283154,39.9760636061,0 64.5067034649,39.9760596336,0 64.5067057933,39.9760596198,0 64.5067872481,39.9760591408,0 64.5068148452,39.9761916765,0 64.5068153159,39.9761939385,0 64.5068450035,39.9763365131,0 64.5068796012,39.9765026687,0 64.507025572,39.9772036834,0 64.5071266504,39.977689094,0 64.5072513707,39.9782880401,0 64.5072816476,39.9784334348,0 64.5073473818,39.9787490988,0 64.5075184713,39.9795706857,0 64.5075440068,39.9796933066,0 64.5075395018,39.97969395,0 64.5074959739,39.9797001697,0
						</coordinates>
					</LinearRing>
				</outerBoundaryIs>
			</Polygon>
		</Placemark>
		<Placemark>
			<name>
				1465 Гарден пахта очик 2026
			</name>
			<description>
				&amp;lt;b&amp;gt;&amp;lt;/b&amp;gt;
			</description>
			<Style>
				<LineStyle>
					<color>
						990ac2ff
					</color>
					<width>
						10.0
					</width>
				</LineStyle>
				<PolyStyle>
					<color>
						990ac2ff
					</color>
				</PolyStyle>
			</Style>
			<Polygon>
				<outerBoundaryIs>
					<LinearRing>
						<coordinates>
							64.5111410059,39.9789941732,0 64.5111404875,39.9789942382,0 64.5108302499,39.9790364337,0 64.5108285565,39.9790367247,0 64.5101468772,39.9791747438,0 64.5099656951,39.9792114272,0 64.5094298698,39.979319912,0 64.5094289732,39.9793201082,0 64.5090733266,39.9794038853,0 64.5089329002,39.9794369645,0 64.5078964168,39.9796811111,0 64.5077071014,39.9797158592,0 64.5077056066,39.9797161744,0 64.5076498104,39.9797294721,0 64.5076442534,39.9797064571,0 64.5076378404,39.9796798983,0 64.5076291959,39.9796811339,0 64.507595686,39.9795650942,0 64.507527635,39.9792183505,0 64.5074856343,39.9790043329,0 64.5074030055,39.978583297,0 64.5073645064,39.9783871268,0 64.507344058,39.9782829302,0 64.5072918102,39.9780166919,0 64.5072433353,39.9777696781,0 64.5072109421,39.9776046169,0 64.5071546267,39.9773379584,0 64.5071062147,39.9771087195,0 64.5070169257,39.9766859185,0 64.5069787437,39.9765051201,0 64.5068837307,39.9760552042,0 64.5072183774,39.976062539,0 64.5077960445,39.9760969262,0 64.5078360716,39.9760993084,0 64.5082877858,39.9761495656,0 64.5087650904,39.9762495448,0 64.5091000129,39.9763196976,0 64.5091031076,39.976320209,0 64.5091052806,39.9763204115,0 64.5098744523,39.9763694853,0 64.5098774742,39.9763695579,0 64.5101424601,39.9763646013,0 64.5101945382,39.9763721233,0 64.5102202758,39.9764406712,0 64.5102566764,39.9765376168,0 64.5102575739,39.9765400087,0 64.5104089265,39.9769431058,0 64.5108139975,39.9780219048,0 64.5109848391,39.978477563,0 64.5111237861,39.9788481488,0 64.5111253698,39.9788523741,0 64.5111642156,39.978955979,0 64.5111769421,39.9789899223,0 64.5111582526,39.9789921338,0 64.5111410059,39.9789941732,0
						</coordinates>
					</LinearRing>
				</outerBoundaryIs>
			</Polygon>
		</Placemark>
		<Placemark>
			<name>
				1466 Гарден пахта очик 2026
			</name>
			<description>
				&amp;lt;b&amp;gt;&amp;lt;/b&amp;gt;
			</description>
			<Style>
				<LineStyle>
					<color>
						990ac2ff
					</color>
					<width>
						10.0
					</width>
				</LineStyle>
				<PolyStyle>
					<color>
						990ac2ff
					</color>
				</PolyStyle>
			</Style>
			<Polygon>
				<outerBoundaryIs>
					<LinearRing>
						<coordinates>
							64.5110474948,39.9786031958,0 64.5109938507,39.9784716542,0 64.5109294776,39.9783072269,0 64.510806096,39.978007146,0 64.5107792739,39.9779495961,0 64.5102764969,39.9764281773,0 64.5102538678,39.9763457832,0 64.5106883856,39.9763827805,0 64.5111443612,39.9764649965,0 64.5112999293,39.9764937721,0 64.5114018532,39.9765225476,0 64.5114823195,39.9765842095,0 64.5117398116,39.977192604,0 64.5117934557,39.9772542653,0 64.5118202778,39.9773447017,0 64.5120916354,39.9780796879,0 64.5120930108,39.9780822187,0 64.5121686507,39.9782214361,0 64.512528381,39.9787464517,0 64.5127966019,39.9794452605,0 64.5129679565,39.9799309293,0 64.5129529078,39.9800389726,0 64.5128166855,39.9800849449,0 64.5122920918,39.9801785785,0 64.5118099381,39.9802646343,0 64.511809966,39.9802571265,0 64.5118095402,39.9802538266,0 64.5118090335,39.9802522164,0 64.5117385328,39.9800660717,0 64.5115315161,39.9795577335,0 64.5115312241,39.9795570618,0 64.5114026707,39.9792801015,0 64.5112840985,39.979024639,0 64.5112826355,39.9790221161,0 64.5112806879,39.9790197951,0 64.5112783017,39.9790177307,0 64.5112755331,39.9790159714,0 64.5112581264,39.9790065388,0 64.5112405006,39.9789969873,0 64.511209824,39.9789151704,0 64.5111800161,39.9788356706,0 64.5110845593,39.9785810793,0 64.5110808412,39.9785711607,0 64.5110474948,39.9786031958,0
						</coordinates>
					</LinearRing>
				</outerBoundaryIs>
			</Polygon>
		</Placemark>
		<Placemark>
			<name>
				1488 Гарден пахта очик 2026
			</name>
			<description/>
			<Style>
				<LineStyle>
					<color>
						990ac2ff
					</color>
					<width>
						10.0
					</width>
				</LineStyle>
				<PolyStyle>
					<color>
						990ac2ff
					</color>
				</PolyStyle>
			</Style>
			<Polygon>
				<outerBoundaryIs>
					<LinearRing>
						<coordinates>
							64.5294109744,39.9907447005,0 64.52977,39.990389,0 64.529944,39.990233,0 64.530171,39.99011,0 64.5306487091,39.9898651137,0 64.530843274,39.9901240968,0 64.5309881133,39.9903542551,0 64.5311114949,39.9905392032,0 64.5311836339,39.9906336396,0 64.5312131382,39.9906973438,0 64.5313150621,39.9907815975,0 64.5313660241,39.990878181,0 64.5314330793,39.9910035338,0 64.5315215922,39.9911514909,0 64.5315645076,39.9912357441,0 64.5317005036,39.991398256,0 64.5318346141,39.9915297727,0 64.5319097159,39.9916016957,0 64.5322879074,39.9919736396,0 64.5319821356,39.9921524185,0 64.5317300079,39.9922880436,0 64.5314591048,39.9920537819,0 64.531363,39.991873,0 64.531163,39.991632,0 64.531058,39.991495,0 64.5309586969,39.9914763057,0 64.5307468024,39.9915276793,0 64.5305536834,39.9915502837,0 64.53048,39.991527,0 64.5303605643,39.991463976,0 64.5302774158,39.9915461738,0 64.5301272121,39.9916530309,0 64.5299743262,39.9916900199,0 64.5298992244,39.9917064594,0 64.5298697201,39.9918092064,0 64.5291386254,39.9920783088,0 64.5286370523,39.9911453644,0 64.5281220682,39.9903089915,0 64.528302,39.990313,0 64.528481,39.990396,0 64.52852,39.990417,0 64.528653,39.990479,0 64.5293344267,39.9907282067,0 64.5294109744,39.9907447005,0
						</coordinates>
					</LinearRing>
				</outerBoundaryIs>
			</Polygon>
		</Placemark>
		<Placemark>
			<name>
				1489 Гарден пахта очик 2026
			</name>
			<description/>
			<Style>
				<LineStyle>
					<color>
						990ac2ff
					</color>
					<width>
						10.0
					</width>
				</LineStyle>
				<PolyStyle>
					<color>
						990ac2ff
					</color>
				</PolyStyle>
			</Style>
			<Polygon>
				<outerBoundaryIs>
					<LinearRing>
						<coordinates>
							64.532002,39.991707,0 64.531977,39.991681,0 64.531882,39.991626,0 64.531723,39.991468,0 64.531575,39.991256,0 64.531248,39.99075,0 64.531092,39.990532,0 64.530945,39.990302,0 64.530784,39.990068,0 64.530604,39.989864,0 64.530701,39.989744,0 64.530838,39.989667,0 64.530927,39.989625,0 64.531076,39.989548,0 64.53124,39.98948,0 64.531436,39.989391,0 64.531543,39.989379,0 64.5316246814,39.9893800561,0 64.5317051476,39.9894581465,0 64.5318017072,39.989622547,0 64.5319438642,39.9899328518,0 64.5321235722,39.9902945298,0 64.5322979158,39.990647986,0 64.5324373907,39.9909254068,0 64.5325446791,39.9911946066,0 64.5326144165,39.9913322885,0 64.532697565,39.9914802449,0 64.5330972141,39.9922919444,0 64.5332849687,39.9927173122,0 64.533506,39.993177,0 64.533402,39.99323,0 64.533286,39.993269,0 64.533113,39.993107,0 64.533009,39.993023,0 64.532981,39.992966,0 64.532979,39.992893,0 64.533029,39.992827,0 64.53286,39.992609,0 64.5326492852,39.9924152397,0 64.532436,39.992158,0 64.532002,39.991707,0
						</coordinates>
					</LinearRing>
				</outerBoundaryIs>
			</Polygon>
		</Placemark>
		<Placemark>
			<name>
				1491 Гарден пахта очик 2026
			</name>
			<description/>
			<Style>
				<LineStyle>
					<color>
						990ac2ff
					</color>
					<width>
						10.0
					</width>
				</LineStyle>
				<PolyStyle>
					<color>
						990ac2ff
					</color>
				</PolyStyle>
			</Style>
			<Polygon>
				<outerBoundaryIs>
					<LinearRing>
						<coordinates>
							64.5304204653,39.9898651854,0 64.5298635334,39.9901761668,0 64.5293887824,39.9906323724,0 64.5290481419,39.9905481184,0 64.5287128657,39.9900734174,0 64.5285277933,39.9900980773,0 64.5282944411,39.9901371221,0 64.5281951994,39.9900487575,0 64.5280262202,39.9897631132,0 64.5278733343,39.989580218,0 64.52671462,39.987812891,0 64.5253493756,39.9858893297,0 64.526803,39.985555,0 64.528138873,39.9851823661,0 64.528866,39.986661,0 64.529105,39.98708,0 64.529295,39.987499,0 64.529392,39.987818,0 64.529537,39.988046,0 64.529883,39.988757,0 64.530127,39.98924,0 64.530212,39.989498,0 64.5304204653,39.9898651854,0
						</coordinates>
					</LinearRing>
				</outerBoundaryIs>
			</Polygon>
		</Placemark>
		<Placemark>
			<name>
				1492 Гарден пахта очик 2026
			</name>
			<description/>
			<Style>
				<LineStyle>
					<color>
						990ac2ff
					</color>
					<width>
						10.0
					</width>
				</LineStyle>
				<PolyStyle>
					<color>
						990ac2ff
					</color>
				</PolyStyle>
			</Style>
			<Polygon>
				<outerBoundaryIs>
					<LinearRing>
						<coordinates>
							64.528324,39.985455,0 64.528234,39.985248,0 64.528948,39.98503,0 64.529137,39.98501,0 64.529545,39.984942,0 64.529936,39.98487,0 64.530339,39.984792,0 64.5307316015,39.9846987294,0 64.5308496187,39.9847562737,0 64.530930085,39.9849617883,0 64.5310105513,39.9851796332,0 64.5311875771,39.9855783287,0 64.5313753317,39.9861743124,0 64.53148262,39.9864825778,0 64.5318044851,39.9871484263,0 64.5320190619,39.9875799913,0 64.53222,39.987992,0 64.5323945711,39.9882951502,0 64.5324804018,39.9885129844,0 64.5325930546,39.9887431482,0 64.5326520632,39.9888664499,0 64.532425,39.988908,0 64.532131,39.988985,0 64.531899,39.989048,0 64.531616,39.989125,0 64.531364,39.989223,0 64.531072,39.98936,0 64.530804,39.989494,0 64.530558,39.989598,0 64.530349,39.989681,0 64.53032,39.989622,0 64.530263,39.989461,0 64.530183,39.989277,0 64.530025,39.988965,0 64.529847,39.988622,0 64.529585,39.988031,0 64.529404,39.987617,0 64.529091,39.986966,0 64.528764,39.986332,0 64.52855,39.985922,0 64.528422,39.985669,0 64.528324,39.985455,0
						</coordinates>
					</LinearRing>
				</outerBoundaryIs>
			</Polygon>
		</Placemark>
		<Placemark>
			<name>
				1497 Гарден пахта очик 2026
			</name>
			<description/>
			<Style>
				<LineStyle>
					<color>
						990ac2ff
					</color>
					<width>
						10.0
					</width>
				</LineStyle>
				<PolyStyle>
					<color>
						990ac2ff
					</color>
				</PolyStyle>
			</Style>
			<Polygon>
				<outerBoundaryIs>
					<LinearRing>
						<coordinates>
							64.5320713978,39.9849683156,0 64.532446907,39.984832676,0 64.5327178101,39.9847669112,0 64.5330396752,39.9847052567,0 64.5336431723,39.9846189403,0 64.5338738422,39.9848676135,0 64.5339596729,39.9848799444,0 64.5347187381,39.984736084,0 64.5355368118,39.9846353815,0 64.5363012414,39.9866247412,0 64.5357406597,39.9868487461,0 64.5360920291,39.9877118772,0 64.5351909124,39.9879091217,0 64.5343405466,39.9881434386,0 64.5325461488,39.9884845757,0 64.532227,39.987762,0 64.531841,39.987055,0 64.531454,39.986196,0 64.531114,39.985245,0 64.531115,39.985244,0 64.531117,39.985242,0 64.531118,39.985241,0 64.5308886491,39.9846908296,0 64.5315484725,39.9845305276,0 64.5318139057,39.9850135287,0 64.5320713978,39.9849683156,0
						</coordinates>
					</LinearRing>
				</outerBoundaryIs>
			</Polygon>
		</Placemark>
		<Placemark>
			<name>
				5584 Гарден пахта очик 2026
			</name>
			<description/>
			<Style>
				<LineStyle>
					<color>
						990ac2ff
					</color>
					<width>
						10.0
					</width>
				</LineStyle>
				<PolyStyle>
					<color>
						990ac2ff
					</color>
				</PolyStyle>
			</Style>
			<Polygon>
				<outerBoundaryIs>
					<LinearRing>
						<coordinates>
							64.4402441309,39.9531558562,0 64.4397672066,39.9532142601,0 64.4393058666,39.9533417381,0 64.4389410862,39.9534856645,0 64.438592399,39.9536830489,0 64.4384547769,39.9537066279,0 64.4384468941,39.953705331,0 64.4382613301,39.9536747971,0 64.4380547993,39.9536408134,0 64.4375761985,39.9535620583,0 64.4374663138,39.9535439769,0 64.4375359881,39.9532799554,0 64.4375372493,39.9532751775,0 64.4375730202,39.9531396297,0 64.4375811652,39.9531087638,0 64.4376109615,39.9529829941,0 64.4376561638,39.9527921854,0 64.4377541844,39.9524151879,0 64.4377969235,39.9522508074,0 64.4379598779,39.9516240591,0 64.438085148,39.9512340339,0 64.4381133856,39.9511571717,0 64.4385060595,39.9511202867,0 64.439321451,39.9511572976,0 64.4395092056,39.9511696346,0 64.4409683274,39.9512313193,0 64.4399696221,39.951223868,0 64.4399579242,39.9512236931,0 64.4413915293,39.9512886187,0 64.4412955569,39.9520373286,0 64.4410970734,39.953151744,0 64.4399209361,39.9531518147,0 64.4402441309,39.9531558562,0
						</coordinates>
					</LinearRing>
				</outerBoundaryIs>
			</Polygon>
		</Placemark>
		<Placemark>
			<name>
				5585 Гарден пахта очик 2026
			</name>
			<description>
				&amp;lt;b&amp;gt;&amp;lt;/b&amp;gt;
			</description>
			<Style>
				<LineStyle>
					<color>
						990ac2ff
					</color>
					<width>
						10.0
					</width>
				</LineStyle>
				<PolyStyle>
					<color>
						990ac2ff
					</color>
				</PolyStyle>
			</Style>
			<Polygon>
				<outerBoundaryIs>
					<LinearRing>
						<coordinates>
							64.436164,39.952669,0 64.436089,39.952644,0 64.436046,39.952579,0 64.436056,39.952428,0 64.436078,39.952264,0 64.436105,39.952128,0 64.436105,39.951943,0 64.436035,39.951832,0 64.435952,39.951754,0 64.4358231754,39.9517195906,0 64.4352330894,39.9516208956,0 64.4338168831,39.9513947192,0 64.4333072634,39.9512631252,0 64.4337042303,39.9501445666,0 64.4339080782,39.9501527914,0 64.4343318672,39.9501898028,0 64.4347663851,39.9502761627,0 64.4351955385,39.9503378483,0 64.4355603189,39.9504324327,0 64.435805829,39.950535261,0 64.4360806675,39.9506380506,0 64.4361986847,39.9506668371,0 64.4363059731,39.9506791741,0 64.4365634651,39.95072441,0 64.4379045696,39.9510246106,0 64.4380440445,39.9510533969,0 64.4380869598,39.9511233064,0 64.4379929646,39.9513052664,0 64.4379500493,39.951420411,0 64.4378749474,39.9516794857,0 64.4375584468,39.9530570887,0 64.4367108687,39.9529337224,0 64.4366761179,39.9527764401,0 64.436164,39.952669,0
						</coordinates>
					</LinearRing>
				</outerBoundaryIs>
			</Polygon>
		</Placemark>
		<Placemark>
			<name>
				5586 Гарден пахта очик 2026
			</name>
			<description/>
			<Style>
				<LineStyle>
					<color>
						990ac2ff
					</color>
					<width>
						10.0
					</width>
				</LineStyle>
				<PolyStyle>
					<color>
						990ac2ff
					</color>
				</PolyStyle>
			</Style>
			<Polygon>
				<outerBoundaryIs>
					<LinearRing>
						<coordinates>
							64.4352455114,39.9552512486,0 64.435053969,39.9552246706,0 64.4350394217,39.9552226664,0 64.4351046906,39.9549891716,0 64.4351958229,39.9546631452,0 64.4352822417,39.9543539789,0 64.435303962,39.9542762699,0 64.4354070123,39.9539076045,0 64.4354355607,39.953802963,0 64.4354669012,39.9536880875,0 64.4354752169,39.9536576034,0 64.4354816039,39.9536341945,0 64.4355445219,39.9534035744,0 64.4355755299,39.9532899101,0 64.435591811,39.9532302357,0 64.4356916893,39.9528641309,0 64.4357414946,39.9528865811,0 64.4359796119,39.9529152853,0 64.4359949525,39.9529169473,0 64.4360630897,39.9529243268,0 64.4361479346,39.9529335176,0 64.4364430689,39.952965485,0 64.4364469613,39.9529659067,0 64.4366661781,39.9529896498,0 64.4368598549,39.9530060991,0 64.4368765743,39.9528808623,0 64.4371975316,39.952925498,0 64.4375510843,39.9529746668,0 64.4375739302,39.9529785633,0 64.4375741287,39.9529778719,0 64.4376109615,39.9529829941,0 64.4375811652,39.9531087638,0 64.4375730202,39.9531396297,0 64.4375372493,39.9532751775,0 64.4375359881,39.9532799554,0 64.4374663138,39.9535439769,0 64.4375761985,39.9535620583,0 64.4380547993,39.9536408134,0 64.4382613301,39.9536747971,0 64.4384468941,39.953705331,0 64.4384523289,39.9537082643,0 64.43832234,39.9537951163,0 64.4383206287,39.9538227382,0 64.4377881515,39.9542583463,0 64.4377309791,39.9543051167,0 64.4374415051,39.9545327389,0 64.4366334642,39.9551681158,0 64.4362728256,39.9554622441,0 64.4361657914,39.9555057644,0 64.4356394415,39.9553217038,0 64.4356358851,39.9553206122,0 64.4356317807,39.9553197011,0 64.4352644137,39.9552539116,0 64.4352632585,39.9552537277,0 64.4352455114,39.9552512486,0
						</coordinates>
					</LinearRing>
				</outerBoundaryIs>
			</Polygon>
		</Placemark>
		<Placemark>
			<name>
				5596 Гарден пахта очик 2026
			</name>
			<description>
				&amp;lt;b&amp;gt;&amp;lt;/b&amp;gt;
			</description>
			<Style>
				<LineStyle>
					<color>
						990ac2ff
					</color>
					<width>
						10.0
					</width>
				</LineStyle>
				<PolyStyle>
					<color>
						990ac2ff
					</color>
				</PolyStyle>
			</Style>
			<Polygon>
				<outerBoundaryIs>
					<LinearRing>
						<coordinates>
							64.428045,39.949387,0 64.425479,39.948118,0 64.425985,39.947574,0 64.426335,39.947773,0 64.426348,39.94795,0 64.426404,39.948119,0 64.426846,39.948376,0 64.426843,39.94852,0 64.428216,39.949202,0 64.428045,39.949387,0
						</coordinates>
					</LinearRing>
				</outerBoundaryIs>
			</Polygon>
		</Placemark>
		<Placemark>
			<name>
				5597 Гарден пахта очик 2026
			</name>
			<description/>
			<Style>
				<LineStyle>
					<color>
						990ac2ff
					</color>
					<width>
						10.0
					</width>
				</LineStyle>
				<PolyStyle>
					<color>
						990ac2ff
					</color>
				</PolyStyle>
			</Style>
			<Polygon>
				<outerBoundaryIs>
					<LinearRing>
						<coordinates>
							64.423579,39.946293,0 64.423697,39.946118,0 64.423926,39.946123,0 64.424142,39.946134,0 64.424371,39.946156,0 64.424723,39.946227,0 64.424788,39.946274,0 64.4259186784,39.9463849943,0 64.4259830514,39.9464960346,0 64.4258811275,39.9467263399,0 64.4257255594,39.9469689821,0 64.4256236354,39.9471170345,0 64.4255753557,39.9471663853,0 64.4255860845,39.9472650866,0 64.425248,39.947622,0 64.424953,39.947933,0 64.424713,39.948074,0 64.424336,39.948408,0 64.422818,39.947451,0 64.423579,39.946293,0
						</coordinates>
					</LinearRing>
				</outerBoundaryIs>
			</Polygon>
		</Placemark>
		<Placemark>
			<name>
				5625 Гарден пахта очик 2026
			</name>
			<description/>
			<Style>
				<LineStyle>
					<color>
						990ac2ff
					</color>
					<width>
						10.0
					</width>
				</LineStyle>
				<PolyStyle>
					<color>
						990ac2ff
					</color>
				</PolyStyle>
			</Style>
			<Polygon>
				<outerBoundaryIs>
					<LinearRing>
						<coordinates>
							64.4167937061,39.9437316693,0 64.4167956087,39.9437192959,0 64.4171896476,39.9437316693,0 64.4180376877,39.9437678367,0 64.4181319138,39.9437906799,0 64.4182537433,39.9438573053,0 64.4183603428,39.9439029903,0 64.4184064271,39.9439580478,0 64.4183635118,39.9441225577,0 64.418315232,39.944352871,0 64.4182615878,39.9445667326,0 64.4182213824,39.9445958892,0 64.418020189,39.9446654377,0 64.4177588147,39.9446929708,0 64.4175913014,39.944694875,0 64.4172715011,39.9447158137,0 64.4171934546,39.9446929708,0 64.4169212453,39.9445768539,0 64.4168032229,39.9445273609,0 64.4167765734,39.9444778679,0 64.4167746699,39.9442189831,0 64.4167898982,39.9439277371,0 64.4167937061,39.9437316693,0
						</coordinates>
					</LinearRing>
				</outerBoundaryIs>
			</Polygon>
		</Placemark>
		<Placemark>
			<name>
				5627 Гарден пахта очик 2026
			</name>
			<description/>
			<Style>
				<LineStyle>
					<color>
						990ac2ff
					</color>
					<width>
						10.0
					</width>
				</LineStyle>
				<PolyStyle>
					<color>
						990ac2ff
					</color>
				</PolyStyle>
			</Style>
			<Polygon>
				<outerBoundaryIs>
					<LinearRing>
						<coordinates>
							64.41804,39.941939,0 64.418131,39.943724,0 64.416763,39.943696,0 64.416783,39.943514,0 64.416786,39.942964,0 64.416786,39.941971,0 64.416818,39.941953,0 64.41804,39.941939,0
						</coordinates>
					</LinearRing>
				</outerBoundaryIs>
			</Polygon>
		</Placemark>
		<Placemark>
			<name>
				5630 Гарден пахта очик 2026
			</name>
			<description/>
			<Style>
				<LineStyle>
					<color>
						990ac2ff
					</color>
					<width>
						10.0
					</width>
				</LineStyle>
				<PolyStyle>
					<color>
						990ac2ff
					</color>
				</PolyStyle>
			</Style>
			<Polygon>
				<outerBoundaryIs>
					<LinearRing>
						<coordinates>
							64.416658,39.940088,0 64.416697,39.940079,0 64.416774,39.940067,0 64.416878,39.940037,0 64.416937,39.940007,0 64.416926,39.939868,0 64.416911,39.939546,0 64.416866,39.939261,0 64.416869,39.939192,0 64.417308,39.939085,0 64.417681,39.939046,0 64.418332,39.939029,0 64.418453,39.940311,0 64.41855,39.941084,0 64.418625,39.941487,0 64.418657,39.941882,0 64.417586,39.941893,0 64.417003,39.941893,0 64.416884,39.941863,0 64.416833,39.941837,0 64.416771,39.941135,0 64.416658,39.940088,0
						</coordinates>
					</LinearRing>
				</outerBoundaryIs>
			</Polygon>
		</Placemark>
		<Placemark>
			<name>
				5632 Гарден пахта очик 2026
			</name>
			<description/>
			<Style>
				<LineStyle>
					<color>
						990ac2ff
					</color>
					<width>
						10.0
					</width>
				</LineStyle>
				<PolyStyle>
					<color>
						990ac2ff
					</color>
				</PolyStyle>
			</Style>
			<Polygon>
				<outerBoundaryIs>
					<LinearRing>
						<coordinates>
							64.416589,39.938004,0 64.416866,39.937929,0 64.418023,39.937691,0 64.418044,39.937715,0 64.418091,39.937828,0 64.418258,39.938435,0 64.418356,39.938731,0 64.418373,39.938908,0 64.417525,39.938953,0 64.416811,39.939019,0 64.416794,39.938929,0 64.416762,39.938825,0 64.41667,39.938423,0 64.416607,39.938063,0 64.416589,39.938004,0
						</coordinates>
					</LinearRing>
				</outerBoundaryIs>
			</Polygon>
		</Placemark>
		<Placemark>
			<name>
				5637 Гарден пахта очик 2026
			</name>
			<description/>
			<Style>
				<LineStyle>
					<color>
						990ac2ff
					</color>
					<width>
						10.0
					</width>
				</LineStyle>
				<PolyStyle>
					<color>
						990ac2ff
					</color>
				</PolyStyle>
			</Style>
			<Polygon>
				<outerBoundaryIs>
					<LinearRing>
						<coordinates>
							64.423555,39.938353,0 64.4249861882,39.9384259386,0 64.42529196,39.9383477899,0 64.4256567405,39.9383107721,0 64.4263809369,39.9381914923,0 64.4271748708,39.9381174564,0 64.42755038,39.9380516467,0 64.4279258893,39.9380022894,0 64.4290631459,39.9378171991,0 64.4293,39.937802,0 64.429761,39.937781,0 64.429937546,39.9378542172,0 64.4300501988,39.9379652714,0 64.430103843,39.9381215695,0 64.4300770209,39.9383025459,0 64.4300287411,39.9384506171,0 64.429488,39.938472,0 64.4279312537,39.9389524115,0 64.4265847848,39.9391786291,0 64.425329511,39.93939662,0 64.425663,39.940504,0 64.425856,39.941121,0 64.425952,39.941421,0 64.4261974882,39.9422786275,0 64.4262779545,39.9425130598,0 64.42658,39.943696,0 64.426449,39.943763,0 64.425701,39.943869,0 64.425293,39.943905,0 64.425284,39.943839,0 64.425279,39.943807,0 64.425189,39.943628,0 64.425183,39.943616,0 64.425108,39.943468,0 64.424909,39.942987,0 64.424762,39.942634,0 64.424712,39.942507,0 64.424496,39.941959,0 64.424374,39.941648,0 64.424273,39.941321,0 64.424196,39.941069,0 64.424145,39.9409,0 64.424116,39.940806,0 64.42409,39.940746,0 64.424015,39.940571,0 64.423973,39.940473,0 64.423952,39.940409,0 64.423938,39.940367,0 64.423881,39.940201,0 64.423789,39.939927,0 64.423716,39.939681,0 64.423675,39.93954,0 64.423629,39.939295,0 64.42358,39.939039,0 64.423575,39.938983,0 64.423573,39.938948,0 64.423568,39.938894,0 64.423556,39.938746,0 64.423545,39.938613,0 64.423555,39.938353,0
						</coordinates>
					</LinearRing>
				</outerBoundaryIs>
			</Polygon>
		</Placemark>
		<Placemark>
			<name>
				5638 Гарден пахта очик 2026
			</name>
			<description/>
			<Style>
				<LineStyle>
					<color>
						990ac2ff
					</color>
					<width>
						10.0
					</width>
				</LineStyle>
				<PolyStyle>
					<color>
						990ac2ff
					</color>
				</PolyStyle>
			</Style>
			<Polygon>
				<outerBoundaryIs>
					<LinearRing>
						<coordinates>
							64.4279847901,39.9409747818,0 64.4279859309,39.9409781016,0 64.4280614011,39.9411977205,0 64.428070351,39.9412237682,0 64.4283398402,39.9419888581,0 64.4283604412,39.9419845662,0 64.427413864,39.9421878669,0 64.4263434539,39.9424125427,0 64.4263389767,39.9423982039,0 64.426330334,39.942371302,0 64.4263162386,39.9423739849,0 64.426273945,39.9422516181,0 64.4261376867,39.941776451,0 64.4261361174,39.9417706268,0 64.4261107543,39.9416658353,0 64.4260694822,39.94149531,0 64.4260348108,39.9413520565,0 64.4260264079,39.9413173392,0 64.4258192888,39.9406450793,0 64.4256485047,39.9401124803,0 64.4255087376,39.9396424062,0 64.4254831392,39.9394586221,0 64.4263406934,39.9393007283,0 64.4266757048,39.9392390432,0 64.4273930536,39.9391202845,0 64.4274038361,39.9391187397,0 64.4274799674,39.9393530076,0 64.4275514913,39.9395730999,0 64.4275593488,39.9395972798,0 64.4275688288,39.9396264495,0 64.4275945987,39.9397062739,0 64.4276144209,39.9397676702,0 64.4276604003,39.939910089,0 64.4276741383,39.939952638,0 64.4277872209,39.9403029064,0 64.4277963397,39.9403311492,0 64.4277969371,39.940333001,0 64.4279056063,39.94066959,0 64.4279204725,39.9407156326,0 64.4279265487,39.9407344518,0 64.4279287783,39.9407413596,0 64.4279061605,39.9407459649,0 64.4279847901,39.9409747818,0
						</coordinates>
					</LinearRing>
				</outerBoundaryIs>
			</Polygon>
		</Placemark>
		<Placemark>
			<name>
				5639 Гарден пахта очик 2026
			</name>
			<description/>
			<Style>
				<LineStyle>
					<color>
						990ac2ff
					</color>
					<width>
						10.0
					</width>
				</LineStyle>
				<PolyStyle>
					<color>
						990ac2ff
					</color>
				</PolyStyle>
			</Style>
			<Polygon>
				<outerBoundaryIs>
					<LinearRing>
						<coordinates>
							64.4305317618,39.9401083999,0 64.4305878724,39.940267641,0 64.4305880314,39.940268078,0 64.4305881994,39.9402685122,0 64.4307344208,39.9406343967,0 64.4309717354,39.9411736055,0 64.4310039219,39.9412846543,0 64.4310293676,39.9414374044,0 64.4310454609,39.9415566785,0 64.4295537348,39.9418549015,0 64.4286846991,39.9420317552,0 64.4283950206,39.9421016739,0 64.428091043,39.9413545738,0 64.4280803141,39.9412106218,0 64.427951485,39.9407370172,0 64.4279513979,39.9407367551,0 64.4277323509,39.9400582779,0 64.4275915301,39.9396220925,0 64.4274043975,39.9391376795,0 64.4275478603,39.9390724432,0 64.4277906355,39.9390225142,0 64.4284987387,39.938857992,0 64.4287056072,39.9388073037,0 64.4287106252,39.9388056289,0 64.4287123401,39.9388050563,0 64.4291478333,39.9386358864,0 64.4293087659,39.9385741902,0 64.4299709705,39.9385015186,0 64.4299378227,39.9385103891,0 64.4300637724,39.9386241196,0 64.4300691368,39.9386734764,0 64.4302514416,39.939219474,0 64.4303548274,39.9395366435,0 64.4303655562,39.9395818867,0 64.4305020698,39.9400241346,0 64.4305282476,39.940098426,0 64.4305317618,39.9401083999,0
						</coordinates>
					</LinearRing>
				</outerBoundaryIs>
			</Polygon>
		</Placemark>
		<Placemark>
			<name>
				5640 Гарден пахта очик 2026
			</name>
			<description/>
			<Style>
				<LineStyle>
					<color>
						990ac2ff
					</color>
					<width>
						10.0
					</width>
				</LineStyle>
				<PolyStyle>
					<color>
						990ac2ff
					</color>
				</PolyStyle>
			</Style>
			<Polygon>
				<outerBoundaryIs>
					<LinearRing>
						<coordinates>
							64.4301115596,39.9428992747,0 64.430103437,39.9428729145,0 64.4300792067,39.9427942803,0 64.4297772551,39.9418524325,0 64.4297584776,39.9417938634,0 64.4299016934,39.9417695536,0 64.4310194123,39.9416148134,0 64.4310435814,39.9417291175,0 64.4313336259,39.942437886,0 64.4313369119,39.9424459138,0 64.4314272708,39.9427023722,0 64.4316233829,39.9432589738,0 64.4315254485,39.9432440724,0 64.4315199958,39.9432435795,0 64.43151451,39.9432437473,0 64.4315091253,39.9432445716,0 64.4314161559,39.9432647315,0 64.4302667911,39.9434030544,0 64.4301115596,39.9428992747,0
						</coordinates>
					</LinearRing>
				</outerBoundaryIs>
			</Polygon>
		</Placemark>
		<Placemark>
			<name>
				5641 Гарден пахта очик 2026
			</name>
			<description/>
			<Style>
				<LineStyle>
					<color>
						990ac2ff
					</color>
					<width>
						10.0
					</width>
				</LineStyle>
				<PolyStyle>
					<color>
						990ac2ff
					</color>
				</PolyStyle>
			</Style>
			<Polygon>
				<outerBoundaryIs>
					<LinearRing>
						<coordinates>
							64.4297318237,39.941861062,0 64.4300337197,39.9428027361,0 64.430220448,39.9434087326,0 64.4295289419,39.9434946435,0 64.429461977,39.9432626745,0 64.4294366787,39.9431750436,0 64.4293866281,39.9430016671,0 64.4293631138,39.9429202099,0 64.4293629845,39.9429197929,0 64.4290589928,39.9420051531,0 64.429029873,39.9419175386,0 64.4297127678,39.9418016224,0 64.4297318237,39.941861062,0
						</coordinates>
					</LinearRing>
				</outerBoundaryIs>
			</Polygon>
		</Placemark>
		<Placemark>
			<name>
				5641 Гарден пахта очик 2026
			</name>
			<description/>
			<Style>
				<LineStyle>
					<color>
						990ac2ff
					</color>
					<width>
						10.0
					</width>
				</LineStyle>
				<PolyStyle>
					<color>
						990ac2ff
					</color>
				</PolyStyle>
			</Style>
			<Polygon>
				<outerBoundaryIs>
					<LinearRing>
						<coordinates>
							64.4290249915,39.9420118486,0 64.4293289168,39.9429262863,0 64.4293520708,39.9430064913,0 64.4294942355,39.9434989554,0 64.4291968132,39.9435359056,0 64.4291957586,39.9435360494,0 64.429194624,39.9435362327,0 64.4287934014,39.9436064476,0 64.4285567097,39.9436238603,0 64.428553933,39.9436241514,0 64.4284339118,39.9436404993,0 64.428433274,39.9436405912,0 64.428295414,39.9436617481,0 64.4282928278,39.9436622238,0 64.4279646804,39.9437328293,0 64.427950407,39.9436915155,0 64.4279466134,39.9436805374,0 64.4276840799,39.9428729753,0 64.4276824701,39.9428680245,0 64.4274798237,39.9422446613,0 64.4276200471,39.9422147432,0 64.4284706547,39.9420403589,0 64.4284735347,39.9420396654,0 64.4287299327,39.9419684496,0 64.4289955807,39.9419233593,0 64.4290249915,39.9420118486,0
						</coordinates>
					</LinearRing>
				</outerBoundaryIs>
			</Polygon>
		</Placemark>
		<Placemark>
			<name>
				5642 Гарден пахта очик 2026
			</name>
			<description/>
			<Style>
				<LineStyle>
					<color>
						990ac2ff
					</color>
					<width>
						10.0
					</width>
				</LineStyle>
				<PolyStyle>
					<color>
						990ac2ff
					</color>
				</PolyStyle>
			</Style>
			<Polygon>
				<outerBoundaryIs>
					<LinearRing>
						<coordinates>
							64.426534,39.943194,0 64.426304,39.942503,0 64.427435,39.942254,0 64.427506,39.942474,0 64.42788,39.943625,0 64.426878,39.943914,0 64.426813,39.943831,0 64.426734,39.94376,0 64.426731,39.943758,0 64.426726,39.943755,0 64.426717,39.943751,0 64.426734,39.943731,0 64.426736,39.943727,0 64.426738,39.943723,0 64.426739,39.94372,0 64.426739,39.943716,0 64.426738,39.943712,0 64.426716,39.943704,0 64.426618,39.943457,0 64.426534,39.943194,0
						</coordinates>
					</LinearRing>
				</outerBoundaryIs>
			</Polygon>
		</Placemark>
		<Placemark>
			<name>
				5644 Гарден пахта очик 2026
			</name>
			<description/>
			<Style>
				<LineStyle>
					<color>
						990ac2ff
					</color>
					<width>
						10.0
					</width>
				</LineStyle>
				<PolyStyle>
					<color>
						990ac2ff
					</color>
				</PolyStyle>
			</Style>
			<Polygon>
				<outerBoundaryIs>
					<LinearRing>
						<coordinates>
							64.4215817356,39.9427518073,0 64.4215627012,39.9426613878,0 64.4215483225,39.9417006576,0 64.4215983921,39.9406317071,0 64.4217360771,39.9405942815,0 64.4220203913,39.9406559758,0 64.4223744429,39.9407176701,0 64.4226855791,39.9407958161,0 64.4226739091,39.9409005863,0 64.4227124012,39.9411166249,0 64.4226263199,39.9412598853,0 64.4226694859,39.9415772709,0 64.4226748503,39.9417788025,0 64.4227499522,39.9419885593,0 64.4228840626,39.9422229926,0 64.4229806221,39.9423751681,0 64.4230718172,39.9424779893,0 64.4230760381,39.942559071,0 64.4230760381,39.942590004,0 64.4230189313,39.9426280749,0 64.4228666453,39.9426685257,0 64.422688186,39.9427208737,0 64.4222265696,39.942747048,0 64.4217411596,39.9427613252,0 64.4215983921,39.9427637038,0 64.4215817356,39.9427518073,0
						</coordinates>
					</LinearRing>
				</outerBoundaryIs>
			</Polygon>
		</Placemark>
		<Placemark>
			<name>
				5645 Гарден пахта очик 2026
			</name>
			<description/>
			<Style>
				<LineStyle>
					<color>
						990ac2ff
					</color>
					<width>
						10.0
					</width>
				</LineStyle>
				<PolyStyle>
					<color>
						990ac2ff
					</color>
				</PolyStyle>
			</Style>
			<Polygon>
				<outerBoundaryIs>
					<LinearRing>
						<coordinates>
							64.4200660199,39.9424329589,0 64.420189752,39.942133147,0 64.4203087249,39.9418476119,0 64.4203372778,39.9417024652,0 64.4203753502,39.9415620769,0 64.4203491751,39.9412931982,0 64.4203277602,39.9409434169,0 64.4202920683,39.940624569,0 64.4202896887,39.9404960781,0 64.420537153,39.9405032162,0 64.4207941349,39.9405151138,0 64.4211058441,39.9405412882,0 64.4213937586,39.9405864977,0 64.4215174907,39.9406150508,0 64.4215317677,39.9409410368,0 64.421529388,39.9411932601,0 64.4215365269,39.9413479252,0 64.4215127324,39.9417191212,0 64.4215079731,39.9423520583,0 64.4215317677,39.9427518073,0 64.4207346476,39.9426804229,0 64.4203158629,39.9425971419,0 64.42019689,39.9425328973,0 64.4200660199,39.9424329589,0
						</coordinates>
					</LinearRing>
				</outerBoundaryIs>
			</Polygon>
		</Placemark>
		<Placemark>
			<name>
				5648 Гарден пахта очик 2026
			</name>
			<description/>
			<Style>
				<LineStyle>
					<color>
						990ac2ff
					</color>
					<width>
						10.0
					</width>
				</LineStyle>
				<PolyStyle>
					<color>
						990ac2ff
					</color>
				</PolyStyle>
			</Style>
			<Polygon>
				<outerBoundaryIs>
					<LinearRing>
						<coordinates>
							64.4193093024,39.9435467921,0 64.419262825,39.9433400319,0 64.419472,39.943099,0 64.419544,39.942953,0 64.4196565844,39.9428028092,0 64.4197746016,39.9426999886,0 64.4199355342,39.942642409,0 64.4204934337,39.9426835373,0 64.4213141896,39.9427493425,0 64.4216736056,39.9427740195,0 64.4219901063,39.9427740195,0 64.4222529628,39.9427822451,0 64.4223870732,39.9427740195,0 64.4224761114,39.9428218183,0 64.4225064955,39.9429422111,0 64.4226835213,39.9436331604,0 64.4229302846,39.9444968372,0 64.4229463778,39.9446284442,0 64.4229860124,39.9448655892,0 64.4229396083,39.9449291056,0 64.422730396,39.9449455564,0 64.4221885898,39.9449702325,0 64.4218506314,39.9449743452,0 64.421357105,39.9450031341,0 64.4208689429,39.9450236975,0 64.4208026942,39.9448697019,0 64.4207329568,39.9447709971,0 64.4205524423,39.9447563722,0 64.4204236962,39.9447399214,0 64.4201608397,39.9447563722,0 64.4199408986,39.944772823,0 64.4197477795,39.9447275833,0 64.4193093024,39.9435467921,0
						</coordinates>
					</LinearRing>
				</outerBoundaryIs>
			</Polygon>
		</Placemark>
		<Placemark>
			<name>
				5653 Гарден пахта очик 2026
			</name>
			<description>
				&amp;lt;b&amp;gt;&amp;lt;/b&amp;gt;
			</description>
			<Style>
				<LineStyle>
					<color>
						990ac2ff
					</color>
					<width>
						10.0
					</width>
				</LineStyle>
				<PolyStyle>
					<color>
						990ac2ff
					</color>
				</PolyStyle>
			</Style>
			<Polygon>
				<outerBoundaryIs>
					<LinearRing>
						<coordinates>
							64.4250768294,39.9449080071,0 64.42498477,39.9440639709,0 64.4249948428,39.9440514766,0 64.4250466963,39.9440329694,0 64.4256860767,39.9439722069,0 64.425925652,39.9439521212,0 64.425928497,39.9439517907,0 64.4259308164,39.9439513828,0 64.4261487764,39.9439070572,0 64.4263032885,39.9438868096,0 64.4264400677,39.9438961932,0 64.4265428727,39.9439035142,0 64.4266582856,39.9439487401,0 64.4268422237,39.9441086656,0 64.4268433394,39.9441095908,0 64.4270743843,39.9442924959,0 64.4270769921,39.9442943614,0 64.4271361732,39.9443325724,0 64.4272200848,39.9443887607,0 64.4272553679,39.9444482126,0 64.4272965377,39.9446488121,0 64.4273459019,39.9450146259,0 64.4273459891,39.9450152772,0 64.4275338618,39.9463792772,0 64.4266219452,39.9463034625,0 64.426599101,39.946301716,0 64.4251938062,39.9461943767,0 64.4251270883,39.9454346588,0 64.425098927,39.9451221213,0 64.4250768294,39.9449080071,0
						</coordinates>
					</LinearRing>
				</outerBoundaryIs>
			</Polygon>
		</Placemark>
		<Placemark>
			<name>
				5660 Гарден пахта очик 2026
			</name>
			<description/>
			<Style>
				<LineStyle>
					<color>
						990ac2ff
					</color>
					<width>
						10.0
					</width>
				</LineStyle>
				<PolyStyle>
					<color>
						990ac2ff
					</color>
				</PolyStyle>
			</Style>
			<Polygon>
				<outerBoundaryIs>
					<LinearRing>
						<coordinates>
							64.437379,39.948697,0 64.4389843389,39.9484205544,0 64.4391452714,39.9499421569,0 64.4391974353,39.9505014192,0 64.4392993593,39.9510648102,0 64.4388502284,39.9510977298,0 64.438024108,39.9510524942,0 64.4377007627,39.9509414403,0 64.437652483,39.9505466552,0 64.4375773811,39.9502875762,0 64.4375291013,39.9496501554,0 64.437379,39.948697,0
						</coordinates>
					</LinearRing>
				</outerBoundaryIs>
			</Polygon>
		</Placemark>
		<Placemark>
			<name>
				5660-1 Гарден пахта очик 2026
			</name>
			<description/>
			<Style>
				<LineStyle>
					<color>
						990ac2ff
					</color>
					<width>
						10.0
					</width>
				</LineStyle>
				<PolyStyle>
					<color>
						990ac2ff
					</color>
				</PolyStyle>
			</Style>
			<Polygon>
				<outerBoundaryIs>
					<LinearRing>
						<coordinates>
							64.437523,39.950597,0 64.437371,39.950586,0 64.437199,39.950576,0 64.436861,39.950506,0 64.436866,39.950416,0 64.436925,39.950288,0 64.436949,39.950128,0 64.436963,39.950015,0 64.436944,39.949846,0 64.436907,39.949679,0 64.436861,39.949451,0 64.436793,39.949225,0 64.436736,39.948994,0 64.4366937324,39.9487927543,0 64.436759,39.948748,0 64.436791,39.948805,0 64.43731,39.948725,0 64.437503,39.950565,0 64.437504,39.950567,0 64.437505,39.95057,0 64.437523,39.950597,0
						</coordinates>
					</LinearRing>
				</outerBoundaryIs>
			</Polygon>
		</Placemark>
		<Placemark>
			<name>
				5661 Гарден пахта очик 2026
			</name>
			<description/>
			<Style>
				<LineStyle>
					<color>
						990ac2ff
					</color>
					<width>
						10.0
					</width>
				</LineStyle>
				<PolyStyle>
					<color>
						990ac2ff
					</color>
				</PolyStyle>
			</Style>
			<Polygon>
				<outerBoundaryIs>
					<LinearRing>
						<coordinates>
							64.4392117845,39.9501669909,0 64.4391851234,39.9499996314,0 64.4390783478,39.9492551853,0 64.4390004321,39.9487989019,0 64.4405990287,39.9485480413,0 64.4407544811,39.9491152876,0 64.4409384372,39.9497166439,0 64.4409969552,39.9499190848,0 64.4414787933,39.9511594146,0 64.4407181945,39.9511432171,0 64.4400080637,39.9511205865,0 64.4395090244,39.951109105,0 64.4394458252,39.951107651,0 64.4393591657,39.9510921146,0 64.4392153714,39.9501895022,0 64.4392117845,39.9501669909,0
						</coordinates>
					</LinearRing>
				</outerBoundaryIs>
			</Polygon>
		</Placemark>
	</Document>
</kml>

