<?xml version="1.0" encoding="utf-8"?>

<kml>
	<Document>
		<name>
			Geofences
		</name>
		<Placemark>
			<name>
				1415 Гарден пахта томчи 2026
			</name>
			<description>
				&amp;lt;b&amp;gt;&amp;lt;/b&amp;gt;
			</description>
			<Style>
				<LineStyle>
					<color>
						99dbc200
					</color>
					<width>
						10.0
					</width>
				</LineStyle>
				<PolyStyle>
					<color>
						99dbc200
					</color>
				</PolyStyle>
			</Style>
			<Polygon>
				<outerBoundaryIs>
					<LinearRing>
						<coordinates>
							64.5106775165,39.9934897943,0 64.5106564851,39.9934552606,0 64.5104920359,39.9931852319,0 64.5103484093,39.9929549853,0 64.511037737,39.9927844281,0 64.5118263064,39.9925830468,0 64.5121776758,39.9925090698,0 64.5125344096,39.9924289281,0 64.5134061275,39.9922871385,0 64.5137092171,39.9922357654,0 64.5140337644,39.9921720627,0 64.5146909056,39.9920672613,0 64.514744435,39.9922589418,0 64.5147960361,39.9924141435,0 64.5149856497,39.9929844443,0 64.5152055097,39.9936457035,0 64.5152938716,39.9939142752,0 64.5153235933,39.9940046119,0 64.5155708752,39.9947561982,0 64.5156632157,39.9950218871,0 64.5157499445,39.9952714283,0 64.5159433805,39.9958279863,0 64.5160706053,39.9961940347,0 64.5162880156,39.9967752124,0 64.516288303,39.9967759441,0 64.5163262101,39.9968674425,0 64.5158415733,39.9969865866,0 64.5152809916,39.9971180925,0 64.5141115485,39.9973379534,0 64.5138969718,39.9973790488,0 64.5137065349,39.9974283633,0 64.5136019288,39.9973913774,0 64.5134919582,39.9974139799,0 64.5133766232,39.9974468562,0 64.513078898,39.997518773,0 64.5130333005,39.9974509657,0 64.5128911434,39.997196174,0 64.5127758084,39.9969968605,0 64.5126497446,39.9967811081,0 64.5124286752,39.9963890969,0 64.5123874435,39.9963220194,0 64.5122743743,39.9961380752,0 64.5121264514,39.9958974279,0 64.5119738279,39.9956961713,0 64.5117498417,39.9952847305,0 64.5117305917,39.9952534146,0 64.5115974255,39.9950268625,0 64.5115032695,39.9948666755,0 64.511309033,39.994536222,0 64.511150793,39.9942670046,0 64.5111491123,39.9942641435,0 64.510954945,39.9939453278,0 64.5108394729,39.9937557239,0 64.5106775165,39.9934897943,0
						</coordinates>
					</LinearRing>
				</outerBoundaryIs>
			</Polygon>
		</Placemark>
		<Placemark>
			<name>
				1416 Гарден пахта томчи 2026
			</name>
			<description>
				&amp;lt;b&amp;gt;&amp;lt;/b&amp;gt;
			</description>
			<Style>
				<LineStyle>
					<color>
						99dbc200
					</color>
					<width>
						10.0
					</width>
				</LineStyle>
				<PolyStyle>
					<color>
						99dbc200
					</color>
				</PolyStyle>
			</Style>
			<Polygon>
				<outerBoundaryIs>
					<LinearRing>
						<coordinates>
							64.5163637721,39.9969095204,0 64.5161770067,39.9962601251,0 64.515538641,39.9944436543,0 64.5154152593,39.9941888514,0 64.514717885,39.9920723065,0 64.517105051,39.9917681762,0 64.5184568844,39.9913654069,0 64.5192937336,39.9916202204,0 64.5203880749,39.9949861348,0 64.5203612528,39.995528611,0 64.5202851616,39.996095821,0 64.5163637721,39.9969095204,0
						</coordinates>
					</LinearRing>
				</outerBoundaryIs>
			</Polygon>
		</Placemark>
		<Placemark>
			<name>
				1418 Гарден пахта томчи 2026
			</name>
			<description>
				&amp;lt;b&amp;gt;&amp;lt;/b&amp;gt;
			</description>
			<Style>
				<LineStyle>
					<color>
						99dbc200
					</color>
					<width>
						10.0
					</width>
				</LineStyle>
				<PolyStyle>
					<color>
						99dbc200
					</color>
				</PolyStyle>
			</Style>
			<Polygon>
				<outerBoundaryIs>
					<LinearRing>
						<coordinates>
							64.5135136964,39.9976105273,0 64.5135896929,39.9975946368,0 64.5139593102,39.9975173462,0 64.5148690457,39.9973271063,0 64.5153883259,39.9972015371,0 64.5156136315,39.9971666059,0 64.5162412684,39.9970124975,0 64.5164182521,39.9969829453,0 64.5167911212,39.9969118131,0 64.5168339945,39.9969295209,0 64.516903732,39.9970240409,0 64.5169600584,39.9971103417,0 64.5170753934,39.9973117096,0 64.5171446526,39.9973646904,0 64.5173130481,39.9976958833,0 64.517336513,39.9977420329,0 64.5174203025,39.9979068234,0 64.5174220865,39.9979097887,0 64.517568652,39.9981191965,0 64.5175410405,39.9981271921,0 64.517432675,39.9981805765,0 64.5173859599,39.9982024825,0 64.5172529993,39.9982648304,0 64.517145718,39.9983151368,0 64.5170641546,39.9983533843,0 64.5170237825,39.9983723153,0 64.516935965,39.9984134943,0 64.5168215681,39.9984577864,0 64.5168006239,39.9984658953,0 64.5166791034,39.9985129454,0 64.5165287802,39.9985711484,0 64.5164182521,39.9986390796,0 64.5161232092,39.9987972938,0 64.5160481073,39.9988301694,0 64.5159738109,39.9988387665,0 64.5159066475,39.9988720125,0 64.5158455108,39.9989037433,0 64.5155890221,39.9990368637,0 64.5155685836,39.9990474708,0 64.5155451798,39.9990596179,0 64.5155087351,39.9990766412,0 64.5152193047,39.9992493323,0 64.5148303844,39.9994178187,0 64.5147177737,39.9993939474,0 64.514645312,39.9993459038,0 64.5145664222,39.9992501811,0 64.5145058371,39.9992267305,0 64.5144360997,39.9991712532,0 64.5142885782,39.9990459153,0 64.514106188,39.9989164679,0 64.5138835646,39.9986719553,0 64.5138218738,39.9985548355,0 64.5137682296,39.998480865,0 64.5135965683,39.9982630625,0 64.5134302713,39.9980555331,0 64.5133927204,39.9979527955,0 64.5133551695,39.9977493747,0 64.5133877903,39.997716789,0 64.5134070277,39.9976760304,0 64.5134713336,39.9976418325,0 64.5135136964,39.9976105273,0
						</coordinates>
					</LinearRing>
				</outerBoundaryIs>
			</Polygon>
		</Placemark>
		<Placemark>
			<name>
				1419 Гарден пахта томчи 2026
			</name>
			<description>
				&amp;lt;b&amp;gt;&amp;lt;/b&amp;gt;
			</description>
			<Style>
				<LineStyle>
					<color>
						99dbc200
					</color>
					<width>
						10.0
					</width>
				</LineStyle>
				<PolyStyle>
					<color>
						99dbc200
					</color>
				</PolyStyle>
			</Style>
			<Polygon>
				<outerBoundaryIs>
					<LinearRing>
						<coordinates>
							64.517491882,39.9995251296,0 64.5165456829,39.9986639771,0 64.5171202346,39.9984198505,0 64.5174402981,39.9982642204,0 64.5176326696,39.9981842209,0 64.5176863457,39.9981775179,0 64.5176750853,39.9981241895,0 64.5176464372,39.9981277669,0 64.5176319366,39.9980956323,0 64.5174849524,39.9978856268,0 64.5172059051,39.9973368113,0 64.5172542031,39.9973064242,0 64.5171632369,39.9972485685,0 64.5169674357,39.9968663795,0 64.5170291265,39.9968396673,0 64.518985845,39.9964431826,0 64.5204650362,39.9961184334,0 64.5204274853,39.9962376122,0 64.5204060276,39.9964636403,0 64.5203926166,39.9967513114,0 64.5203443368,39.9971335011,0 64.5202799638,39.997495141,0 64.5202450951,39.9976122626,0 64.5202531417,39.9977663696,0 64.5202611883,39.9978382862,0 64.5203041037,39.998006776,0 64.52038457,39.9981978676,0 64.5204328497,39.9983293712,0 64.5205093725,39.9986203304,0 64.5205830534,39.9987793581,0 64.5206340154,39.998951955,0 64.5205911001,39.9989868853,0 64.5198466991,39.9992138718,0 64.5191251849,39.9994542731,0 64.5188650106,39.9995405707,0 64.51875504,39.9994727654,0 64.5184895013,39.9992262001,0 64.518446586,39.9991748322,0 64.5182230136,39.9991847715,0 64.5179970164,39.9993042244,0 64.517491882,39.9995251296,0
						</coordinates>
					</LinearRing>
				</outerBoundaryIs>
			</Polygon>
		</Placemark>
		<Placemark>
			<name>
				1420 Гарден пахта томчи 2026
			</name>
			<description>
				&amp;lt;b&amp;gt;&amp;lt;/b&amp;gt;
			</description>
			<Style>
				<LineStyle>
					<color>
						99dbc200
					</color>
					<width>
						10.0
					</width>
				</LineStyle>
				<PolyStyle>
					<color>
						99dbc200
					</color>
				</PolyStyle>
			</Style>
			<Polygon>
				<outerBoundaryIs>
					<LinearRing>
						<coordinates>
							64.518300442,40.00227293,0 64.516060798,40.0005245015,0 64.514784066,39.9994724215,0 64.5150013249,39.9993614673,0 64.5154948514,39.9990943544,0 64.5159975897,39.9988703489,0 64.5162658106,39.9987306274,0 64.5164550827,39.9986321191,0 64.5166052865,39.9986978705,0 64.5168413203,39.9989546334,0 64.5171900075,39.9993327013,0 64.5174814898,39.9995897729,0 64.5176933843,39.9997685318,0 64.5179267365,40.0000089311,0 64.5181332666,40.0002411108,0 64.5184095341,40.0005164379,0 64.5186348397,40.0007527252,0 64.5188252765,40.0009479185,0 64.5190344888,40.0011554391,0 64.5192919809,40.0014225439,0 64.5194153625,40.0015581506,0 64.519447549,40.0016608827,0 64.5190997403,40.0018846052,0 64.518775193,40.002053085,0 64.5184050482,40.0022503292,0 64.518300442,40.00227293,0
						</coordinates>
					</LinearRing>
				</outerBoundaryIs>
			</Polygon>
		</Placemark>
		<Placemark>
			<name>
				1421 Гарден пахта томчи 2026
			</name>
			<description>
				&amp;lt;b&amp;gt;&amp;lt;/b&amp;gt;
			</description>
			<Style>
				<LineStyle>
					<color>
						99dbc200
					</color>
					<width>
						10.0
					</width>
				</LineStyle>
				<PolyStyle>
					<color>
						99dbc200
					</color>
				</PolyStyle>
			</Style>
			<Polygon>
				<outerBoundaryIs>
					<LinearRing>
						<coordinates>
							64.5229714205,40.0014412379,0 64.5221479823,40.0015110959,0 64.5213164975,40.0016220466,0 64.5204340507,40.001751489,0 64.5195866492,40.0018768622,0 64.5185028603,40.0007508727,0 64.5178269436,40.000050227,0 64.5174353411,39.9996249049,0 64.5184626271,39.9991749236,0 64.5186959793,39.9994029967,0 64.5188329485,39.9995550853,0 64.5206647207,39.9989899989,0 64.5208685686,39.9995139509,0 64.5209036139,39.999647547,0 64.5210404065,39.9997523367,0 64.5212093857,39.9998817826,0 64.5214023294,39.999959861,0 64.5215498509,40.0000379392,0 64.5219496754,40.0000625955,0 64.5222259429,40.0000749237,0 64.522432473,40.0000749237,0 64.5225853589,40.0001201268,0 64.5226953295,40.0001612205,0 64.5228133467,40.0001858768,0 64.5230116536,40.000208438,0 64.5234034327,40.0001530018,0 64.5234059383,40.0004919839,0 64.523419,40.000736,0 64.5233817984,40.0009686672,0 64.5233496119,40.0011350946,0 64.523317,40.001279,0 64.5233040144,40.0013611065,0 64.5232208659,40.0014309646,0 64.5229714205,40.0014412379,0
						</coordinates>
					</LinearRing>
				</outerBoundaryIs>
			</Polygon>
		</Placemark>
		<Placemark>
			<name>
				1422 Гарден пахта томчи 2026
			</name>
			<description>
				&amp;lt;b&amp;gt;&amp;lt;/b&amp;gt;
			</description>
			<Style>
				<LineStyle>
					<color>
						99dbc200
					</color>
					<width>
						10.0
					</width>
				</LineStyle>
				<PolyStyle>
					<color>
						99dbc200
					</color>
				</PolyStyle>
			</Style>
			<Polygon>
				<outerBoundaryIs>
					<LinearRing>
						<coordinates>
							64.5205799164,39.9988550478,0 64.5205557765,39.9987728587,0 64.5205289545,39.9987112169,0 64.5204833569,39.9985961519,0 64.5204377593,39.9984810867,0 64.520394844,39.9984009519,0 64.5203170599,39.9982509558,0 64.5201936783,39.997963291,0 64.5201695384,39.9977721987,0 64.520164174,39.997675625,0 64.520201725,39.9975975441,0 64.5202526869,39.9975482297,0 64.520330471,39.9975317916,0 64.5205048146,39.997519463,0 64.5208535017,39.9975338464,0 64.5209259214,39.9975338464,0 64.5210546674,39.9975441202,0 64.5211673202,39.9975790512,0 64.5212182822,39.9976098726,0 64.5213059131,39.9977532676,0 64.5213210946,39.997779849,0 64.5215119256,39.9981139754,0 64.5215137303,39.9981166381,0 64.5215928224,39.9982149558,0 64.5215956153,39.9982178742,0 64.5215970805,39.9982190784,0 64.5216518067,39.9982609076,0 64.5216516917,39.9982939341,0 64.5216523322,39.9982988843,0 64.5216541396,39.9983036501,0 64.5217190887,39.9984269024,0 64.5217542407,39.9984936088,0 64.5218585414,39.9986915357,0 64.5218584597,39.9987148593,0 64.5218427625,39.9987306909,0 64.5218217792,39.9987749135,0 64.5216422603,39.998874273,0 64.5216416099,39.9988756085,0 64.5216402247,39.9988797289,0 64.5216200118,39.9989680306,0 64.5216196138,39.9989705999,0 64.5216182025,39.9989860784,0 64.521609329,39.9990833483,0 64.5215800026,39.9993145261,0 64.5214064737,39.9994354202,0 64.5208271165,39.9994374749,0 64.5207520147,39.9994251466,0 64.5206067385,39.9992372257,0 64.5206067385,39.9990235351,0 64.5205960097,39.9989372368,0 64.5205799164,39.9988550478,0
						</coordinates>
					</LinearRing>
				</outerBoundaryIs>
			</Polygon>
		</Placemark>
		<Placemark>
			<name>
				1425 Гарден пахта томчи 2026
			</name>
			<description>
				&amp;lt;b&amp;gt;&amp;lt;/b&amp;gt;
			</description>
			<Style>
				<LineStyle>
					<color>
						99dbc200
					</color>
					<width>
						10.0
					</width>
				</LineStyle>
				<PolyStyle>
					<color>
						99dbc200
					</color>
				</PolyStyle>
			</Style>
			<Polygon>
				<outerBoundaryIs>
					<LinearRing>
						<coordinates>
							64.5290298575,40.0011575908,0 64.526718,40.001731,0 64.5269537207,40.0023707994,0 64.5259183881,40.0024612026,0 64.5253283021,40.0024612026,0 64.5243412492,40.002280396,0 64.5241749522,40.0020790427,0 64.523897573,40.0014087856,0 64.523692,40.001041,0 64.523563,40.000745,0 64.5234722134,40.0004020002,0 64.5232522723,40.0001677664,0 64.5231771704,39.9998554534,0 64.5231396195,39.999493826,0 64.5237404343,39.9994116377,0 64.5241910455,39.9993006833,0 64.5248455044,39.9990500079,0 64.5252853867,39.9988815207,0 64.5266802424,39.9983097775,0 64.5282091015,39.9995795964,0 64.528638255,40.0002001142,0 64.5290298575,40.0011575908,0
						</coordinates>
					</LinearRing>
				</outerBoundaryIs>
			</Polygon>
		</Placemark>
		<Placemark>
			<name>
				1428 Гарден пахта томчи 2026
			</name>
			<description>
				&amp;lt;b&amp;gt;&amp;lt;/b&amp;gt;
			</description>
			<Style>
				<LineStyle>
					<color>
						99dbc200
					</color>
					<width>
						10.0
					</width>
				</LineStyle>
				<PolyStyle>
					<color>
						99dbc200
					</color>
				</PolyStyle>
			</Style>
			<Polygon>
				<outerBoundaryIs>
					<LinearRing>
						<coordinates>
							64.5203361144,39.997448886,0 64.5203806942,39.9970657445,0 64.5204381675,39.9967557808,0 64.5204392212,39.9964602058,0 64.520448477,39.9962083799,0 64.5211002538,39.9960768723,0 64.5223367521,39.9958118013,0 64.5241284677,39.9954234398,0 64.5241606543,39.9955220715,0 64.5242786715,39.9956350868,0 64.5244315574,39.995748102,0 64.524640119,39.996020659,0 64.5251289317,39.996744682,0 64.5252223782,39.9968668801,0 64.52526036,39.9969111198,0 64.5253569195,39.9970056398,0 64.5254856655,39.9971474195,0 64.5255735907,39.9973074364,0 64.5256694131,39.9974247018,0 64.5257270643,39.9974987855,0 64.5258021662,39.9975686476,0 64.5258799502,39.9976344,0 64.5260060141,39.9977330285,0 64.5261125727,39.9978035867,0 64.5265874114,39.9982400234,0 64.5249679992,39.9988980672,0 64.5248177955,39.9989473806,0 64.5242330739,39.998022749,0 64.5240962812,39.9978234379,0 64.5240024039,39.9977864522,0 64.5239112088,39.9977843975,0 64.5230824062,39.9979528874,0 64.5216872515,39.9982245253,0 64.5216286489,39.9981953478,0 64.521540136,39.9981008295,0 64.5213562808,39.9977302497,0 64.5212361482,39.9975939611,0 64.5211663787,39.9975689686,0 64.5203442289,39.9975072357,0 64.5203361144,39.997448886,0 64.5237770984,39.9978090546,0 64.5203361144,39.997448886,0
						</coordinates>
					</LinearRing>
				</outerBoundaryIs>
			</Polygon>
		</Placemark>
		<Placemark>
			<name>
				1429 Гарден пахта томчи 2026
			</name>
			<description>
				&amp;lt;b&amp;gt;&amp;lt;/b&amp;gt;
			</description>
			<Style>
				<LineStyle>
					<color>
						99dbc200
					</color>
					<width>
						10.0
					</width>
				</LineStyle>
				<PolyStyle>
					<color>
						99dbc200
					</color>
				</PolyStyle>
			</Style>
			<Polygon>
				<outerBoundaryIs>
					<LinearRing>
						<coordinates>
							64.5263250838,39.9965418639,0 64.525364853,39.9968254251,0 64.5252575646,39.996767891,0 64.525242,39.996664,0 64.5251234542,39.9965459735,0 64.525076,39.996471,0 64.524985,39.996389,0 64.524631,39.995883,0 64.524213,39.995435,0 64.525391,39.995191,0 64.525846,39.995111,0 64.52609,39.995708,0 64.52631,39.99643,0 64.5263250838,39.9965418639,0
						</coordinates>
					</LinearRing>
				</outerBoundaryIs>
			</Polygon>
		</Placemark>
		<Placemark>
			<name>
				1430 Гарден пахта томчи 2026
			</name>
			<description>
				&amp;lt;b&amp;gt;&amp;lt;/b&amp;gt;
			</description>
			<Style>
				<LineStyle>
					<color>
						99dbc200
					</color>
					<width>
						10.0
					</width>
				</LineStyle>
				<PolyStyle>
					<color>
						99dbc200
					</color>
				</PolyStyle>
			</Style>
			<Polygon>
				<outerBoundaryIs>
					<LinearRing>
						<coordinates>
							64.5268771972,39.9963438683,0 64.5268047776,39.9963068818,0 64.5267430868,39.9963130462,0 64.526632,39.996331,0 64.526468,39.996368,0 64.526374,39.996356,0 64.526321,39.996325,0 64.525921,39.995176,0 64.525985,39.995069,0 64.52719,39.994837,0 64.5276201691,39.994732885,0 64.5280198183,39.994650691,0 64.5283336367,39.9945602774,0 64.5289084811,39.9950421282,0 64.5294682111,39.9954993397,0 64.5298061695,39.9957746859,0 64.5293421473,39.9959657838,0 64.5285830822,39.9962349637,0 64.528234395,39.9963582519,0 64.528043,39.996366,0 64.527831,39.996397,0 64.527619,39.996436,0 64.527404,39.996454,0 64.5271704096,39.9964887206,0 64.5270094771,39.9964702274,0 64.5269362058,39.9963890739,0 64.5268771972,39.9963438683,0
						</coordinates>
					</LinearRing>
				</outerBoundaryIs>
			</Polygon>
		</Placemark>
		<Placemark>
			<name>
				1431 Гарден пахта томчи 2026
			</name>
			<description>
				&amp;lt;b&amp;gt;&amp;lt;/b&amp;gt;
			</description>
			<Style>
				<LineStyle>
					<color>
						99dbc200
					</color>
					<width>
						10.0
					</width>
				</LineStyle>
				<PolyStyle>
					<color>
						99dbc200
					</color>
				</PolyStyle>
			</Style>
			<Polygon>
				<outerBoundaryIs>
					<LinearRing>
						<coordinates>
							64.5262983768,39.9978659405,0 64.5260835362,39.9976440073,0 64.5259172392,39.9974878452,0 64.5256895153,39.9973358115,0 64.525287184,39.996896089,0 64.526385,39.996421,0 64.526546,39.996397,0 64.526804,39.996298,0 64.526951,39.996477,0 64.5270653126,39.9965015692,0 64.52715919,39.9965015692,0 64.5275212882,39.996462528,0 64.5278377888,39.9964296513,0 64.5279906748,39.9964275965,0 64.5281489251,39.9966412952,0 64.5282481668,39.9967728018,0 64.5283313153,39.9968940342,0 64.528532481,39.9972618397,0 64.5286826847,39.9974899192,0 64.5288141129,39.9977447098,0 64.5288999436,39.9978885428,0 64.5290099142,39.9980508682,0 64.529183,39.99839,0 64.52925,39.998491,0 64.5292405842,39.9985296233,0 64.5292888639,39.9985912653,0 64.5293451903,39.9986426337,0 64.529384,39.998735,0 64.529496,39.998932,0 64.529628,39.999164,0 64.529675102,39.9993124731,0 64.5288462994,39.9995775304,0 64.52866,39.999615,0 64.528413,39.999668,0 64.52822,39.999512,0 64.5280765054,39.999341239,0 64.527840471,39.9992138468,0 64.527705,39.999084,0 64.527243,39.998665,0 64.526718,39.998271,0 64.52661,39.998098,0 64.5263949363,39.9979173094,0 64.5262983768,39.9978659405,0
						</coordinates>
					</LinearRing>
				</outerBoundaryIs>
			</Polygon>
		</Placemark>
		<Placemark>
			<name>
				1432 Гарден пахта томчи 2026
			</name>
			<description>
				&amp;lt;b&amp;gt;&amp;lt;/b&amp;gt;
			</description>
			<Style>
				<LineStyle>
					<color>
						99dbc200
					</color>
					<width>
						10.0
					</width>
				</LineStyle>
				<PolyStyle>
					<color>
						99dbc200
					</color>
				</PolyStyle>
			</Style>
			<Polygon>
				<outerBoundaryIs>
					<LinearRing>
						<coordinates>
							64.531197,39.997533,0 64.530395,39.997829,0 64.529134,39.998291,0 64.528713,39.997548,0 64.528469,39.997132,0 64.528177,39.996629,0 64.528126,39.996549,0 64.528021,39.996403,0 64.528287,39.996339,0 64.52855,39.996251,0 64.528947,39.996115,0 64.529373,39.995967,0 64.5298114919,39.9957691855,0 64.53021,39.996134,0 64.5315730619,39.9973773824,0 64.531197,39.997533,0
						</coordinates>
					</LinearRing>
				</outerBoundaryIs>
			</Polygon>
		</Placemark>
		<Placemark>
			<name>
				1433 Гарден пахта томчи 2026
			</name>
			<description>
				&amp;lt;b&amp;gt;&amp;lt;/b&amp;gt;
			</description>
			<Style>
				<LineStyle>
					<color>
						99dbc200
					</color>
					<width>
						10.0
					</width>
				</LineStyle>
				<PolyStyle>
					<color>
						99dbc200
					</color>
				</PolyStyle>
			</Style>
			<Polygon>
				<outerBoundaryIs>
					<LinearRing>
						<coordinates>
							64.530838,39.999553,0 64.530753,39.999459,0 64.530697,39.999395,0 64.530695,39.999393,0 64.530693,39.999391,0 64.530604,39.999323,0 64.530599,39.99932,0 64.530594,39.999318,0 64.530589,39.999316,0 64.53045,39.999286,0 64.530446,39.999285,0 64.530444,39.999285,0 64.530136,39.999262,0 64.530132,39.999262,0 64.530128,39.999262,0 64.529708,39.99931,0 64.529665,39.999239,0 64.529572,39.999035,0 64.529475,39.998828,0 64.529419,39.998713,0 64.529368,39.998641,0 64.529244,39.998466,0 64.529153,39.9983,0 64.530033,39.997985,0 64.530644,39.997753,0 64.531275,39.997539,0 64.531417,39.997498,0 64.531543,39.997428,0 64.5316952003,39.9974231862,0 64.5324837698,39.9980539973,0 64.5327412618,39.9982635815,0 64.5332589282,39.9986991857,0 64.5337685479,39.9991060211,0 64.530838,39.999553,0
						</coordinates>
					</LinearRing>
				</outerBoundaryIs>
			</Polygon>
		</Placemark>
		<Placemark>
			<name>
				1441 Гарден пахта томчи 2026
			</name>
			<description>
				&amp;lt;b&amp;gt;&amp;lt;/b&amp;gt;
			</description>
			<Style>
				<LineStyle>
					<color>
						99dbc200
					</color>
					<width>
						10.0
					</width>
				</LineStyle>
				<PolyStyle>
					<color>
						99dbc200
					</color>
				</PolyStyle>
			</Style>
			<Polygon>
				<outerBoundaryIs>
					<LinearRing>
						<coordinates>
							64.5242497754,39.9951860767,0 64.5242390466,39.9951162122,0 64.5242417288,39.9949949767,0 64.5242256356,39.9947730534,0 64.5242122245,39.994456606,0 64.5241934491,39.9942161872,0 64.5241639448,39.993951109,0 64.5241237116,39.9936942494,0 64.5240915251,39.9935709564,0 64.5240566564,39.9933983458,0 64.5240164233,39.9931702527,0 64.523986919,39.9930366843,0 64.524013741,39.9929955862,0 64.5240700674,39.9929894215,0 64.5241371227,39.9930120254,0 64.5242283178,39.9930325745,0 64.5243919325,39.9930572333,0 64.5244858098,39.9930654529,0 64.524641378,39.9930880568,0 64.5247781706,39.9931065509,0 64.5249471498,39.9931209351,0 64.525116129,39.9931455939,0 64.5251912308,39.9931455939,0 64.5252341462,39.9931620331,0 64.5252663327,39.9932483387,0 64.5253065658,39.9933777969,0 64.5253575278,39.9934908158,0 64.5253950787,39.993614109,0 64.525424583,39.9937250726,0 64.5254460407,39.9938175421,0 64.5254701805,39.9939449444,0 64.5254916382,39.9940250844,0 64.5255104137,39.9941011146,0 64.5255372358,39.9941833093,0 64.5255747867,39.9942983817,0 64.5255828333,39.9943723567,0 64.5256230665,39.9944360574,0 64.5256632996,39.9945881168,0 64.5257062149,39.9946888045,0 64.5257544947,39.9948100407,0 64.5257949038,39.9948737808,0 64.5257922216,39.9949189874,0 64.5255079074,39.9949888521,0 64.5252879663,39.9950381683,0 64.5250224276,39.9950936489,0 64.5247220202,39.9951594037,0 64.5244779391,39.9952210488,0 64.5242767735,39.9952498165,0 64.5242497754,39.9951860767,0
						</coordinates>
					</LinearRing>
				</outerBoundaryIs>
			</Polygon>
		</Placemark>
		<Placemark>
			<name>
				1443 Гарден пахта томчи 2026
			</name>
			<description>
				&amp;lt;b&amp;gt;&amp;lt;/b&amp;gt;
			</description>
			<Style>
				<LineStyle>
					<color>
						99dbc200
					</color>
					<width>
						10.0
					</width>
				</LineStyle>
				<PolyStyle>
					<color>
						99dbc200
					</color>
				</PolyStyle>
			</Style>
			<Polygon>
				<outerBoundaryIs>
					<LinearRing>
						<coordinates>
							64.523192339,39.9955127244,0 64.5215615559,39.9958353314,0 64.5214013142,39.9953909745,0 64.5213735554,39.995323822,0 64.5213545515,39.9952778476,0 64.5212030434,39.9947359375,0 64.5211634709,39.9945943945,0 64.5211631403,39.994593336,0 64.5211127053,39.9944476064,0 64.5210354169,39.9942242893,0 64.5209821988,39.9940352883,0 64.5211565424,39.9939818617,0 64.5216929842,39.993975697,0 64.5218753744,39.9939572032,0 64.5219531584,39.9939469288,0 64.5229080249,39.9937825387,0 64.5231816538,39.9942792237,0 64.5231821641,39.9942801136,0 64.5233004722,39.9944764202,0 64.5233022257,39.9944789635,0 64.5233039226,39.9944809361,0 64.5234095268,39.9945927467,0 64.523410134,39.9945933885,0 64.5234316523,39.9946161711,0 64.5234826254,39.9946787469,0 64.5235318531,39.99473918,0 64.5235735367,39.9947903506,0 64.5237357994,39.9949895471,0 64.5237474128,39.9950038043,0 64.5237598598,39.9950229366,0 64.5239477173,39.9953116902,0 64.5233291317,39.9954654634,0 64.523256712,39.9954860117,0 64.523192339,39.9955127244,0
						</coordinates>
					</LinearRing>
				</outerBoundaryIs>
			</Polygon>
		</Placemark>
		<Placemark>
			<name>
				1444 Гарден пахта томчи 2026
			</name>
			<description>
				&amp;lt;b&amp;gt;&amp;lt;/b&amp;gt;
			</description>
			<Style>
				<LineStyle>
					<color>
						99dbc200
					</color>
					<width>
						10.0
					</width>
				</LineStyle>
				<PolyStyle>
					<color>
						99dbc200
					</color>
				</PolyStyle>
			</Style>
			<Polygon>
				<outerBoundaryIs>
					<LinearRing>
						<coordinates>
							64.5203933586,39.9955094219,0 64.5204080659,39.9953633039,0 64.5204081692,39.9953613292,0 64.5204092409,39.9951580186,0 64.5204090468,39.9951553434,0 64.5203665725,39.9950156648,0 64.5202753774,39.9947094928,0 64.5202097169,39.9944952673,0 64.5201385847,39.9942923569,0 64.5200876227,39.9940683764,0 64.5200232497,39.9938259014,0 64.5199186436,39.9933943758,0 64.5197711221,39.9928354434,0 64.5197630754,39.9927861256,0 64.5197550288,39.9927203685,0 64.519706749,39.9925765247,0 64.5194975367,39.991943608,0 64.5194709281,39.9917219099,0 64.5195623146,39.991718091,0 64.5198679268,39.9918093931,0 64.5204233022,39.9919879638,0 64.520817058,39.992142442,0 64.5209988995,39.9922401307,0 64.521217801,39.9923325673,0 64.5215531726,39.9924210924,0 64.5217662404,39.9924599927,0 64.5219186261,39.9924865845,0 64.5220207583,39.9925519613,0 64.5221143933,39.9926531898,0 64.5221796792,39.9927333457,0 64.5222134936,39.9927912793,0 64.5222701243,39.9929001417,0 64.5223547438,39.9930836947,0 64.5224272424,39.9932793186,0 64.522568842,39.9934478261,0 64.5226592493,39.9935431395,0 64.5227295003,39.993637527,0 64.5227659216,39.9937430812,0 64.5227798194,39.9937855591,0 64.5227709189,39.9937870557,0 64.5226142636,39.9938382306,0 64.5219034782,39.9939553585,0 64.5217398635,39.993963578,0 64.5212007395,39.9939923462,0 64.5210934511,39.9939944011,0 64.5209727517,39.9940252241,0 64.5209608765,39.9941206248,0 64.5209745138,39.9942111671,0 64.520977516,39.9942310956,0 64.5209778565,39.9942327919,0 64.5209783056,39.994234296,0 64.5210527616,39.9944494298,0 64.5210926998,39.9945648291,0 64.5211063955,39.9946044012,0 64.5211658707,39.9947793577,0 64.5212087861,39.9949293614,0 64.5212651125,39.9951122423,0 64.5213724008,39.9954225222,0 64.521445355,39.9956461113,0 64.5214518319,39.9956617792,0 64.5215275248,39.9958448909,0 64.5207763113,39.995997519,0 64.5207655109,39.9959693166,0 64.5206589332,39.9959403371,0 64.5205731026,39.9958971861,0 64.5204936834,39.9958656604,0 64.5204496561,39.9958919717,0 64.5204899541,39.9959341727,0 64.5204738608,39.9959670497,0 64.520514094,39.9960492422,0 64.5203066191,39.9960938009,0 64.5203365905,39.9960387781,0 64.5203382987,39.9960348068,0 64.5203391875,39.99603068,0 64.5203329569,39.9958971669,0 64.5203590843,39.995849949,0 64.5203591912,39.9958488788,0 64.5203924765,39.9955181813,0 64.5203933586,39.9955094219,0
						</coordinates>
					</LinearRing>
				</outerBoundaryIs>
			</Polygon>
		</Placemark>
	</Document>
</kml>

