<?xml version="1.0" encoding="utf-8"?>

<kml>
	<Document>
		<name>
			Geofences
		</name>
		<Placemark>
			<name>
				1361 Гарден галла 2026
			</name>
			<description>
				&amp;lt;b&amp;gt;&amp;lt;/b&amp;gt;
			</description>
			<Style>
				<LineStyle>
					<color>
						996825ea
					</color>
					<width>
						10.0
					</width>
				</LineStyle>
				<PolyStyle>
					<color>
						996825ea
					</color>
				</PolyStyle>
			</Style>
			<Polygon>
				<outerBoundaryIs>
					<LinearRing>
						<coordinates>
							64.5283031083,40.0091513336,0 64.5285391427,40.0093444485,0 64.5286142445,40.0099525512,0 64.5286249734,40.0102360566,0 64.5281689978,40.0101703163,0 64.5277398444,40.0100922496,0 64.5276969291,40.0098539403,0 64.5276379205,40.0095909772,0 64.5276164628,40.0094471689,0 64.5275628186,40.0091225718,0 64.527579,40.009123,0 64.527509,40.008973,0 64.527474,40.008901,0 64.527415,40.008854,0 64.527262,40.008755,0 64.527249,40.008671,0 64.527125,40.008338,0 64.527093,40.007993,0 64.527025,40.007712,0 64.527013,40.00767,0 64.526818,40.006965,0 64.526873,40.006973,0 64.526885,40.006976,0 64.5269995547,40.0069695091,0 64.5272355891,40.0070105987,0 64.5279866076,40.0071051047,0 64.5282172776,40.007166739,0 64.5282709218,40.0076022865,0 64.528287015,40.0077748611,0 64.5284479476,40.0086212923,0 64.528387,40.008709,0 64.528381,40.008716,0 64.5281636334,40.0089993067,0 64.5282011844,40.0090773746,0 64.5283031083,40.0091513336,0
						</coordinates>
					</LinearRing>
				</outerBoundaryIs>
			</Polygon>
		</Placemark>
		<Placemark>
			<name>
				5631 Гарден галла 2026
			</name>
			<description/>
			<Style>
				<LineStyle>
					<color>
						996825ea
					</color>
					<width>
						10.0
					</width>
				</LineStyle>
				<PolyStyle>
					<color>
						996825ea
					</color>
				</PolyStyle>
			</Style>
			<Polygon>
				<outerBoundaryIs>
					<LinearRing>
						<coordinates>
							64.4152097459,39.9400789297,0 64.415777121,39.940054271,0 64.4168231825,39.9399473332,0 64.416790996,39.9395689367,0 64.4166676144,39.9388779463,0 64.4165495972,39.9382897764,0 64.4164637665,39.9380758952,0 64.415712748,39.9382486454,0 64.4154659848,39.9388121373,0 64.4152782302,39.9393180422,0 64.4152084927,39.939667649,0 64.4152097459,39.9400789297,0
						</coordinates>
					</LinearRing>
				</outerBoundaryIs>
			</Polygon>
		</Placemark>
		<Placemark>
			<name>
				1390 Гарден галла 2026
			</name>
			<description>
				&amp;lt;b&amp;gt;&amp;lt;/b&amp;gt;
			</description>
			<Style>
				<LineStyle>
					<color>
						996825ea
					</color>
					<width>
						10.0
					</width>
				</LineStyle>
				<PolyStyle>
					<color>
						996825ea
					</color>
				</PolyStyle>
			</Style>
			<Polygon>
				<outerBoundaryIs>
					<LinearRing>
						<coordinates>
							64.5339083343,40.0024827684,0 64.534131,40.003432,0 64.5343694984,40.004274277,0 64.53449288,40.0047920248,0 64.5346377193,40.0054946763,0 64.5343426763,40.0055974025,0 64.533736673,40.0056591318,0 64.5335167318,40.0055769509,0 64.5333128839,40.0053386257,0 64.5331841379,40.0051783721,0 64.5330607563,40.0050468817,0 64.5329910189,40.0049195002,0 64.5329105526,40.0047715729,0 64.5328513681,40.0046071153,0 64.5327013403,40.0044757174,0 64.5322668224,40.0041387693,0 64.5320844322,40.0039374214,0 64.5318966776,40.0037073089,0 64.5317518383,40.003608689,0 64.531671372,40.0034895231,0 64.5314836174,40.0032265355,0 64.5339083343,40.0024827684,0
						</coordinates>
					</LinearRing>
				</outerBoundaryIs>
			</Polygon>
		</Placemark>
		<Placemark>
			<name>
				1393-94 Гарден галла 2026
			</name>
			<description>
				&amp;lt;b&amp;gt;&amp;lt;/b&amp;gt;
			</description>
			<Style>
				<LineStyle>
					<color>
						996825ea
					</color>
					<width>
						10.0
					</width>
				</LineStyle>
				<PolyStyle>
					<color>
						996825ea
					</color>
				</PolyStyle>
			</Style>
			<Polygon>
				<outerBoundaryIs>
					<LinearRing>
						<coordinates>
							64.5235494607,40.0037350599,0 64.5234587205,40.0023007989,0 64.5237162126,40.0022432694,0 64.5238664163,40.0022432694,0 64.524092,40.002271,0 64.524209739,40.0022679249,0 64.524376036,40.0022802527,0 64.524561,40.002339,0 64.5250568997,40.0023880856,0 64.5254270446,40.0024497242,0 64.5263658177,40.0024045226,0 64.5270310056,40.0023839764,0 64.5280282624,40.0045519885,0 64.5269822009,40.0043383145,0 64.5247666962,40.0038739822,0 64.5241936458,40.0037965474,0 64.523656749,40.0037309507,0 64.5235494607,40.0037350599,0
						</coordinates>
					</LinearRing>
				</outerBoundaryIs>
			</Polygon>
		</Placemark>
		<Placemark>
			<name>
				1396 Гарден галла 2026
			</name>
			<description>
				&amp;lt;b&amp;gt;&amp;lt;/b&amp;gt;
			</description>
			<Style>
				<LineStyle>
					<color>
						996825ea
					</color>
					<width>
						10.0
					</width>
				</LineStyle>
				<PolyStyle>
					<color>
						996825ea
					</color>
				</PolyStyle>
			</Style>
			<Polygon>
				<outerBoundaryIs>
					<LinearRing>
						<coordinates>
							64.5234915455,40.002921461,0 64.5235290964,40.0035172934,0 64.523523732,40.0036323501,0 64.5231747826,40.00369643,0 64.5229065617,40.0037128667,0 64.5225203236,40.0037539582,0 64.5222816847,40.0029355792,0 64.522166272,40.0027225521,0 64.5218825395,40.0020888737,0 64.5218181665,40.0019532681,0 64.5216518696,40.0016163075,0 64.5222651047,40.0015144104,0 64.5225065035,40.001481536,0 64.5230519827,40.0014067336,0 64.5232933815,40.0014313894,0 64.5234352191,40.0015386989,0 64.523445948,40.0019557906,0 64.5234915455,40.002921461,0
						</coordinates>
					</LinearRing>
				</outerBoundaryIs>
			</Polygon>
		</Placemark>
		<Placemark>
			<name>
				1423 Гарден галла 2026
			</name>
			<description/>
			<Style>
				<LineStyle>
					<color>
						996825ea
					</color>
					<width>
						10.0
					</width>
				</LineStyle>
				<PolyStyle>
					<color>
						996825ea
					</color>
				</PolyStyle>
			</Style>
			<Polygon>
				<outerBoundaryIs>
					<LinearRing>
						<coordinates>
							64.5209393523,39.9995119023,0 64.5209831344,39.9994871551,0 64.5210554694,39.9994643127,0 64.5211468407,39.9994414702,0 64.521173491,39.9993995913,0 64.521245826,39.9993995913,0 64.5213847873,39.9993900731,0 64.5214894833,39.9993881698,0 64.5215332653,39.9994776383,0 64.5216151189,39.999584237,0 64.5217122008,39.9996337299,0 64.5217769217,39.999677512,0 64.5218283179,39.9997879191,0 64.5219330148,39.9999706617,0 64.5218530647,39.9999497228,0 64.521723622,39.9998888093,0 64.5215580121,39.999824087,0 64.52143428,39.9997688842,0 64.5209393523,39.9995119023,0
						</coordinates>
					</LinearRing>
				</outerBoundaryIs>
			</Polygon>
		</Placemark>
		<Placemark>
			<name>
				1424 Гарден галла 2026
			</name>
			<description>
				&amp;lt;b&amp;gt;&amp;lt;/b&amp;gt;
			</description>
			<Style>
				<LineStyle>
					<color>
						996825ea
					</color>
					<width>
						10.0
					</width>
				</LineStyle>
				<PolyStyle>
					<color>
						996825ea
					</color>
				</PolyStyle>
			</Style>
			<Polygon>
				<outerBoundaryIs>
					<LinearRing>
						<coordinates>
							64.5223360723,40.0000489247,0 64.5223102781,39.9999102676,0 64.5222638262,39.9996605625,0 64.5225875153,39.9996103103,0 64.5228005238,39.9996036994,0 64.5229614821,39.9996158802,0 64.5230011257,39.9996234915,0 64.5232154718,39.9996094295,0 64.5232529944,39.9997701234,0 64.5232833153,39.9999856969,0 64.5232834779,39.9999868548,0 64.5233057821,40.0001454358,0 64.52330664,40.0001794252,0 64.5232454234,40.0001604456,0 64.523242072,40.0001596258,0 64.5232385988,40.0001592012,0 64.523235082,40.0001591813,0 64.523006618,40.0001711071,0 64.5228977143,40.0001767916,0 64.5227551481,40.0001435394,0 64.5225695975,40.0000956697,0 64.522565821,40.0000949574,0 64.5225632275,40.0000947536,0 64.5223381196,40.0000867713,0 64.5223360723,40.0000489247,0
						</coordinates>
					</LinearRing>
				</outerBoundaryIs>
			</Polygon>
		</Placemark>
		<Placemark>
			<name>
				1435-36 Гарден галла 2026
			</name>
			<description>
				&amp;lt;b&amp;gt;&amp;lt;/b&amp;gt;
			</description>
			<Style>
				<LineStyle>
					<color>
						996825ea
					</color>
					<width>
						10.0
					</width>
				</LineStyle>
				<PolyStyle>
					<color>
						996825ea
					</color>
				</PolyStyle>
			</Style>
			<Polygon>
				<outerBoundaryIs>
					<LinearRing>
						<coordinates>
							64.531422,40.002898,0 64.531208,40.002499,0 64.531047,40.002171,0 64.5308099245,40.001712838,0 64.530746,40.00153,0 64.5306194877,40.0013861495,0 64.5305712079,40.0013573844,0 64.53049,40.001315,0 64.530492,40.001262,0 64.530495,40.001172,0 64.530498,40.001095,0 64.530507,40.000881,0 64.530473,40.000461,0 64.53051,40.000161,0 64.5306193857,39.9996349958,0 64.5314885234,39.9994979004,0 64.5318747615,39.9994485874,0 64.5327518439,39.9993191407,0 64.5336637949,39.99914449,0 64.5339802956,39.9990849031,0 64.5343558049,39.9993931103,0 64.5349271154,39.9998574731,0 64.5353804087,40.0002375907,0 64.536295042,40.0009156331,0 64.5360777831,40.0010245302,0 64.5357022738,40.0012217773,0 64.5356969094,40.0013512204,0 64.5357344603,40.0015217562,0 64.5357612824,40.0019881591,0 64.5355547523,40.0020765082,0 64.53525,40.002127,0 64.535083,40.002156,0 64.5348359203,40.0022059497,0 64.5346106147,40.0022490968,0 64.533729,40.002579,0 64.531662867,40.0032373637,0 64.53154,40.003046,0 64.531422,40.002898,0
						</coordinates>
					</LinearRing>
				</outerBoundaryIs>
			</Polygon>
		</Placemark>
		<Placemark>
			<name>
				1453 Гарден галла 2026
			</name>
			<description>
				&amp;lt;b&amp;gt;&amp;lt;/b&amp;gt;
			</description>
			<Style>
				<LineStyle>
					<color>
						996825ea
					</color>
					<width>
						10.0
					</width>
				</LineStyle>
				<PolyStyle>
					<color>
						996825ea
					</color>
				</PolyStyle>
			</Style>
			<Polygon>
				<outerBoundaryIs>
					<LinearRing>
						<coordinates>
							64.5074142847,39.9867598365,0 64.5073715788,39.9866562284,0 64.5072483479,39.9863231035,0 64.5071804541,39.9861210572,0 64.5070917509,39.9858570803,0 64.5070434997,39.9857134872,0 64.5069514835,39.9854333609,0 64.5068932035,39.9852559358,0 64.5068975001,39.985240562,0 64.5069947939,39.9852281644,0 64.5070615594,39.9852196558,0 64.5073409489,39.9851792932,0 64.5073949557,39.9851714909,0 64.5076503844,39.9851397516,0 64.5076886661,39.985136984,0 64.5077543689,39.9852939517,0 64.5079273952,39.9857073198,0 64.5080470014,39.9859930595,0 64.508185218,39.9863232576,0 64.5083262885,39.9866602667,0 64.5080945034,39.9867099673,0 64.5075623343,39.9868086271,0 64.5074803756,39.9868144592,0 64.5074555228,39.986811208,0 64.5074308847,39.9868001111,0 64.5074201489,39.9867740657,0 64.5074142847,39.9867598365,0
						</coordinates>
					</LinearRing>
				</outerBoundaryIs>
			</Polygon>
		</Placemark>
		<Placemark>
			<name>
				1454 Гарден галла 2026
			</name>
			<description>
				&amp;lt;b&amp;gt;&amp;lt;/b&amp;gt;
			</description>
			<Style>
				<LineStyle>
					<color>
						996825ea
					</color>
					<width>
						10.0
					</width>
				</LineStyle>
				<PolyStyle>
					<color>
						996825ea
					</color>
				</PolyStyle>
			</Style>
			<Polygon>
				<outerBoundaryIs>
					<LinearRing>
						<coordinates>
							64.5081516893,39.9861256449,0 64.5080759379,39.9859446781,0 64.5078551581,39.9854172304,0 64.5077237004,39.9851058005,0 64.508077752,39.9850523668,0 64.5078953618,39.9850893594,0 64.5082440489,39.9849989332,0 64.5084264392,39.98495372,0 64.5085766429,39.9848838451,0 64.5090218896,39.9847276538,0 64.5092686528,39.9846290065,0 64.5093598479,39.9846742198,0 64.5093477718,39.9846766343,0 64.5097590035,39.9856851838,0 64.5100094682,39.9862994343,0 64.5091651677,39.9864888428,0 64.5089312419,39.9865413249,0 64.5089303579,39.9865415135,0 64.5084837461,39.9866320307,0 64.5083784968,39.9866533635,0 64.5083730809,39.9866544615,0 64.5083711414,39.9866499085,0 64.5083640941,39.9866330721,0 64.508360544,39.986624592,0 64.5083513398,39.9866026035,0 64.5082683418,39.9864043255,0 64.508241228,39.9863395502,0 64.5081697445,39.9861687785,0 64.5081522732,39.9861270407,0 64.5081516893,39.9861256449,0
						</coordinates>
					</LinearRing>
				</outerBoundaryIs>
			</Polygon>
		</Placemark>
		<Placemark>
			<name>
				1456 Гарден галла 2026
			</name>
			<description>
				&amp;lt;b&amp;gt;&amp;lt;/b&amp;gt;
			</description>
			<Style>
				<LineStyle>
					<color>
						996825ea
					</color>
					<width>
						10.0
					</width>
				</LineStyle>
				<PolyStyle>
					<color>
						996825ea
					</color>
				</PolyStyle>
			</Style>
			<Polygon>
				<outerBoundaryIs>
					<LinearRing>
						<coordinates>
							64.5101301838,39.9823513997,0 64.5100814744,39.9822051856,0 64.5100658186,39.9821581892,0 64.51000143,39.9819551244,0 64.5099676615,39.9818486231,0 64.5099671737,39.9818472714,0 64.5099060541,39.9816961144,0 64.5098619055,39.9815869279,0 64.5098282546,39.9815037023,0 64.5097477907,39.9813047024,0 64.5096912508,39.9811548393,0 64.5096800335,39.9811251063,0 64.5096540452,39.9810562218,0 64.5096576259,39.9810494431,0 64.5096679134,39.9810464239,0 64.5097142288,39.9810328299,0 64.5097167091,39.9809939698,0 64.5097649889,39.9809734172,0 64.5098239975,39.9809610856,0 64.5099742012,39.9808953171,0 64.5102316933,39.9808336591,0 64.5105428295,39.9807432272,0 64.5109934406,39.9805788054,0 64.5114655094,39.9804472676,0 64.5118463831,39.9803568353,0 64.5122379856,39.9802869556,0 64.5126242237,39.9802006336,0 64.5128441648,39.9801759702,0 64.5129352388,39.9801925927,0 64.5129584791,39.9801962492,0 64.5130153245,39.9802659757,0 64.5130603499,39.9803212054,0 64.5130690348,39.9803465581,0 64.5130716687,39.9803542463,0 64.513149735,39.9805821418,0 64.5131910817,39.9807051465,0 64.513297948,39.9810230604,0 64.5133187952,39.9810850799,0 64.5133631908,39.9811937489,0 64.513477594,39.9814737801,0 64.5134972473,39.9815136708,0 64.5134978537,39.9815149009,0 64.5136209714,39.9817648007,0 64.5125376499,39.9819731893,0 64.5123704581,39.9820053503,0 64.5111632796,39.9822375497,0 64.5101739236,39.982427841,0 64.5101567496,39.9824311442,0 64.510135977,39.9823687866,0 64.5101301838,39.9823513997,0
						</coordinates>
					</LinearRing>
				</outerBoundaryIs>
			</Polygon>
		</Placemark>
		<Placemark>
			<name>
				1457 Гарден галла 2026
			</name>
			<description>
				&amp;lt;b&amp;gt;&amp;lt;/b&amp;gt;
			</description>
			<Style>
				<LineStyle>
					<color>
						996825ea
					</color>
					<width>
						10.0
					</width>
				</LineStyle>
				<PolyStyle>
					<color>
						996825ea
					</color>
				</PolyStyle>
			</Style>
			<Polygon>
				<outerBoundaryIs>
					<LinearRing>
						<coordinates>
							64.5105425967,39.9839368103,0 64.5105394122,39.9839378683,0 64.5102150234,39.9840607576,0 64.5102109746,39.9840625579,0 64.5102072729,39.9840647561,0 64.510203984,39.9840673135,0 64.5100944111,39.9841647118,0 64.5100594396,39.9841969484,0 64.5100561543,39.9842005928,0 64.5100536893,39.9842046019,0 64.5100521112,39.9842088674,0 64.510028145,39.9843021069,0 64.5100275638,39.984305468,0 64.5100275461,39.9843090185,0 64.5100281343,39.9843125401,0 64.5100392392,39.9843557018,0 64.5099555001,39.984376895,0 64.5099539074,39.9843773311,0 64.5099524898,39.9843777768,0 64.5098802626,39.9844018986,0 64.5093530845,39.9845779604,0 64.5093461863,39.9845795705,0 64.5093181822,39.9845861062,0 64.5093196752,39.9845898896,0 64.5092625594,39.9846109266,0 64.5090743633,39.984680247,0 64.5089394866,39.9843771086,0 64.5089393411,39.9843767817,0 64.5088836806,39.9842516837,0 64.5087998974,39.9840633753,0 64.5087225722,39.9838958423,0 64.5085057602,39.983426095,0 64.5083290239,39.9830431707,0 64.5083082396,39.9829981367,0 64.5082760637,39.9829098295,0 64.5081497345,39.9825631236,0 64.5080861383,39.9823885797,0 64.5080841117,39.9823821632,0 64.5079876596,39.9820766373,0 64.5079698173,39.9820201188,0 64.5078835089,39.981746724,0 64.5078255308,39.981400894,0 64.5078254355,39.9814003764,0 64.5077673927,39.9811078346,0 64.5077676128,39.98104941,0 64.5081302043,39.9811052908,0 64.5081311286,39.9811054186,0 64.5081316461,39.9811054774,0 64.5084983536,39.9811438791,0 64.5085014537,39.9811440435,0 64.5087198072,39.981144452,0 64.5087213802,39.9811444036,0 64.5090365424,39.9811262956,0 64.5090388601,39.9811260731,0 64.509394813,39.9810778293,0 64.5094808887,39.981071211,0 64.5094895682,39.9810827973,0 64.5095136969,39.9811150099,0 64.5095364288,39.9811768234,0 64.5095366866,39.9811774868,0 64.50968313,39.9815335416,0 64.5097528958,39.9817280461,0 64.5097532992,39.9817291739,0 64.5097717129,39.9817805098,0 64.5097913392,39.981835229,0 64.5099232263,39.9822029211,0 64.5100314266,39.98250271,0 64.5100319108,39.982503918,0 64.5101175517,39.9826981606,0 64.5101273559,39.9827295756,0 64.5101812242,39.9829021969,0 64.5101814327,39.9829028223,0 64.5102475181,39.9830906765,0 64.5102484407,39.9830928533,0 64.5102487829,39.9830935097,0 64.510279314,39.983149458,0 64.5103624252,39.9833017588,0 64.5105259626,39.9835976634,0 64.5105996245,39.9837309486,0 64.5106804899,39.9838979029,0 64.5106093541,39.9839179748,0 64.5105425967,39.9839368103,0
						</coordinates>
					</LinearRing>
				</outerBoundaryIs>
			</Polygon>
		</Placemark>
		<Placemark>
			<name>
				1458 Гарден галла 2026
			</name>
			<description>
				&amp;lt;b&amp;gt;&amp;lt;/b&amp;gt;
			</description>
			<Style>
				<LineStyle>
					<color>
						996825ea
					</color>
					<width>
						10.0
					</width>
				</LineStyle>
				<PolyStyle>
					<color>
						996825ea
					</color>
				</PolyStyle>
			</Style>
			<Polygon>
				<outerBoundaryIs>
					<LinearRing>
						<coordinates>
							64.5077202204,39.9848643889,0 64.5077192978,39.9848611819,0 64.5076037134,39.9844593957,0 64.5075203982,39.9841697819,0 64.5075176673,39.9841602871,0 64.5074960619,39.984085185,0 64.5074131825,39.9837970836,0 64.5074056708,39.98377097,0 64.507254752,39.9832463428,0 64.5072522152,39.9832375258,0 64.5072376795,39.9831869961,0 64.5070538016,39.9825477795,0 64.5074924076,39.9824926822,0 64.5080382994,39.9824241038,0 64.5080605947,39.98248529,0 64.5082414489,39.9829816477,0 64.5082521524,39.9830110212,0 64.5082527533,39.9830124773,0 64.508326761,39.983172827,0 64.5085011079,39.983550574,0 64.50860771,39.9837815408,0 64.5087446124,39.9840781523,0 64.5087738831,39.9841439394,0 64.5087932643,39.9841875007,0 64.5090212127,39.9846998238,0 64.5089980631,39.9847083497,0 64.5085486234,39.9848728733,0 64.5084110563,39.9849248598,0 64.5083107962,39.9849532402,0 64.5081553975,39.984997228,0 64.5081544884,39.984997501,0 64.5079528903,39.9850607186,0 64.5077809474,39.9850754788,0 64.5077758728,39.9850578391,0 64.5077202204,39.9848643889,0
						</coordinates>
					</LinearRing>
				</outerBoundaryIs>
			</Polygon>
		</Placemark>
		<Placemark>
			<name>
				1459 Гарден галла 2026
			</name>
			<description>
				&amp;lt;b&amp;gt;&amp;lt;/b&amp;gt;
			</description>
			<Style>
				<LineStyle>
					<color>
						996825ea
					</color>
					<width>
						10.0
					</width>
				</LineStyle>
				<PolyStyle>
					<color>
						996825ea
					</color>
				</PolyStyle>
			</Style>
			<Polygon>
				<outerBoundaryIs>
					<LinearRing>
						<coordinates>
							64.5062709414,39.9829364624,0 64.5062492201,39.9828585795,0 64.5062028858,39.9825971367,0 64.5063316319,39.982580695,0 64.5063906405,39.9825560324,0 64.5064979288,39.9825437011,0 64.5070021841,39.9824820446,0 64.5071001457,39.9828755889,0 64.5071533223,39.9830604509,0 64.5072488871,39.9832642423,0 64.5073776331,39.9837369355,0 64.5074098196,39.9838396944,0 64.5075455573,39.9844239362,0 64.5075576828,39.9844660876,0 64.5077301566,39.9850656207,0 64.5077341308,39.9850794336,0 64.5076426535,39.9850860453,0 64.5076403386,39.9850862726,0 64.5073833252,39.9851182089,0 64.5073824439,39.9851183271,0 64.5070493199,39.9851664554,0 64.5069042231,39.9851849444,0 64.5068429571,39.9849572239,0 64.5066978379,39.9844772699,0 64.5066959855,39.9844711446,0 64.5066242973,39.9841805413,0 64.5066130189,39.9841348239,0 64.5064658003,39.9836373103,0 64.5064326749,39.983517903,0 64.506352777,39.9832298981,0 64.50627886,39.9829648588,0 64.5062709414,39.9829364624,0
						</coordinates>
					</LinearRing>
				</outerBoundaryIs>
			</Polygon>
		</Placemark>
		<Placemark>
			<name>
				1461 Гарден галла 2026
			</name>
			<description>
				&amp;lt;b&amp;gt;&amp;lt;/b&amp;gt;
			</description>
			<Style>
				<LineStyle>
					<color>
						996825ea
					</color>
					<width>
						10.0
					</width>
				</LineStyle>
				<PolyStyle>
					<color>
						996825ea
					</color>
				</PolyStyle>
			</Style>
			<Polygon>
				<outerBoundaryIs>
					<LinearRing>
						<coordinates>
							64.509248,39.979445,0 64.509674,39.979335,0 64.510033,39.979261,0 64.510221,39.979224,0 64.510659,39.979124,0 64.510748,39.979492,0 64.510839,39.979813,0 64.510383,39.979878,0 64.510452,39.980108,0 64.510506,39.980354,0 64.510554,39.98049,0 64.510581,39.980605,0 64.510017,39.980753,0 64.509636,39.980876,0 64.509248,39.979445,0
						</coordinates>
					</LinearRing>
				</outerBoundaryIs>
			</Polygon>
		</Placemark>
		<Placemark>
			<name>
				4881 Гарден галла 2026
			</name>
			<description>
				&amp;lt;b&amp;gt;&amp;lt;/b&amp;gt;
			</description>
			<Style>
				<LineStyle>
					<color>
						996825ea
					</color>
					<width>
						10.0
					</width>
				</LineStyle>
				<PolyStyle>
					<color>
						996825ea
					</color>
				</PolyStyle>
			</Style>
			<Polygon>
				<outerBoundaryIs>
					<LinearRing>
						<coordinates>
							64.505978919,39.971415848,0 64.505993,39.971458,0 64.505999,39.971477,0 64.506033,39.971602,0 64.506085,39.971791,0 64.5061,39.971882,0 64.506106,39.971919,0 64.50611,39.971945,0 64.506135,39.9721,0 64.506136,39.972103,0 64.50613,39.972119,0 64.506106,39.972175,0 64.506008,39.972232,0 64.505866,39.972258,0 64.505861,39.972259,0 64.5057750711,39.9722956182,0 64.5057053337,39.9723202845,0 64.5056785116,39.9723819502,0 64.5057106981,39.9725093924,0 64.505876995,39.973241153,0 64.506043292,39.9737838019,0 64.5061559448,39.9742113404,0 64.504927493,39.9742565607,0 64.5048255691,39.9742236732,0 64.5047933826,39.974108567,0 64.5047129163,39.9737509142,0 64.5045841703,39.9730972681,0 64.5044125089,39.9722216193,0 64.5042623052,39.9714939589,0 64.5036723951,39.9686141147,0 64.5048632959,39.9685360005,0 64.5049330334,39.9688895693,0 64.5052066187,39.9688607905,0 64.505978919,39.971415848,0
						</coordinates>
					</LinearRing>
				</outerBoundaryIs>
			</Polygon>
		</Placemark>
		<Placemark>
			<name>
				4882 Гарден галла 2026
			</name>
			<description>
				&amp;lt;b&amp;gt;&amp;lt;/b&amp;gt;
			</description>
			<Style>
				<LineStyle>
					<color>
						996825ea
					</color>
					<width>
						10.0
					</width>
				</LineStyle>
				<PolyStyle>
					<color>
						996825ea
					</color>
				</PolyStyle>
			</Style>
			<Polygon>
				<outerBoundaryIs>
					<LinearRing>
						<coordinates>
							64.5064604578,39.9722972658,0 64.5075547991,39.972091713,0 64.5077961979,39.9732756885,0 64.5079356728,39.9739581095,0 64.507253,39.973996,0 64.507252,39.973996,0 64.507073,39.974006,0 64.506767,39.974021,0 64.5062351523,39.9740485504,0 64.5061761437,39.973917,0 64.5060420332,39.973427795,0 64.506074,39.97343,0 64.5059937535,39.9731934687,0 64.5058328209,39.9725192621,0 64.5058811007,39.972404153,0 64.5060634909,39.9722890437,0 64.5062512455,39.9721986005,0 64.5063799916,39.9722725995,0 64.5064604578,39.9722972658,0
						</coordinates>
					</LinearRing>
				</outerBoundaryIs>
			</Polygon>
		</Placemark>
		<Placemark>
			<name>
				4883 Гарден галла 2026
			</name>
			<description>
				&amp;lt;b&amp;gt;&amp;lt;/b&amp;gt;
			</description>
			<Style>
				<LineStyle>
					<color>
						996825ea
					</color>
					<width>
						10.0
					</width>
				</LineStyle>
				<PolyStyle>
					<color>
						996825ea
					</color>
				</PolyStyle>
			</Style>
			<Polygon>
				<outerBoundaryIs>
					<LinearRing>
						<coordinates>
							64.5098989044,39.9740076149,0 64.5098910379,39.9740078713,0 64.5098126581,39.9740104223,0 64.5097424871,39.9740127058,0 64.5096862049,39.974014538,0 64.5093612987,39.9740251131,0 64.5093488255,39.9740255194,0 64.5093063676,39.974026901,0 64.5088613494,39.9740337177,0 64.5088070848,39.9740345484,0 64.5086452875,39.9740370262,0 64.5083138424,39.9740004568,0 64.5083125766,39.9740003386,0 64.5079710821,39.9739742821,0 64.507967699,39.9739741756,0 64.50796701,39.9739741915,0 64.5079583512,39.9739744618,0 64.5078755103,39.9735497337,0 64.5077763938,39.9730370692,0 64.5076960808,39.9726170274,0 64.5076035193,39.9721329172,0 64.5077586233,39.972100898,0 64.5080146019,39.9720451155,0 64.5080176148,39.9720442847,0 64.5080204521,39.972043145,0 64.5080230604,39.9720417178,0 64.508033329,39.9720352424,0 64.5080415263,39.9720307869,0 64.5080488142,39.9720254777,0 64.508096371,39.9719954912,0 64.5080992707,39.9719933143,0 64.508101639,39.9719907852,0 64.5081034048,39.9719879797,0 64.5081045154,39.971984982,0 64.5081049373,39.9719818818,0 64.508104658,39.9719787721,0 64.5080662604,39.9717903798,0 64.5083061743,39.971740792,0 64.5083090946,39.9717400266,0 64.5083118586,39.9717389724,0 64.5083144184,39.9717376477,0 64.5083167296,39.9717360755,0 64.5083176476,39.9717366651,0 64.5083263972,39.9717631371,0 64.5084029912,39.9718239777,0 64.5086510511,39.9720210163,0 64.5088287791,39.9722164722,0 64.5088637191,39.9722605133,0 64.5090963406,39.9725537243,0 64.509128873,39.9725983802,0 64.5091410488,39.9726150943,0 64.5091892102,39.972974264,0 64.5092033506,39.9730071128,0 64.5092381675,39.9730880004,0 64.5094967116,39.973296699,0 64.5096001822,39.9734162383,0 64.509633357,39.9734545649,0 64.5097204819,39.9735524257,0 64.5097445002,39.9735794036,0 64.5099135227,39.9738011819,0 64.5099936003,39.9739216596,0 64.5099988914,39.9739528921,0 64.5100044852,39.9739859153,0 64.5100075619,39.9740040783,0 64.5098989044,39.9740076149,0
						</coordinates>
					</LinearRing>
				</outerBoundaryIs>
			</Polygon>
		</Placemark>
		<Placemark>
			<name>
				5598 Гарден галла 2026
			</name>
			<description/>
			<Style>
				<LineStyle>
					<color>
						996825ea
					</color>
					<width>
						10.0
					</width>
				</LineStyle>
				<PolyStyle>
					<color>
						996825ea
					</color>
				</PolyStyle>
			</Style>
			<Polygon>
				<outerBoundaryIs>
					<LinearRing>
						<coordinates>
							64.4228249745,39.9475041464,0 64.4243,39.948433,0 64.4244933085,39.9485528361,0 64.4246649699,39.9486926602,0 64.4248900995,39.9488550617,0 64.4250136571,39.9490710063,0 64.4246916161,39.9494390284,0 64.4243965731,39.9497145602,0 64.424247,39.94963,0 64.423878,39.949333,0 64.423107,39.948762,0 64.423013,39.948692,0 64.4225887642,39.9484109147,0 64.421827,39.947867,0 64.4212315664,39.947522612,0 64.4210545406,39.94734166,0 64.4209418879,39.9472018332,0 64.4208828793,39.9470537809,0 64.420892,39.946975,0 64.420912,39.946909,0 64.421173,39.946672,0 64.421411,39.946457,0 64.421507,39.946395,0 64.421624,39.946367,0 64.421792,39.946348,0 64.422021,39.946275,0 64.422375,39.946126,0 64.422545,39.946073,0 64.422726,39.946091,0 64.4232110367,39.9460503071,0 64.4236884699,39.9461202218,0 64.4232380347,39.9469078255,0 64.4228678899,39.9474547959,0 64.4228249745,39.9475041464,0
						</coordinates>
					</LinearRing>
				</outerBoundaryIs>
			</Polygon>
		</Placemark>
		<Placemark>
			<name>
				5623 Гарден галла 2026
			</name>
			<description>
				&amp;lt;b&amp;gt;&amp;lt;/b&amp;gt;
			</description>
			<Style>
				<LineStyle>
					<color>
						996825ea
					</color>
					<width>
						10.0
					</width>
				</LineStyle>
				<PolyStyle>
					<color>
						996825ea
					</color>
				</PolyStyle>
			</Style>
			<Polygon>
				<outerBoundaryIs>
					<LinearRing>
						<coordinates>
							64.4171868609,39.9475718183,0 64.4170366572,39.9474648923,0 64.417037,39.947105,0 64.416978,39.94655,0 64.4168596314,39.9461159651,0 64.417107,39.945962,0 64.417538,39.946021,0 64.417562,39.946036,0 64.417651,39.946416,0 64.417702,39.946831,0 64.417729,39.947195,0 64.417753,39.947477,0 64.4173692512,39.9475718183,0 64.4171868609,39.9475718183,0
						</coordinates>
					</LinearRing>
				</outerBoundaryIs>
			</Polygon>
		</Placemark>
		<Placemark>
			<name>
				5629 Гарден галла 2026
			</name>
			<description/>
			<Style>
				<LineStyle>
					<color>
						996825ea
					</color>
					<width>
						10.0
					</width>
				</LineStyle>
				<PolyStyle>
					<color>
						996825ea
					</color>
				</PolyStyle>
			</Style>
			<Polygon>
				<outerBoundaryIs>
					<LinearRing>
						<coordinates>
							64.415127,39.940183,0 64.41562,39.9401,0 64.416624,39.940023,0 64.416731,39.941896,0 64.416432,39.941935,0 64.415519,39.942015,0 64.415089,39.942026,0 64.415127,39.940183,0
						</coordinates>
					</LinearRing>
				</outerBoundaryIs>
			</Polygon>
		</Placemark>
		<Placemark>
			<name>
				5633 Гарден галла 2026
			</name>
			<description>
				&amp;lt;b&amp;gt;{&quot;xtype&quot; : 2002,&quot;xid&quot; : 3612,&quot;culture&quot; :&quot;Õëîïîê&quot;}&amp;lt;/b&amp;gt;
			</description>
			<Style>
				<LineStyle>
					<color>
						996825ea
					</color>
					<width>
						10.0
					</width>
				</LineStyle>
				<PolyStyle>
					<color>
						996825ea
					</color>
				</PolyStyle>
			</Style>
			<Polygon>
				<outerBoundaryIs>
					<LinearRing>
						<coordinates>
							64.4204443693,39.9375577248,0 64.4202979732,39.9380751963,0 64.4202727079,39.9382569547,0 64.4201439619,39.9390466646,0 64.4200849533,39.9396718451,0 64.4199723005,39.9401407267,0 64.4199562073,39.9403587145,0 64.4198688197,39.9404772086,0 64.4196864295,39.9404772086,0 64.4191768098,39.9404813216,0 64.4187101054,39.9404813216,0 64.4186159902,39.9404011593,0 64.4185277152,39.9393996039,0 64.4184648991,39.9388985947,0 64.4184273481,39.9387052807,0 64.4183292318,39.9382767382,0 64.4182916808,39.9381451191,0 64.4181600147,39.9378387327,0 64.4180902772,39.9375096822,0 64.4188091092,39.9374109668,0 64.419281178,39.9374109668,0 64.4197937179,39.9374253223,0 64.4203156233,39.9374672357,0 64.4204443693,39.9375577248,0
						</coordinates>
					</LinearRing>
				</outerBoundaryIs>
			</Polygon>
		</Placemark>
		<Placemark>
			<name>
				5634 Гарден галла 2026
			</name>
			<description/>
			<Style>
				<LineStyle>
					<color>
						996825ea
					</color>
					<width>
						10.0
					</width>
				</LineStyle>
				<PolyStyle>
					<color>
						996825ea
					</color>
				</PolyStyle>
			</Style>
			<Polygon>
				<outerBoundaryIs>
					<LinearRing>
						<coordinates>
							64.420956,39.940409,0 64.420952,39.940441,0 64.419924,39.940381,0 64.419932,39.940327,0 64.420067,39.939428,0 64.420189,39.938635,0 64.420256,39.938296,0 64.420321,39.938093,0 64.42041,39.937515,0 64.4215,39.937802,0 64.421331,39.938178,0 64.42127,39.938578,0 64.421181,39.938899,0 64.421131,39.939253,0 64.421052,39.93982,0 64.420956,39.940409,0
						</coordinates>
					</LinearRing>
				</outerBoundaryIs>
			</Polygon>
		</Placemark>
		<Placemark>
			<name>
				5635 Гарден галла 2026
			</name>
			<description/>
			<Style>
				<LineStyle>
					<color>
						996825ea
					</color>
					<width>
						10.0
					</width>
				</LineStyle>
				<PolyStyle>
					<color>
						996825ea
					</color>
				</PolyStyle>
			</Style>
			<Polygon>
				<outerBoundaryIs>
					<LinearRing>
						<coordinates>
							64.421505,39.938022,0 64.421564,39.93788,0 64.42198,39.937999,0 64.422468,39.938112,0 64.423321,39.938316,0 64.423299,39.938446,0 64.421505,39.938022,0
						</coordinates>
					</LinearRing>
				</outerBoundaryIs>
			</Polygon>
		</Placemark>
		<Placemark>
			<name>
				5635 Гарден галла 2026
			</name>
			<description/>
			<Style>
				<LineStyle>
					<color>
						996825ea
					</color>
					<width>
						10.0
					</width>
				</LineStyle>
				<PolyStyle>
					<color>
						996825ea
					</color>
				</PolyStyle>
			</Style>
			<Polygon>
				<outerBoundaryIs>
					<LinearRing>
						<coordinates>
							64.423226,39.938572,0 64.423251,39.938639,0 64.423397,39.93972,0 64.423529,39.940316,0 64.423622,39.940688,0 64.423576,39.94072,0 64.423326,39.940702,0 64.422826,39.94068,0 64.422616,39.940681,0 64.422137,39.940613,0 64.421071,39.940451,0 64.4214649271,39.9381157195,0 64.423226,39.938572,0
						</coordinates>
					</LinearRing>
				</outerBoundaryIs>
			</Polygon>
		</Placemark>
		<Placemark>
			<name>
				5643 Гарден галла 2026
			</name>
			<description/>
			<Style>
				<LineStyle>
					<color>
						996825ea
					</color>
					<width>
						10.0
					</width>
				</LineStyle>
				<PolyStyle>
					<color>
						996825ea
					</color>
				</PolyStyle>
			</Style>
			<Polygon>
				<outerBoundaryIs>
					<LinearRing>
						<coordinates>
							64.423198,39.942554,0 64.423072,39.942429,0 64.422908,39.942221,0 64.42282,39.941997,0 64.422761,39.941837,0 64.422755,39.941647,0 64.422761,39.941417,0 64.422766,39.940977,0 64.4228,39.940782,0 64.422888,39.940777,0 64.423283,39.940786,0 64.423642,39.940815,0 64.423718,39.940855,0 64.423771,39.940943,0 64.424221,39.942221,0 64.424242,39.942331,0 64.424223,39.942373,0 64.424182,39.942407,0 64.424071,39.942435,0 64.423787,39.94249,0 64.423492,39.942526,0 64.423316,39.94255,0 64.423198,39.942554,0
						</coordinates>
					</LinearRing>
				</outerBoundaryIs>
			</Polygon>
		</Placemark>
		<Placemark>
			<name>
				5649 Гарден галла 2026
			</name>
			<description/>
			<Style>
				<LineStyle>
					<color>
						996825ea
					</color>
					<width>
						10.0
					</width>
				</LineStyle>
				<PolyStyle>
					<color>
						996825ea
					</color>
				</PolyStyle>
			</Style>
			<Polygon>
				<outerBoundaryIs>
					<LinearRing>
						<coordinates>
							64.4224740339,39.9428184323,0 64.42284761,39.9427541873,0 64.4228523684,39.9427803609,0 64.422869025,39.9428469859,0 64.423014172,39.9429540609,0 64.4232449798,39.9432705303,0 64.4233710907,39.9433990201,0 64.4235305147,39.9435751012,0 64.4236375912,39.9437250072,0 64.423701836,39.9438868099,0 64.4237898763,39.944177104,0 64.423868398,39.9445007109,0 64.4238493627,39.9445482997,0 64.4238065319,39.9445792332,0 64.4233758499,39.9446363402,0 64.42311173,39.9446387201,0 64.4230165508,39.9446529962,0 64.4229856182,39.9446268219,0 64.4229475467,39.9445435412,0 64.4227429132,39.9437606989,0 64.4225168638,39.9429588201,0 64.4224740339,39.9428184323,0
						</coordinates>
					</LinearRing>
				</outerBoundaryIs>
			</Polygon>
		</Placemark>
		<Placemark>
			<name>
				5650 Гарден галла 2026
			</name>
			<description/>
			<Style>
				<LineStyle>
					<color>
						996825ea
					</color>
					<width>
						10.0
					</width>
				</LineStyle>
				<PolyStyle>
					<color>
						996825ea
					</color>
				</PolyStyle>
			</Style>
			<Polygon>
				<outerBoundaryIs>
					<LinearRing>
						<coordinates>
							64.4249300107,39.9440786144,0 64.4249836549,39.9445762549,0 64.424181,39.944585,0 64.423947,39.944585,0 64.423933,39.944552,0 64.423667,39.943643,0 64.423576,39.943512,0 64.423505,39.943424,0 64.423215,39.943049,0 64.423068,39.942887,0 64.422997,39.942802,0 64.422951,39.942719,0 64.423479,39.94262,0 64.424198,39.942495,0 64.424314,39.942532,0 64.424499,39.942978,0 64.4246349677,39.9431984811,0 64.4247690782,39.9435192786,0 64.42489,39.944069,0 64.4249300107,39.9440786144,0
						</coordinates>
					</LinearRing>
				</outerBoundaryIs>
			</Polygon>
		</Placemark>
		<Placemark>
			<name>
				5652 Гарден галла 2026
			</name>
			<description/>
			<Style>
				<LineStyle>
					<color>
						996825ea
					</color>
					<width>
						10.0
					</width>
				</LineStyle>
				<PolyStyle>
					<color>
						996825ea
					</color>
				</PolyStyle>
			</Style>
			<Polygon>
				<outerBoundaryIs>
					<LinearRing>
						<coordinates>
							64.4249312712,39.9445943763,0 64.4249576826,39.9445986591,0 64.425036679,39.9448786948,0 64.4250635011,39.9452735126,0 64.4250849588,39.9456765535,0 64.4251064165,39.9459274247,0 64.4251439674,39.9462235338,0 64.4250290672,39.9462178831,0 64.4247630937,39.9462070833,0 64.4244568062,39.94613936,0 64.4243045211,39.9461203252,0 64.424111784,39.9461036689,0 64.4238500436,39.9461048581,0 64.423663256,39.9460846327,0 64.4235526114,39.9460453717,0 64.423521678,39.946019198,0 64.4235185487,39.9455984131,0 64.4235131843,39.9453475407,0 64.4235078199,39.9447182993,0 64.4235702193,39.94466814,0 64.4237739006,39.9446267369,0 64.4240037571,39.9446096052,0 64.4241243963,39.9446017532,0 64.4243542518,39.9445967562,0 64.4246276523,39.94458819,0 64.4249312712,39.9445943763,0
						</coordinates>
					</LinearRing>
				</outerBoundaryIs>
			</Polygon>
		</Placemark>
		<Placemark>
			<name>
				5654 Гарден галла 2026
			</name>
			<description/>
			<Style>
				<LineStyle>
					<color>
						996825ea
					</color>
					<width>
						10.0
					</width>
				</LineStyle>
				<PolyStyle>
					<color>
						996825ea
					</color>
				</PolyStyle>
			</Style>
			<Polygon>
				<outerBoundaryIs>
					<LinearRing>
						<coordinates>
							64.4297558752,39.9435211757,0 64.4301358509,39.9434739679,0 64.4301657657,39.9434702514,0 64.4302572223,39.9434588888,0 64.4303521149,39.9434474696,0 64.43142908,39.943317859,0 64.4314303071,39.9433176944,0 64.4314331763,39.9433171717,0 64.4315200775,39.9432983277,0 64.4316494205,39.9433180077,0 64.4318903148,39.9438814604,0 64.4319654166,39.9441858038,0 64.4319761455,39.9445559494,0 64.4317615687,39.9446176401,0 64.4302005231,39.9447780358,0 64.4276363313,39.9450165722,0 64.4274919482,39.9449930961,0 64.4274905127,39.9449818728,0 64.4273734748,39.9444778077,0 64.4273359239,39.9443749896,0 64.4273412883,39.9443050732,0 64.4273795241,39.9441990382,0 64.4273666512,39.9440139728,0 64.4273711563,39.9439329019,0 64.4274455763,39.9438810803,0 64.4274667972,39.9438663035,0 64.4274760903,39.9438923536,0 64.4278777301,39.9437663031,0 64.4282460848,39.9437283798,0 64.4283104455,39.9437145323,0 64.4284465079,39.9436936513,0 64.4285647819,39.9436775414,0 64.4287264068,39.9436656513,0 64.4288023207,39.9436600665,0 64.4288056283,39.9436597,0 64.4288067629,39.9436595168,0 64.4292091057,39.9435891048,0 64.4297558752,39.9435211757,0
						</coordinates>
					</LinearRing>
				</outerBoundaryIs>
			</Polygon>
		</Placemark>
		<Placemark>
			<name>
				5667 Гарден галла 2026
			</name>
			<description/>
			<Style>
				<LineStyle>
					<color>
						996825ea
					</color>
					<width>
						10.0
					</width>
				</LineStyle>
				<PolyStyle>
					<color>
						996825ea
					</color>
				</PolyStyle>
			</Style>
			<Polygon>
				<outerBoundaryIs>
					<LinearRing>
						<coordinates>
							64.4394239641,39.9450371217,0 64.4394025064,39.9451481642,0 64.4393274046,39.9452304178,0 64.4395044304,39.9452098544,0 64.4396975494,39.9452386432,0 64.4399067617,39.9454730653,0 64.4406953312,39.9484300056,0 64.4402018047,39.9485821674,0 64.4396492697,39.9486644168,0 64.4394132353,39.9486973166,0 64.4392415739,39.9487137664,0 64.439102099,39.9487055415,0 64.4389689321,39.9481976857,0 64.4389304377,39.9479611808,0 64.43890898,39.9478542553,0 64.4386246658,39.9467891046,0 64.4382598854,39.9452386432,0 64.4389679886,39.9451070374,0 64.4392898537,39.9450042202,0 64.4394239641,39.9450371217,0
						</coordinates>
					</LinearRing>
				</outerBoundaryIs>
			</Polygon>
		</Placemark>
		<Placemark>
			<name>
				5668 Гарден галла 2026
			</name>
			<description/>
			<Style>
				<LineStyle>
					<color>
						996825ea
					</color>
					<width>
						10.0
					</width>
				</LineStyle>
				<PolyStyle>
					<color>
						996825ea
					</color>
				</PolyStyle>
			</Style>
			<Polygon>
				<outerBoundaryIs>
					<LinearRing>
						<coordinates>
							64.4365897486,39.9476755924,0 64.4364462553,39.9470282918,0 64.4364116576,39.947032835,0 64.4364459615,39.9470271219,0 64.4363838924,39.9468063506,0 64.4360524931,39.9456275978,0 64.4373845537,39.9454693975,0 64.4380326082,39.945392425,0 64.4380332801,39.9453923469,0 64.4380355843,39.9453921139,0 64.4380558332,39.9454610727,0 64.4382295863,39.9460527911,0 64.4385575576,39.9471696651,0 64.4385694827,39.947212007,0 64.4388419463,39.9481793809,0 64.4388547526,39.9482164613,0 64.4389003385,39.948348445,0 64.4389051876,39.9483624873,0 64.4389064372,39.9483680482,0 64.4388074231,39.948389178,0 64.4378527295,39.9485122404,0 64.4369775953,39.9486428394,0 64.4369214856,39.9486512128,0 64.4367804959,39.9486704329,0 64.4367023425,39.9481836606,0 64.4367021071,39.9481824293,0 64.4366524878,39.9479586002,0 64.4365904412,39.947678712,0 64.4365897486,39.9476755924,0
						</coordinates>
					</LinearRing>
				</outerBoundaryIs>
			</Polygon>
		</Placemark>
		<Placemark>
			<name>
				6035 Гарден галла 2026
			</name>
			<description/>
			<Style>
				<LineStyle>
					<color>
						996825ea
					</color>
					<width>
						10.0
					</width>
				</LineStyle>
				<PolyStyle>
					<color>
						996825ea
					</color>
				</PolyStyle>
			</Style>
			<Polygon>
				<outerBoundaryIs>
					<LinearRing>
						<coordinates>
							64.474911785,39.9182074772,0 64.4761885165,39.9191455314,0 64.4766159151,39.9205442067,0 64.4757897947,39.920910366,0 64.4744619496,39.9199514453,0 64.4734633921,39.9192154735,0 64.474911785,39.9182074772,0
						</coordinates>
					</LinearRing>
				</outerBoundaryIs>
			</Polygon>
		</Placemark>
		<Placemark>
			<name>
				6036 Гарден галла 2026
			</name>
			<description/>
			<Style>
				<LineStyle>
					<color>
						996825ea
					</color>
					<width>
						10.0
					</width>
				</LineStyle>
				<PolyStyle>
					<color>
						996825ea
					</color>
				</PolyStyle>
			</Style>
			<Polygon>
				<outerBoundaryIs>
					<LinearRing>
						<coordinates>
							64.4758007637,39.9209058179,0 64.4747922531,39.9213748281,0 64.4725391975,39.919971902,0 64.4734730177,39.9192427643,0 64.4744619496,39.9199514453,0 64.4756724519,39.9208195479,0 64.4758007637,39.9209058179,0
						</coordinates>
					</LinearRing>
				</outerBoundaryIs>
			</Polygon>
		</Placemark>
		<Placemark>
			<name>
				6041 Гарден галла 2026
			</name>
			<description/>
			<Style>
				<LineStyle>
					<color>
						996825ea
					</color>
					<width>
						10.0
					</width>
				</LineStyle>
				<PolyStyle>
					<color>
						996825ea
					</color>
				</PolyStyle>
			</Style>
			<Polygon>
				<outerBoundaryIs>
					<LinearRing>
						<coordinates>
							64.4699625786,39.9175346823,0 64.4697640951,39.918884173,0 64.4699625786,39.9189623439,0 64.4702147062,39.9188800587,0 64.4708316143,39.9192503411,0 64.4714860733,39.9193902251,0 64.4720386083,39.9196494211,0 64.4724892195,39.9198263321,0 64.4727359827,39.9196782206,0 64.4741360958,39.9186949167,0 64.4702576216,39.9168722702,0 64.4699625786,39.9175346823,0
						</coordinates>
					</LinearRing>
				</outerBoundaryIs>
			</Polygon>
		</Placemark>
		<Placemark>
			<name>
				6042 Гарден галла 2026
			</name>
			<description>
				Unknown Area Type
			</description>
			<Style>
				<LineStyle>
					<color>
						996825ea
					</color>
					<width>
						10.0
					</width>
				</LineStyle>
				<PolyStyle>
					<color>
						996825ea
					</color>
				</PolyStyle>
			</Style>
			<Polygon>
				<outerBoundaryIs>
					<LinearRing>
						<coordinates>
							64.4749808639,39.9181759258,0 64.474143,39.918625,0 64.470238,39.916833,0 64.470529,39.916001,0 64.470649,39.91548,0 64.471711,39.915958,0 64.472902,39.916509,0 64.4754690259,39.917723351,0 64.4750988811,39.9180483823,0 64.4749808639,39.9181759258,0
						</coordinates>
					</LinearRing>
				</outerBoundaryIs>
			</Polygon>
		</Placemark>
		<Placemark>
			<name>
				6043 Гарден галла 2026
			</name>
			<description/>
			<Style>
				<LineStyle>
					<color>
						996825ea
					</color>
					<width>
						10.0
					</width>
				</LineStyle>
				<PolyStyle>
					<color>
						996825ea
					</color>
				</PolyStyle>
			</Style>
			<Polygon>
				<outerBoundaryIs>
					<LinearRing>
						<coordinates>
							64.4740641388,39.915781389,0 64.4735125453,39.9162698241,0 64.4732174919,39.9165553589,0 64.4731580584,39.9166106938,0 64.4706476742,39.9154053357,0 64.4710224396,39.9143048358,0 64.4740641388,39.915781389,0
						</coordinates>
					</LinearRing>
				</outerBoundaryIs>
			</Polygon>
		</Placemark>
		<Placemark>
			<name>
				6045 Гарден галла 2026
			</name>
			<description/>
			<Style>
				<LineStyle>
					<color>
						996825ea
					</color>
					<width>
						10.0
					</width>
				</LineStyle>
				<PolyStyle>
					<color>
						996825ea
					</color>
				</PolyStyle>
			</Style>
			<Polygon>
				<outerBoundaryIs>
					<LinearRing>
						<coordinates>
							64.4740641388,39.915781389,0 64.4740859957,39.9157919988,0 64.4764833027,39.9169638827,0 64.4754422883,39.9177074647,0 64.4731580584,39.9166106938,0 64.4732174919,39.9165553589,0 64.4735125453,39.9162698241,0 64.4740641388,39.915781389,0
						</coordinates>
					</LinearRing>
				</outerBoundaryIs>
			</Polygon>
		</Placemark>
		<Placemark>
			<name>
				6058 Гарден галла 2026
			</name>
			<description/>
			<Style>
				<LineStyle>
					<color>
						996825ea
					</color>
					<width>
						10.0
					</width>
				</LineStyle>
				<PolyStyle>
					<color>
						996825ea
					</color>
				</PolyStyle>
			</Style>
			<Polygon>
				<outerBoundaryIs>
					<LinearRing>
						<coordinates>
							64.477508444,39.9154591822,0 64.4776297956,39.9160588057,0 64.4765554698,39.9169261191,0 64.4764769471,39.9168761508,0 64.4742890329,39.91581967,0 64.4753098218,39.9146418367,0 64.4760486439,39.9149523557,0 64.4763163338,39.9150451549,0 64.477508444,39.9154591822,0
						</coordinates>
					</LinearRing>
				</outerBoundaryIs>
			</Polygon>
		</Placemark>
		<Placemark>
			<name>
				6060 Гарден галла 2026
			</name>
			<description>
				&amp;lt;b&amp;gt;{&quot;xtype&quot; : 2002,&quot;xid&quot; : 422,&quot;culture&quot; :&quot;Õëîïîê&quot;}&amp;lt;/b&amp;gt;
			</description>
			<Style>
				<LineStyle>
					<color>
						996825ea
					</color>
					<width>
						10.0
					</width>
				</LineStyle>
				<PolyStyle>
					<color>
						996825ea
					</color>
				</PolyStyle>
			</Style>
			<Polygon>
				<outerBoundaryIs>
					<LinearRing>
						<coordinates>
							64.475202359,39.9146508487,0 64.4742446256,39.9157900163,0 64.4740869874,39.9157126837,0 64.4725343887,39.914963153,0 64.4711691731,39.9143206988,0 64.4710472259,39.9142463412,0 64.471020457,39.9141690082,0 64.4711453777,39.9134194778,0 64.4713387104,39.9128394839,0 64.4718681397,39.913116097,0 64.4734772496,39.9139994722,0 64.4743308818,39.914374237,0 64.475202359,39.9146508487,0
						</coordinates>
					</LinearRing>
				</outerBoundaryIs>
			</Polygon>
		</Placemark>
	</Document>
</kml>

