<?xml version="1.0" encoding="utf-8"?>

<kml>
	<Document>
		<name>
			Geofences
		</name>
		<Placemark>
			<name>
				8875-3 галла 2026
			</name>
			<description>
				&amp;lt;b&amp;gt;{&quot;xtype&quot; :&quot;uzdata.fields2006&quot;,&quot;xid&quot; : 1346,&quot;culture&quot; :&quot;Õëîïîê&quot;}&amp;lt;/b&amp;gt;
			</description>
			<Style>
				<LineStyle>
					<color>
						996825ea
					</color>
					<width>
						10.0
					</width>
				</LineStyle>
				<PolyStyle>
					<color>
						996825ea
					</color>
				</PolyStyle>
			</Style>
			<Polygon>
				<outerBoundaryIs>
					<LinearRing>
						<coordinates>
							64.380087,39.985,0 64.379804,39.984293,0 64.379582,39.983783,0 64.380045,39.983776,0 64.380409,39.983757,0 64.380563,39.983765,0 64.3808350089,39.9837845853,0 64.3811622384,39.9838339096,0 64.3814090016,39.9838421303,0 64.381676,39.983907,0 64.3821278336,39.9839489995,0 64.382466,39.984009,0 64.382726,39.984034,0 64.382721,39.984116,0 64.382709,39.984556,0 64.3827876571,39.9849025936,0 64.382825208,39.9850423434,0 64.3828734878,39.9852108648,0 64.3829164031,39.9853012907,0 64.3829485896,39.9853793857,0 64.383007,39.985495,0 64.3831792596,39.9858109619,0 64.383350921,39.9861233392,0 64.383529,39.986408,0 64.38362,39.986503,0 64.383756,39.986628,0 64.38367,39.986714,0 64.383584,39.986763,0 64.383466,39.986841,0 64.383171,39.987063,0 64.383021,39.987158,0 64.382823,39.987261,0 64.382608,39.987376,0 64.382254,39.987507,0 64.381878,39.987655,0 64.381658,39.987725,0 64.381331,39.98784,0 64.381261,39.987873,0 64.381186,39.98761,0 64.380811,39.986722,0 64.380392,39.98569,0 64.380087,39.985,0
						</coordinates>
					</LinearRing>
				</outerBoundaryIs>
			</Polygon>
		</Placemark>
		<Placemark>
			<name>
				8566-3 галла 2026
			</name>
			<description>
				40.016158884671846, 64.40047954005914
			</description>
			<Style>
				<LineStyle>
					<color>
						996825ea
					</color>
					<width>
						50.0
					</width>
				</LineStyle>
				<PolyStyle>
					<color>
						996825ea
					</color>
				</PolyStyle>
			</Style>
			<Polygon>
				<outerBoundaryIs>
					<LinearRing>
						<coordinates>
							64.4007451795,40.0160665546,0 64.4009329341,40.0159679526,0 64.4010831378,40.0158898925,0 64.4013138078,40.0157830734,0 64.4016114323,40.0156371146,0 64.4017858766,40.0155406754,0 64.4020326398,40.0154338557,0 64.4022954963,40.0153147105,0 64.4022605268,40.0152755708,0 64.4021264164,40.0150701473,0 64.4020352213,40.0148893742,0 64.4019225685,40.0146716241,0 64.4017723648,40.0144415477,0 64.4016650764,40.0142402302,0 64.4015256016,40.0139731756,0 64.4014183132,40.0137923995,0 64.4013163893,40.0136239486,0 64.4011608211,40.0133486744,0 64.4010857193,40.0132500684,0 64.4009623377,40.0130364217,0 64.4008926002,40.0128967292,0 64.4008149169,40.0127756345,0 64.40041795,40.012812612,0 64.3994148038,40.0129564132,0 64.3991358541,40.013009825,0 64.3993128799,40.0134165752,0 64.3996562026,40.0141930914,0 64.3998707794,40.014743632,0 64.4003803991,40.015894001,0 64.4005037807,40.0161487229,0 64.4007451795,40.0160665546,0
						</coordinates>
					</LinearRing>
				</outerBoundaryIs>
			</Polygon>
		</Placemark>
		<Placemark>
			<name>
				8565-3 галла 2026
			</name>
			<description>
				40.0165615652254, 64.39954605616013
			</description>
			<Style>
				<LineStyle>
					<color>
						996825ea
					</color>
					<width>
						50.0
					</width>
				</LineStyle>
				<PolyStyle>
					<color>
						996825ea
					</color>
				</PolyStyle>
			</Style>
			<Polygon>
				<outerBoundaryIs>
					<LinearRing>
						<coordinates>
							64.3995460562,40.0165615652,0 64.3997552685,40.0164588555,0 64.4000127605,40.016380796,0 64.4002487949,40.0162863028,0 64.4004150919,40.0162041347,0 64.4004472784,40.0161548338,0 64.4001790575,40.0155755455,0 64.3999483875,40.0150660964,0 64.3997767261,40.0146634646,0 64.399685531,40.0144662563,0 64.3995997003,40.0142361793,0 64.3994791769,40.0139835562,0 64.399390488,40.0137513715,0 64.3993368439,40.0136198976,0 64.3992778353,40.0134802064,0 64.3991437248,40.0131268683,0 64.3991115383,40.013028262,0 64.3990471653,40.012966633,0 64.3980976633,40.0130981082,0 64.3981459431,40.0133076461,0 64.3982961468,40.0136650918,0 64.3984170221,40.0140164245,0 64.3986301697,40.0144662755,0 64.3988193534,40.0149942498,0 64.3995460562,40.0165615652,0
						</coordinates>
					</LinearRing>
				</outerBoundaryIs>
			</Polygon>
		</Placemark>
		<Placemark>
			<name>
				8564-3 галла 2026
			</name>
			<description>
				40.01700116108355, 64.3975826791608
			</description>
			<Style>
				<LineStyle>
					<color>
						996825ea
					</color>
					<width>
						50.0
					</width>
				</LineStyle>
				<PolyStyle>
					<color>
						996825ea
					</color>
				</PolyStyle>
			</Style>
			<Polygon>
				<outerBoundaryIs>
					<LinearRing>
						<coordinates>
							64.3968867339,40.0146408871,0 64.3984531439,40.0143204232,0 64.3983712486,40.0140266441,0 64.398247867,40.0137801314,0 64.3981566719,40.0135130749,0 64.3981098212,40.0133097196,0 64.3980454481,40.0131289418,0 64.3974875487,40.0131864621,0 64.3970476664,40.0132357651,0 64.3965004958,40.013326154,0 64.3968867339,40.0146408871,0
						</coordinates>
					</LinearRing>
				</outerBoundaryIs>
			</Polygon>
		</Placemark>
		<Placemark>
			<name>
				8552-3 галла 2026
			</name>
			<description>
				40.02419784177571, 64.3912438603774
			</description>
			<Style>
				<LineStyle>
					<color>
						996825ea
					</color>
					<width>
						50.0
					</width>
				</LineStyle>
				<PolyStyle>
					<color>
						996825ea
					</color>
				</PolyStyle>
			</Style>
			<Polygon>
				<outerBoundaryIs>
					<LinearRing>
						<coordinates>
							64.3912628118,40.0241732326,0 64.3918260756,40.0240376708,0 64.3921801272,40.0239308644,0 64.3925824586,40.023811734,0 64.3929365102,40.0237131431,0 64.3935641471,40.023524177,0 64.3935212317,40.0233434262,0 64.3932851974,40.0228997632,0 64.3931832734,40.0226450664,0 64.3929847899,40.0222548035,0 64.3927648488,40.0217823769,0 64.3924712349,40.0212031923,0 64.3903361965,40.0218810265,0 64.3905679437,40.0221027674,0 64.3907717916,40.022341034,0 64.390943453,40.0225792997,0 64.3910400125,40.0228257807,0 64.3911179725,40.023129811,0 64.3911794874,40.0234255473,0 64.3911902162,40.0237048889,0 64.391150159,40.0239472962,0 64.3911473009,40.0241567625,0 64.3912628118,40.0241732326,0
						</coordinates>
					</LinearRing>
				</outerBoundaryIs>
			</Polygon>
		</Placemark>
		<Placemark>
			<name>
				8719-3 галла 2026
			</name>
			<description>
				40.01351276936305, 64.3839315322514
			</description>
			<Style>
				<LineStyle>
					<color>
						996825ea
					</color>
					<width>
						50.0
					</width>
				</LineStyle>
				<PolyStyle>
					<color>
						996825ea
					</color>
				</PolyStyle>
			</Style>
			<Polygon>
				<outerBoundaryIs>
					<LinearRing>
						<coordinates>
							64.3839315323,40.0135127694,0 64.3840604542,40.0135970333,0 64.3844735144,40.0134614506,0 64.3847149132,40.0133587362,0 64.3849831341,40.0132519131,0 64.3851977108,40.0131491984,0 64.3851921705,40.0130567166,0 64.3851655243,40.0128533792,0 64.3850904224,40.0126068622,0 64.3850312379,40.0124198812,0 64.3849670408,40.0121466948,0 64.3849455832,40.0119494792,0 64.3849187611,40.0117769151,0 64.3848436592,40.0113660465,0 64.384736195,40.0110106048,0 64.3846934555,40.010638803,0 64.3846183537,40.0103183204,0 64.3854498385,40.0101786223,0 64.3853693722,40.0095540864,0 64.3845700739,40.0096239361,0 64.3847149132,40.0102607977,0 64.384596896,40.0102402538,0 64.3844896076,40.0096362625,0 64.3842106579,40.0096280449,0 64.3840980051,40.0096568065,0 64.3840121744,40.0097184385,0 64.3839048861,40.0098622463,0 64.3836849449,40.010075903,0 64.3834328173,40.0103347554,0 64.3832128761,40.0105936068,0 64.3830036638,40.01081137,0 64.3828534601,40.0109346318,0 64.3827729939,40.0110989806,0 64.3827300785,40.01116472,0 64.3827515362,40.0112592203,0 64.38279964,40.011388606,0 64.3836257604,40.0129663275,0 64.3838296083,40.0133689693,0 64.3839315323,40.0135127694,0
						</coordinates>
					</LinearRing>
				</outerBoundaryIs>
			</Polygon>
		</Placemark>
		<Placemark>
			<name>
				8722-3 галла 2026
			</name>
			<description>
				40.014679612252685, 64.38094889077294
			</description>
			<Style>
				<LineStyle>
					<color>
						996825ea
					</color>
					<width>
						50.0
					</width>
				</LineStyle>
				<PolyStyle>
					<color>
						996825ea
					</color>
				</PolyStyle>
			</Style>
			<Polygon>
				<outerBoundaryIs>
					<LinearRing>
						<coordinates>
							64.3809488908,40.0146796123,0 64.3811797617,40.0146488177,0 64.381684017,40.0144516093,0 64.3820432321,40.0143427145,0 64.382504572,40.0141372882,0 64.3830195561,40.0139647297,0 64.3833521501,40.0138086049,0 64.3836903093,40.0136997474,0 64.3837813035,40.0135867428,0 64.383749117,40.0134388343,0 64.3836152075,40.0131615241,0 64.3834757326,40.0128944652,0 64.383352351,40.0127219036,0 64.3832128761,40.0127301208,0 64.3830036638,40.0128040758,0 64.3827569006,40.0128780308,0 64.382568945,40.0129047176,0 64.3824135778,40.0129150083,0 64.3822580097,40.0129191169,0 64.3820917128,40.0129150083,0 64.381914687,40.0129437685,0 64.3817162035,40.0129930717,0 64.3814908979,40.0130505921,0 64.3812385693,40.0131101476,0 64.3810561791,40.0131430163,0 64.3808793543,40.0131902843,0 64.3806969641,40.0132272616,0 64.3805145739,40.0132519131,0 64.3803911923,40.0133012161,0 64.3803536413,40.0134080391,0 64.3805199383,40.0137285073,0 64.3806913987,40.0141208541,0 64.3808040264,40.0143879274,0 64.3808845178,40.0145974422,0 64.3809488908,40.0146796123,0
						</coordinates>
					</LinearRing>
				</outerBoundaryIs>
			</Polygon>
		</Placemark>
		<Placemark>
			<name>
				8721-3 галла 2026
			</name>
			<description>
				40.01328683605594, 64.38028904230188
			</description>
			<Style>
				<LineStyle>
					<color>
						996825ea
					</color>
					<width>
						50.0
					</width>
				</LineStyle>
				<PolyStyle>
					<color>
						996825ea
					</color>
				</PolyStyle>
			</Style>
			<Polygon>
				<outerBoundaryIs>
					<LinearRing>
						<coordinates>
							64.3802890423,40.0132868361,0 64.3805467604,40.013223153,0 64.3809222696,40.0131409812,0 64.3811851261,40.0130916781,0 64.3813514231,40.0130423749,0 64.3815338133,40.0129889631,0 64.3816408756,40.0129499314,0 64.3817857149,40.0129293884,0 64.3819951532,40.0128780308,0 64.3821397665,40.0128718679,0 64.3822846058,40.0128389991,0 64.3824240807,40.0128554335,0 64.3825796488,40.0128513249,0 64.3828156832,40.0128102388,0 64.3830356243,40.0127362837,0 64.3832072857,40.0126787631,0 64.3832987068,40.0126232967,0 64.3831753252,40.0124301911,0 64.3830680368,40.012249411,0 64.3830036638,40.0121302602,0 64.3827461718,40.0116413288,0 64.382633519,40.0114194596,0 64.3825584171,40.0113126334,0 64.3824994085,40.0112099158,0 64.3823760269,40.011234568,0 64.3821829079,40.011345503,0 64.3820166109,40.011440003,0 64.38174839,40.0115180682,0 64.3814479826,40.0116166767,0 64.3812334059,40.0116988503,0 64.3811046598,40.0117235023,0 64.3809329985,40.0117933498,0 64.3809327725,40.0118940122,0 64.3810025099,40.0119515336,0 64.3809917811,40.0120295981,0 64.3808793543,40.0120521957,0 64.3807398794,40.0120973909,0 64.3805253027,40.0121549121,0 64.3802514914,40.0122884431,0 64.380015683,40.0123849961,0 64.3798332928,40.0124384084,0 64.3802890423,40.0132868361,0
						</coordinates>
					</LinearRing>
				</outerBoundaryIs>
			</Polygon>
		</Placemark>
		<Placemark>
			<name>
				8723-3 галла 2026
			</name>
			<description>
				40.01466736350759, 64.37598133946132
			</description>
			<Style>
				<LineStyle>
					<color>
						996825ea
					</color>
					<width>
						50.0
					</width>
				</LineStyle>
				<PolyStyle>
					<color>
						996825ea
					</color>
				</PolyStyle>
			</Style>
			<Polygon>
				<outerBoundaryIs>
					<LinearRing>
						<coordinates>
							64.3759813395,40.0146673635,0 64.3764212217,40.0147002315,0 64.3767216291,40.0147330995,0 64.3772151556,40.014745425,0 64.37791253,40.0147947269,0 64.3784114208,40.0148440288,0 64.378953227,40.0148768967,0 64.3794360247,40.0149097646,0 64.3798061695,40.0149344155,0 64.3801387634,40.0149508494,0 64.3803694334,40.0148974391,0 64.3804981794,40.0148440288,0 64.3805196371,40.0147741844,0 64.3805196371,40.014679689,0 64.3804230776,40.0145112403,0 64.3803426113,40.014387985,0 64.3802514162,40.0142441867,0 64.3801387634,40.0139606979,0 64.3800314751,40.0136895336,0 64.3799563732,40.0135128653,0 64.3797954407,40.0134594539,0 64.3794843044,40.013525191,0 64.3790766087,40.0136155795,0 64.3787604092,40.0137243987,0 64.378411722,40.0137983527,0 64.3780469416,40.0138764151,0 64.3778052416,40.0139072868,0 64.3777194109,40.0138456586,0 64.3776443091,40.0136402308,0 64.3775745716,40.0135621681,0 64.3774994698,40.0135375167,0 64.3773707237,40.0135375167,0 64.3771507826,40.0135786024,0 64.3767699089,40.0136525565,0 64.3763461199,40.013722402,0 64.376142272,40.0137470534,0 64.3759598818,40.013796356,0 64.3757721272,40.0138127902,0 64.375718483,40.013878527,0 64.3757882204,40.0140346516,0 64.3758686867,40.0143304657,0 64.3759545174,40.0145851935,0 64.3759813395,40.0146673635,0
						</coordinates>
					</LinearRing>
				</outerBoundaryIs>
			</Polygon>
		</Placemark>
		<Placemark>
			<name>
				8726-3 галла 2026
			</name>
			<description>
				40.013788138892146, 64.37568093205232
			</description>
			<Style>
				<LineStyle>
					<color>
						996825ea
					</color>
					<width>
						50.0
					</width>
				</LineStyle>
				<PolyStyle>
					<color>
						996825ea
					</color>
				</PolyStyle>
			</Style>
			<Polygon>
				<outerBoundaryIs>
					<LinearRing>
						<coordinates>
							64.3756809321,40.0137881389,0 64.3758257713,40.0137881389,0 64.3760513781,40.0137449415,0 64.3762713192,40.0137038559,0 64.3764695015,40.0136813164,0 64.376667985,40.0136279051,0 64.3768828629,40.0136011419,0 64.3771454182,40.013553951,0 64.3773546305,40.0135210824,0 64.3775262919,40.0134882139,0 64.3775531139,40.0134348024,0 64.3774994698,40.0132951108,0 64.3774136391,40.0130855728,0 64.3773492661,40.012949989,0 64.3772530077,40.0126972518,0 64.3771135328,40.0127095777,0 64.3769150494,40.0127753155,0 64.3767806377,40.0128102963,0 64.3766787138,40.0128267308,0 64.3764963236,40.0128513824,0 64.3762656536,40.0128924685,0 64.3759706106,40.0129417718,0 64.3757399407,40.0129828578,0 64.3755253639,40.0130239438,0 64.3754717197,40.0130444868,0 64.3756809321,40.0137881389,0
						</coordinates>
					</LinearRing>
				</outerBoundaryIs>
			</Polygon>
		</Placemark>
		<Placemark>
			<name>
				8729-3 галла 2026
			</name>
			<description>
				40.013020027099685, 64.37422692422632
			</description>
			<Style>
				<LineStyle>
					<color>
						996825ea
					</color>
					<width>
						50.0
					</width>
				</LineStyle>
				<PolyStyle>
					<color>
						996825ea
					</color>
				</PolyStyle>
			</Style>
			<Polygon>
				<outerBoundaryIs>
					<LinearRing>
						<coordinates>
							64.3742269242,40.0130200271,0 64.3743449414,40.0130775475,0 64.3746882642,40.0130405701,0 64.3749135697,40.0130035927,0 64.3750637734,40.0129789411,0 64.3753212655,40.0129789411,0 64.3755251134,40.0129625067,0 64.3756967748,40.0129049862,0 64.3758684361,40.0128721174,0 64.3760883773,40.0128392485,0 64.3762814963,40.0127940538,0 64.3764799798,40.0127611849,0 64.3765550817,40.0127077729,0 64.3764960731,40.0125393193,0 64.3763619626,40.0122270629,0 64.3762761319,40.0120257389,0 64.3761849368,40.0117545669,0 64.3761205638,40.0115326981,0 64.3760132754,40.0112368719,0 64.3759344141,40.0110479287,0 64.3758738006,40.0108506524,0 64.3758201564,40.0106780855,0 64.3757343257,40.0105301707,0 64.3757021392,40.0103822556,0 64.3756270373,40.0102302314,0 64.3755519355,40.0100124664,0 64.3754875625,40.0098563326,0 64.3754285539,40.0098070271,0 64.3753588164,40.0097947007,0 64.3751817906,40.0098234623,0 64.3748438323,40.0098809853,0 64.3746292556,40.0099220732,0 64.3744522298,40.0099302908,0 64.3741410935,40.0099878137,0 64.373915788,40.0100042489,0 64.3736422027,40.0100289015,0 64.3734115327,40.0100617718,0 64.3732988799,40.0100987507,0 64.3735510076,40.0109040658,0 64.3737119401,40.0113888938,0 64.3737816775,40.0115573502,0 64.3738621438,40.0119106964,0 64.3739533389,40.0122393888,0 64.3740713561,40.0125228848,0 64.3741893733,40.012896769,0 64.3742269242,40.0130200271,0
						</coordinates>
					</LinearRing>
				</outerBoundaryIs>
			</Polygon>
		</Placemark>
		<Placemark>
			<name>
				8738-3 галла 2026
			</name>
			<description>
				40.0054478814078, 64.37294964154934
			</description>
			<Style>
				<LineStyle>
					<color>
						996825ea
					</color>
					<width>
						50.0
					</width>
				</LineStyle>
				<PolyStyle>
					<color>
						996825ea
					</color>
				</PolyStyle>
			</Style>
			<Polygon>
				<outerBoundaryIs>
					<LinearRing>
						<coordinates>
							64.3729496415,40.0054478814,0 64.3735289987,40.0053246097,0 64.3739581521,40.005283519,0 64.3744155567,40.0051951998,0 64.374816459,40.005160247,0 64.3749305408,40.0051006911,0 64.3748915609,40.0049712294,0 64.3749130185,40.0048726113,0 64.3748593744,40.0046507201,0 64.3748057302,40.0045274469,0 64.3748057302,40.0043384276,0 64.3747413572,40.0041987173,0 64.3746984418,40.0039932605,0 64.3745911535,40.0039357325,0 64.3744302209,40.0039192959,0 64.3741405424,40.0039686057,0 64.3739259656,40.0039850422,0 64.3736255582,40.0040261337,0 64.3733895238,40.0040179154,0 64.3731642183,40.0040014788,0 64.3729818281,40.0039932605,0 64.3727418583,40.0040199957,0 64.3719747465,40.0039912317,0 64.3709769647,40.0040282139,0 64.3696948688,40.0040693053,0 64.3689545792,40.0040939601,0 64.3688741129,40.0044103629,0 64.3689062994,40.0047473097,0 64.3689867657,40.0050596003,0 64.3691262405,40.0054663978,0 64.3691798847,40.0057006135,0 64.3693086307,40.0059635915,0 64.3695285719,40.0059594825,0 64.3698718946,40.0058937381,0 64.3701240223,40.0058608659,0 64.3709608715,40.0057375948,0 64.3729496415,40.0054478814,0
						</coordinates>
					</LinearRing>
				</outerBoundaryIs>
			</Polygon>
		</Placemark>
		<Placemark>
			<name>
				8700-3 галла 2026
			</name>
			<description>
				40.0088948500951, 64.39699087559767
			</description>
			<Style>
				<LineStyle>
					<color>
						996825ea
					</color>
					<width>
						50.0
					</width>
				</LineStyle>
				<PolyStyle>
					<color>
						996825ea
					</color>
				</PolyStyle>
			</Style>
			<Polygon>
				<outerBoundaryIs>
					<LinearRing>
						<coordinates>
							64.3969932879,40.0089205945,0 64.3974009836,40.0088918326,0 64.3976399702,40.0088825236,0 64.3978355015,40.0089740095,0 64.3981281322,40.0090140066,0 64.3983641666,40.0090674215,0 64.3985841078,40.0091208363,0 64.3988255066,40.0091619246,0 64.3990078968,40.0091578158,0 64.3988684219,40.0088249997,0 64.398766498,40.0085620327,0 64.3986431164,40.0083072824,0 64.3985626501,40.0081141647,0 64.3984178108,40.0078224325,0 64.3983534378,40.0076416402,0 64.3982354206,40.0074320848,0 64.3981442255,40.0072184198,0 64.397932061,40.00682916,0 64.3974707211,40.0069359932,0 64.3973205174,40.0065867302,0 64.397213229,40.0062991006,0 64.3970791185,40.006068996,0 64.3969718302,40.0060032517,0 64.3968967283,40.0060279058,0 64.3967870277,40.0061254309,0 64.3967119259,40.0062445922,0 64.3966958326,40.0063103362,0 64.3964783037,40.0064305886,0 64.3963441933,40.0064840055,0 64.3961593908,40.0065733119,0 64.395982365,40.0066226197,0 64.3958613957,40.0066935638,0 64.3957058275,40.0065456404,0 64.3955609882,40.0065456404,0 64.395314225,40.0066237111,0 64.3959257687,40.007815306,0 64.396134981,40.0082220871,0 64.3962959135,40.0084850555,0 64.3965212191,40.0089247033,0 64.3967197025,40.0089575741,0 64.3969932879,40.0089205945,0
						</coordinates>
					</LinearRing>
				</outerBoundaryIs>
			</Polygon>
		</Placemark>
		<Placemark>
			<name>
				8688-3 галла 2026
			</name>
			<description>
				40.00565704004749, 64.39951210196331
			</description>
			<Style>
				<LineStyle>
					<color>
						996825ea
					</color>
					<width>
						50.0
					</width>
				</LineStyle>
				<PolyStyle>
					<color>
						996825ea
					</color>
				</PolyStyle>
			</Style>
			<Polygon>
				<outerBoundaryIs>
					<LinearRing>
						<coordinates>
							64.3996276129,40.0057372047,0 64.4001211393,40.0061357802,0 64.4005449284,40.0064973724,0 64.401682185,40.0074629786,0 64.4021835821,40.0078964313,0 64.4026771086,40.0082949941,0 64.4030447472,40.0086381234,0 64.4034953583,40.0090284643,0 64.4037768143,40.0092400308,0 64.4040718573,40.0095029952,0 64.4043078917,40.0096837826,0 64.4044849175,40.0098399168,0 64.4045922058,40.0099056574,0 64.4046726721,40.0098645695,0 64.4045707482,40.0096920002,0 64.4044366377,40.0094783423,0 64.4043161142,40.0092462324,0 64.4042113322,40.0090510245,0 64.404093315,40.0088291469,0 64.4040210712,40.0086463412,0 64.4040074843,40.0085086557,0 64.4039459694,40.0083340669,0 64.4038923252,40.0082272359,0 64.4038465517,40.0080895497,0 64.4038250941,40.0080279162,0 64.4036534327,40.007723857,0 64.4035972822,40.0075903554,0 64.4035515087,40.0074567768,0 64.4033827055,40.0071548079,0 64.4032164085,40.006817873,0 64.4030740755,40.0065445874,0 64.4030179251,40.0063617755,0 64.4029535521,40.0062385054,0 64.4029238718,40.0061090332,0 64.4029024142,40.0060432889,0 64.4028219479,40.0058994731,0 64.4027550686,40.0057618589,0 64.4027175177,40.0056550239,0 64.4026585091,40.0055481887,0 64.4025698202,40.0053077706,0 64.4025108116,40.0050612263,0 64.4024786251,40.0049461721,0 64.4024303454,40.0047818085,0 64.4023527372,40.0046976104,0 64.4022508133,40.0046688467,0 64.4020308722,40.0047345922,0 64.401746558,40.0048249923,0 64.4014461506,40.004948265,0 64.4011940229,40.0050427739,0 64.4009204376,40.0051783734,0 64.4006575811,40.0052893182,0 64.4001586903,40.0054701168,0 64.3998851049,40.005568734,0 64.3997349012,40.005663242,0 64.3996276129,40.0057372047,0
						</coordinates>
					</LinearRing>
				</outerBoundaryIs>
			</Polygon>
		</Placemark>
		<Placemark>
			<name>
				8762-3 галла 2026
			</name>
			<description>
				40.00223058864092, 64.3899412285807
			</description>
			<Style>
				<LineStyle>
					<color>
						996825ea
					</color>
					<width>
						50.0
					</width>
				</LineStyle>
				<PolyStyle>
					<color>
						996825ea
					</color>
				</PolyStyle>
			</Style>
			<Polygon>
				<outerBoundaryIs>
					<LinearRing>
						<coordinates>
							64.3899412286,40.0022305886,0 64.3900699746,40.00244016,0 64.390241636,40.0026456215,0 64.390306009,40.0026908229,0 64.3904776704,40.0026867137,0 64.3905742299,40.0026908229,0 64.3906707894,40.002805881,0 64.3908907306,40.0030483242,0 64.390960468,40.0031510541,0 64.3910880188,40.0033297122,0 64.3912167649,40.0033995682,0 64.3913091552,40.0033729501,0 64.391614927,40.0036852471,0 64.3920923602,40.0034880071,0 64.392435683,40.0033441859,0 64.3926556241,40.0032455654,0 64.3930996756,40.0030790516,0 64.3934334647,40.0029291573,0 64.3937016856,40.0028140994,0 64.3939859998,40.0026949321,0 64.3942703139,40.0025839831,0 64.3945599925,40.0024812523,0 64.394887222,40.0023661937,0 64.3951339852,40.0022552441,0 64.3952883582,40.0021832407,0 64.3953044514,40.0021051649,0 64.3952829937,40.002027089,0 64.3951435189,40.0018586091,0 64.3950308661,40.0017271123,0 64.3948538403,40.0015463038,0 64.3947465519,40.0014271343,0 64.3946178059,40.0012668715,0 64.3944890599,40.0011353736,0 64.3943388562,40.0009627822,0 64.3941093814,40.0006937125,0 64.3939472537,40.000510755,0 64.393861423,40.000395693,0 64.3937273125,40.0003258339,0 64.3935449223,40.0004285679,0 64.3931157689,40.0006340354,0 64.3929923872,40.0005148643,0 64.3928904633,40.0003669275,0 64.3927241663,40.0001902248,0 64.3924827675,39.9999888653,0 64.3919034104,39.9992450629,0 64.3913562397,39.9994875187,0 64.3908948998,39.9990437006,0 64.3903638224,39.9992491723,0 64.3901331524,39.9993313608,0 64.3897951941,39.9995327222,0 64.38928021,39.9999313339,0 64.388920794,40.0002436466,0 64.3887115817,40.0003874743,0 64.3883897166,40.0005847233,0 64.3882180552,40.000736769,0 64.3885345559,40.0010162034,0 64.3887276749,40.0012381064,0 64.389113913,40.001340839,0 64.389344583,40.0016120524,0 64.3899412286,40.0022305886,0
						</coordinates>
					</LinearRing>
				</outerBoundaryIs>
			</Polygon>
		</Placemark>
		<Placemark>
			<name>
				8791-3 галла 2026
			</name>
			<description>
				39.9949651469533, 64.38919544920543
			</description>
			<Style>
				<LineStyle>
					<color>
						996825ea
					</color>
					<width>
						50.0
					</width>
				</LineStyle>
				<PolyStyle>
					<color>
						996825ea
					</color>
				</PolyStyle>
			</Style>
			<Polygon>
				<outerBoundaryIs>
					<LinearRing>
						<coordinates>
							64.3892144993,39.9949194449,0 64.3897509411,39.9946646437,0 64.3903356627,39.9943523055,0 64.3907701805,39.9941262704,0 64.3906223844,39.9939294983,0 64.3902897905,39.9934445463,0 64.3901610445,39.9932637159,0 64.3900430273,39.9929842498,0 64.3898391794,39.9925486091,0 64.3896460603,39.9921705036,0 64.389603145,39.99198145,0 64.3894958566,39.9919403514,0 64.3891954492,39.9919567908,0 64.3889916013,39.9919896698,0 64.3887048796,39.9920138334,0 64.388294227,39.9920636473,0 64.3881308869,39.9920754813,0 64.3878733948,39.9920508222,0 64.3874496058,39.9919809545,0 64.3872028425,39.9919439657,0 64.386875613,39.9918124498,0 64.3864947394,39.9917590214,0 64.3863177136,39.9917877906,0 64.3864142731,39.9919275262,0 64.3866878584,39.9922480952,0 64.3870204523,39.9925892118,0 64.3871974781,39.9928111422,0 64.3875890806,39.9931892442,0 64.3878733948,39.9934810388,0 64.3881952599,39.9938385883,0 64.3885654047,39.9942577819,0 64.3888092111,39.9945952742,0 64.3890345167,39.9948829532,0 64.3892144993,39.9949194449,0
						</coordinates>
					</LinearRing>
				</outerBoundaryIs>
			</Polygon>
		</Placemark>
		<Placemark>
			<name>
				8786-3 галла 2026
			</name>
			<description>
				39.99192396947129, 64.3896620784123
			</description>
			<Style>
				<LineStyle>
					<color>
						996825ea
					</color>
					<width>
						50.0
					</width>
				</LineStyle>
				<PolyStyle>
					<color>
						996825ea
					</color>
				</PolyStyle>
			</Style>
			<Polygon>
				<outerBoundaryIs>
					<LinearRing>
						<coordinates>
							64.3896620784,39.9919239695,0 64.3897586379,39.9921787809,0 64.3899143799,39.9924905375,0 64.3900429521,39.9927952561,0 64.3902255162,39.9931316687,0 64.3904238258,39.9934774821,0 64.3906115804,39.9937816048,0 64.390799335,39.994056958,0 64.3908958946,39.994196689,0 64.3911372934,39.9942172377,0 64.3913465057,39.9942501155,0 64.3914859805,39.994287103,0 64.391620091,39.9943980656,0 64.3917649303,39.994435053,0 64.392070876,39.9945125461,0 64.392070876,39.9942741824,0 64.3926770552,39.9941919878,0 64.3933368786,39.9941180126,0 64.3937338456,39.9940563665,0 64.3939591511,39.994031708,0 64.3939750705,39.9939665436,0 64.3939643417,39.9938185926,0 64.3939645156,39.9937193669,0 64.3939484223,39.9936166229,0 64.3939430579,39.9935097688,0 64.3939430579,39.9933577071,0 64.393932329,39.9931974254,0 64.3939162358,39.9930494727,0 64.3939108714,39.9929467276,0 64.3939162358,39.9927946646,0 64.3938840493,39.9927001387,0 64.3938786849,39.9926179422,0 64.3938625916,39.9925110867,0 64.3937873159,39.992441811,0 64.3936585698,39.9924500306,0 64.3935405526,39.992441811,0 64.3934708152,39.9924212618,0 64.3933851584,39.9924124506,0 64.3932564124,39.9924083407,0 64.3930148397,39.9924171519,0 64.3928163562,39.9924089322,0 64.3926822458,39.9924212618,0 64.3924354825,39.9924459208,0 64.3922155414,39.9924377011,0 64.39204388,39.99246647,0 64.3917971168,39.9924787995,0 64.3916093622,39.9924623601,0 64.391389421,39.9924705798,0 64.3913037642,39.9924453293,0 64.3912660394,39.9923555043,0 64.3912769421,39.9922562765,0 64.3912821327,39.9921623414,0 64.3912553106,39.9919938372,0 64.3912445817,39.9918869806,0 64.3912338529,39.9918047832,0 64.3911321028,39.9918000818,0 64.3909870897,39.9918130029,0 64.3908261571,39.9918335523,0 64.3906491313,39.9918458819,0 64.3904130969,39.9918499918,0 64.3902628932,39.9918458819,0 64.3900000367,39.9918705412,0 64.3898176465,39.991874651,0 64.3896620784,39.9919239695,0
						</coordinates>
					</LinearRing>
				</outerBoundaryIs>
			</Polygon>
		</Placemark>
		<Placemark>
			<name>
				8831-3 галла 2026
			</name>
			<description>
				40.00090010041039, 64.36046254892167
			</description>
			<Style>
				<LineStyle>
					<color>
						996825ea
					</color>
					<width>
						50.0
					</width>
				</LineStyle>
				<PolyStyle>
					<color>
						996825ea
					</color>
				</PolyStyle>
			</Style>
			<Polygon>
				<outerBoundaryIs>
					<LinearRing>
						<coordinates>
							64.3605562946,40.0009382403,0 64.3610444566,40.0012546577,0 64.3614414235,40.0015176529,0 64.3618920347,40.0017929748,0 64.3622192642,40.0019737827,0 64.3623372814,40.0020929512,0 64.3628522655,40.0024011448,0 64.3630400201,40.002421691,0 64.3631955882,40.0023148507,0 64.3636998435,40.0018669417,0 64.3642523786,40.0013984833,0 64.3645796081,40.0010820666,0 64.3646654388,40.0009752242,0 64.3646146085,40.0008343511,0 64.3644322183,40.0004645102,0 64.3642792007,40.000071167,0 64.3641236326,39.9997465253,0 64.3640538951,39.9996355715,0 64.3639358779,39.9996355715,0 64.3637105724,39.9996889937,0 64.3631526729,39.9998615884,0 64.3626323243,40.0000095263,0 64.3622407218,40.0001410264,0 64.361964586,40.000234386,0 64.3616774579,40.0003054012,0 64.3613073131,40.0004245726,0 64.3610283634,40.0005108691,0 64.3605723878,40.0006382589,0 64.3604865571,40.000724555,0 64.3605026504,40.0008313978,0 64.3605562946,40.0009382403,0
						</coordinates>
					</LinearRing>
				</outerBoundaryIs>
			</Polygon>
		</Placemark>
		<Placemark>
			<name>
				8583-3 галла 2026
			</name>
			<description>
				40.00897667981028, 64.41094593171164
			</description>
			<Style>
				<LineStyle>
					<color>
						996825ea
					</color>
					<width>
						50.0
					</width>
				</LineStyle>
				<PolyStyle>
					<color>
						996825ea
					</color>
				</PolyStyle>
			</Style>
			<Polygon>
				<outerBoundaryIs>
					<LinearRing>
						<coordinates>
							64.4109459317,40.0089766798,0 64.4111354421,40.0093260457,0 64.411736257,40.0092027809,0 64.4120527576,40.0091082778,0 64.4119168663,40.0087507123,0 64.4117398405,40.0083603699,0 64.4115574503,40.0079453718,0 64.4113965178,40.0075673515,0 64.4113321448,40.0073906674,0 64.411117568,40.0074071032,0 64.4110478306,40.0073167065,0 64.410988822,40.0071852202,0 64.4109029913,40.0071811113,0 64.4105543041,40.0072673992,0 64.4101895237,40.0073454691,0 64.4099642182,40.0074029942,0 64.4098676586,40.0074564104,0 64.409974947,40.0076618568,0 64.4101841593,40.0080891833,0 64.4103200506,40.0083481392,0 64.4103826428,40.0085000716,0 64.4104863476,40.0087220462,0 64.4105721782,40.0088781827,0 64.4106615925,40.0089602636,0 64.4107527876,40.0089561548,0 64.4108493471,40.008923284,0 64.4109190846,40.0089109575,0 64.4109459317,40.0089766798,0
						</coordinates>
					</LinearRing>
				</outerBoundaryIs>
			</Polygon>
		</Placemark>
		<Placemark>
			<name>
				8675-3 галла 2026
			</name>
			<description>
				40.00692645183411, 64.41192478765792
			</description>
			<Style>
				<LineStyle>
					<color>
						996825ea
					</color>
					<width>
						50.0
					</width>
				</LineStyle>
				<PolyStyle>
					<color>
						996825ea
					</color>
				</PolyStyle>
			</Style>
			<Polygon>
				<outerBoundaryIs>
					<LinearRing>
						<coordinates>
							64.4119247877,40.0069264518,0 64.4125524246,40.0068401635,0 64.4133302652,40.0067127853,0 64.4137046972,40.0066244997,0 64.4140544616,40.0064950091,0 64.4145050727,40.0062854502,0 64.4144728862,40.00620327,0 64.4142797672,40.0060060373,0 64.4141510211,40.0059074207,0 64.4138398849,40.0055869159,0 64.4136253082,40.0054472081,0 64.4134107315,40.0053280454,0 64.4132015191,40.0052253188,0 64.413083502,40.0051308102,0 64.4129708492,40.0050075379,0 64.4127830945,40.004867829,0 64.412429043,40.0046664833,0 64.4121071779,40.004502119,0 64.4116887533,40.0043336452,0 64.4114044391,40.0042021532,0 64.4111576759,40.0040953157,0 64.4110879384,40.0040912066,0 64.4108304464,40.0042185897,0 64.410443131,40.0043891759,0 64.4087694326,40.0050301954,0 64.4088069835,40.0052109946,0 64.4088928142,40.0055684827,0 64.4091556707,40.0060410215,0 64.4095150867,40.0067025704,0 64.4098476806,40.0073271324,0 64.4107703605,40.0071093581,0 64.4117305913,40.006912128,0 64.4119247877,40.0069264518,0
						</coordinates>
					</LinearRing>
				</outerBoundaryIs>
			</Polygon>
		</Placemark>
		<Placemark>
			<name>
				8587-3 галла 2026
			</name>
			<description>
				40.0113784285926, 64.41602581004624
			</description>
			<Style>
				<LineStyle>
					<color>
						996825ea
					</color>
					<width>
						50.0
					</width>
				</LineStyle>
				<PolyStyle>
					<color>
						996825ea
					</color>
				</PolyStyle>
			</Style>
			<Polygon>
				<outerBoundaryIs>
					<LinearRing>
						<coordinates>
							64.41602581,40.0113784286,0 64.4162110584,40.0114000682,0 64.4166856335,40.0113578851,0 64.4172893064,40.0113014594,0 64.4177935617,40.0112562636,0 64.418169071,40.0112398288,0 64.4183997409,40.0112439375,0 64.4185417221,40.0111812108,0 64.4184880779,40.0109346878,0 64.418386154,40.0107908823,0 64.4182359503,40.0105114879,0 64.4180642889,40.0101786783,0 64.4179838226,40.0100348712,0 64.4179355429,40.0099814571,0 64.4178765343,40.0098828462,0 64.4179087208,40.0098458671,0 64.4180052803,40.0098253232,0 64.4179945515,40.0097308209,0 64.4179194496,40.0096363185,0 64.417796068,40.0095048367,0 64.4176780508,40.0093281576,0 64.4176083134,40.0092131105,0 64.417565398,40.0091391516,0 64.4174956606,40.0090364307,0 64.4172549148,40.0086810513,0 64.4169062276,40.0083030351,0 64.4168257614,40.008200313,0 64.417117645,40.0078788245,0 64.4168494241,40.0076446163,0 64.4166509407,40.0074761503,0 64.4163195999,40.007348754,0 64.4158945577,40.0070858005,0 64.4153259294,40.0068351537,0 64.4151328103,40.0066954486,0 64.4149182336,40.006605051,0 64.4145856397,40.0063420754,0 64.4136415021,40.0067447563,0 64.4143120544,40.0076158538,0 64.4147251146,40.0082773874,0 64.4150469797,40.0088854996,0 64.4154196308,40.0097308209,0 64.4155351417,40.0100400761,0 64.4156395719,40.0103553552,0 64.4157844112,40.010716925,0 64.4159185217,40.0111277976,0 64.41602581,40.0113784286,0
						</coordinates>
					</LinearRing>
				</outerBoundaryIs>
			</Polygon>
		</Placemark>
		<Placemark>
			<name>
				8580-3 галла 2026
			</name>
			<description>
				40.014542167679146, 64.4135741206821
			</description>
			<Style>
				<LineStyle>
					<color>
						996825ea
					</color>
					<width>
						50.0
					</width>
				</LineStyle>
				<PolyStyle>
					<color>
						996825ea
					</color>
				</PolyStyle>
			</Style>
			<Polygon>
				<outerBoundaryIs>
					<LinearRing>
						<coordinates>
							64.4137093656,40.015520194,0 64.4142189853,40.0157502667,0 64.4149700038,40.015286012,0 64.4156298273,40.0149244664,0 64.4153723352,40.0145136167,0 64.4150290124,40.0141808267,0 64.4148776743,40.0139464315,0 64.4147918436,40.0138108495,0 64.414695284,40.0137081356,0 64.4144807073,40.0135807702,0 64.4142672651,40.0134700474,0 64.4140312307,40.0133057044,0 64.4138273828,40.0131577953,0 64.4136396282,40.013038646,0 64.4133488151,40.01282479,0 64.413226568,40.0126894143,0 64.4131782882,40.0125702643,0 64.4131449672,40.0124632313,0 64.4130441778,40.0123360722,0 64.4127276771,40.0122703339,0 64.4125291936,40.0122292475,0 64.412277066,40.012188161,0 64.4121214979,40.0121635091,0 64.4119498365,40.0121594004,0 64.4117835395,40.0122538993,0 64.4114884965,40.0123730499,0 64.4108769529,40.0126770885,0 64.4105014436,40.0128496503,0 64.4102064006,40.0130632976,0 64.4106033676,40.013445396,0 64.4110217922,40.0136754757,0 64.4113168352,40.0139548572,0 64.4117459886,40.0142178034,0 64.4121858709,40.0145136167,0 64.4128081434,40.0149162494,0 64.413355314,40.0152736867,0 64.4137093656,40.015520194,0
						</coordinates>
					</LinearRing>
				</outerBoundaryIs>
			</Polygon>
		</Placemark>
		<Placemark>
			<name>
				8600-3 галла 2026
			</name>
			<description>
				40.00913371756762, 64.42481713914347
			</description>
			<Style>
				<LineStyle>
					<color>
						996825ea
					</color>
					<width>
						50.0
					</width>
				</LineStyle>
				<PolyStyle>
					<color>
						996825ea
					</color>
				</PolyStyle>
			</Style>
			<Polygon>
				<outerBoundaryIs>
					<LinearRing>
						<coordinates>
							64.4248455662,40.00909885,0 64.4250762362,40.0092097885,0 64.4253337283,40.0092056797,0 64.4255590338,40.0092056797,0 64.4258953872,40.0091337176,0 64.4264050069,40.0090063436,0 64.4268464941,40.0088810814,0 64.4273775715,40.0087126185,0 64.4278925557,40.0085646994,0 64.4282450023,40.0084598656,0 64.4282128158,40.0082872927,0 64.4278587642,40.0076956109,0 64.4275867838,40.007266285,0 64.4273598733,40.0069354566,0 64.4271774831,40.0066519374,0 64.4270970168,40.0065163408,0 64.427021915,40.006343763,0 64.4268770757,40.0060068241,0 64.4266855616,40.0056309052,0 64.4265943665,40.005445998,0 64.4264870781,40.0052734175,0 64.4263459983,40.005185015,0 64.4261636081,40.0052137785,0 64.4257076325,40.0053658138,0 64.425382008,40.0054994157,0 64.4245934386,40.0057911578,0 64.42407309,40.0060048272,0 64.4236546654,40.0061404248,0 64.4235135856,40.0059986061,0 64.4233472886,40.0057068649,0 64.4232507291,40.0055507213,0 64.4230790677,40.0053452685,0 64.4229771438,40.0052918507,0 64.4228162112,40.0053165051,0 64.4224514308,40.0054233406,0 64.4225656886,40.0056555595,0 64.4228929181,40.0061280977,0 64.4231648984,40.0065574307,0 64.4235741992,40.0072293045,0 64.4240623612,40.00797302,0 64.4242018361,40.0080921781,0 64.4246186557,40.008751595,0 64.4248455662,40.00909885,0
						</coordinates>
					</LinearRing>
				</outerBoundaryIs>
			</Polygon>
		</Placemark>
		<Placemark>
			<name>
				8469-3 галла 2026
			</name>
			<description>
				40.010296680077886, 64.43073118460406
			</description>
			<Style>
				<LineStyle>
					<color>
						996825ea
					</color>
					<width>
						50.0
					</width>
				</LineStyle>
				<PolyStyle>
					<color>
						996825ea
					</color>
				</PolyStyle>
			</Style>
			<Polygon>
				<outerBoundaryIs>
					<LinearRing>
						<coordinates>
							64.431121534,40.010284373,0 64.4315775095,40.0102597204,0 64.4321420265,40.0102268311,0 64.4326194598,40.0101939609,0 64.4332310034,40.0101446557,0 64.4336535393,40.010124131,0 64.4338264538,40.0100994592,0 64.433944471,40.0101405469,0 64.4341524302,40.010284373,0 64.4344260155,40.0104857021,0 64.434688872,40.0107199005,0 64.434881991,40.0108719236,0 64.4350536524,40.0110075115,0 64.4352199494,40.011159534,0 64.4353540598,40.011258143,0 64.4353928639,40.0113444066,0 64.4353070332,40.0113978196,0 64.4351502119,40.0114471432,0 64.4349315239,40.0114923196,0 64.4347223116,40.0115169717,0 64.4344862772,40.0114882109,0 64.4342543541,40.0114635779,0 64.434008844,40.0114224718,0 64.4337298943,40.0113567327,0 64.4334509445,40.0113074283,0 64.4332739187,40.0112663412,0 64.4330271555,40.0112581238,0 64.4328125788,40.0112540151,0 64.4325819088,40.0112375803,0 64.4322600437,40.011241689,0 64.4320240093,40.0112581238,0 64.4317867218,40.0112827952,0 64.4316687046,40.0113115561,0 64.4315077721,40.0113485345,0 64.4313468396,40.0113731866,0 64.4311871601,40.0114142544,0 64.4310476853,40.0114389066,0 64.4309659659,40.0113978388,0 64.4309230505,40.0112745778,0 64.4308747708,40.0110979033,0 64.4308103977,40.0108308363,0 64.4307513892,40.0105391158,0 64.4307084738,40.010403527,0 64.4307084738,40.0103049168,0 64.431121534,40.010284373,0
						</coordinates>
					</LinearRing>
				</outerBoundaryIs>
			</Polygon>
		</Placemark>
		<Placemark>
			<name>
				8463-3 галла 2026
			</name>
			<description>
				40.013924957069996, 64.45053617750771
			</description>
			<Style>
				<LineStyle>
					<color>
						996825ea
					</color>
					<width>
						50.0
					</width>
				</LineStyle>
				<PolyStyle>
					<color>
						996825ea
					</color>
				</PolyStyle>
			</Style>
			<Polygon>
				<outerBoundaryIs>
					<LinearRing>
						<coordinates>
							64.4505361775,40.0139249571,0 64.4508580426,40.014200229,0 64.4511101702,40.0143933295,0 64.451287196,40.0144713913,0 64.4517163495,40.0145617785,0 64.4522045115,40.0146316231,0 64.4527087668,40.0146562741,0 64.4531057337,40.0146932506,0 64.4535295228,40.0147055761,0 64.4544482673,40.0147343548,0 64.4542444194,40.0142125738,0 64.4540352071,40.0138962165,0 64.4539225544,40.013735983,0 64.4537938083,40.0134853606,0 64.4534129347,40.0129430271,0 64.4532090868,40.0127006191,0 64.4525156478,40.0130827003,0 64.4523278931,40.0131977408,0 64.4521508673,40.0133415413,0 64.4519684771,40.0134647985,0 64.4517753581,40.0135510785,0 64.4515071372,40.0136455755,0 64.4512818316,40.0136455755,0 64.4510672549,40.0136620097,0 64.4508526782,40.0136948782,0 64.4506863812,40.0137647236,0 64.4505308131,40.0138797631,0 64.4505361775,40.0139249571,0
						</coordinates>
					</LinearRing>
				</outerBoundaryIs>
			</Polygon>
		</Placemark>
		<Placemark>
			<name>
				8466-3 галла 2026
			</name>
			<description>
				40.01014508743708, 64.44626597548638
			</description>
			<Style>
				<LineStyle>
					<color>
						996825ea
					</color>
					<width>
						50.0
					</width>
				</LineStyle>
				<PolyStyle>
					<color>
						996825ea
					</color>
				</PolyStyle>
			</Style>
			<Polygon>
				<outerBoundaryIs>
					<LinearRing>
						<coordinates>
							64.4462659755,40.0101450874,0 64.4463805852,40.010180123,0 64.4466756282,40.0099952281,0 64.4469116626,40.0098514206,0 64.4471906123,40.009662416,0 64.4474051891,40.0094775197,0 64.4476090369,40.0092802964,0 64.4477806983,40.0091323786,0 64.4479148088,40.0090008958,0 64.4480918346,40.0088570862,0 64.4481883941,40.0087749092,0 64.4480684199,40.0086700223,0 64.447966496,40.0086453692,0 64.4477465549,40.0085673008,0 64.4475373426,40.0084933411,0 64.4473817744,40.0084769056,0 64.447183291,40.0084358169,0 64.447016994,40.0083700749,0 64.4468936124,40.0083207683,0 64.4467648664,40.0082632439,0 64.4466736713,40.0082468084,0 64.4465502896,40.0082796795,0 64.4463732638,40.0083413127,0 64.4461533227,40.0084440346,0 64.446003119,40.0085138855,0 64.4456705251,40.0086535869,0 64.4455417791,40.0087152198,0 64.4453218379,40.0088097235,0 64.4452004133,40.0089063924,0 64.4450823961,40.0090953991,0 64.4452521005,40.0092370428,0 64.4455203214,40.0094712455,0 64.445772449,40.0096972298,0 64.4460299411,40.0099232134,0 64.446169416,40.0100588032,0 64.4462659755,40.0101450874,0
						</coordinates>
					</LinearRing>
				</outerBoundaryIs>
			</Polygon>
		</Placemark>
		<Placemark>
			<name>
				8626-3 галла 2026
			</name>
			<description>
				39.9935891735375, 64.42442699126559
			</description>
			<Style>
				<LineStyle>
					<color>
						996825ea
					</color>
					<width>
						50.0
					</width>
				</LineStyle>
				<PolyStyle>
					<color>
						996825ea
					</color>
				</PolyStyle>
			</Style>
			<Polygon>
				<outerBoundaryIs>
					<LinearRing>
						<coordinates>
							64.4244269913,39.9935891735,0 64.4245342796,39.9938357592,0 64.4246952122,39.9941727582,0 64.4247756784,39.9943124889,0 64.4249848907,39.9948056542,0 64.4250707214,39.9949125061,0 64.4251780098,39.995171416,0 64.4253067558,39.9954426539,0 64.4254837816,39.9958084124,0 64.4256178921,39.9960590997,0 64.425719816,39.996309786,0 64.4258378332,39.9965234851,0 64.4259075706,39.9966015673,0 64.426181156,39.9965317043,0 64.4266936338,39.9964125644,0 64.4271038359,39.996309786,0 64.4274578875,39.9962070458,0 64.4277529304,39.9961166343,0 64.4280157869,39.9960467708,0 64.4281284397,39.9960097842,0 64.4284073894,39.9959317014,0 64.4285844152,39.9958906051,0 64.4288580006,39.9958001932,0 64.4289599245,39.9957590968,0 64.4290618484,39.9957632064,0 64.4292013233,39.9957385486,0 64.4292120521,39.9957015618,0 64.4291827238,39.9955742012,0 64.4290082043,39.9952536095,0 64.4287399834,39.9947645572,0 64.4286541527,39.9945549623,0 64.428503949,39.9943042695,0 64.4284127539,39.9940905634,0 64.4283215588,39.9938768567,0 64.4281820839,39.9936056126,0 64.4280801599,39.9933877946,0 64.4279996937,39.9931987444,0 64.42784949,39.9928822897,0 64.4278226679,39.9928247523,0 64.4277529304,39.992787764,0 64.4274578875,39.9928206425,0 64.4270716494,39.9929069486,0 64.4266185319,39.9929974027,0 64.4262752092,39.9930672693,0 64.4259236639,39.9931329877,0 64.4255992925,39.9932111122,0 64.4252881563,39.9932850884,0 64.4250360286,39.9933426254,0 64.424783901,39.9934124916,0 64.4245074575,39.9934823195,0 64.4244377201,39.9935234172,0 64.4244269913,39.9935891735,0
						</coordinates>
					</LinearRing>
				</outerBoundaryIs>
			</Polygon>
		</Placemark>
		<Placemark>
			<name>
				8828-3 галла 2026
			</name>
			<description>
				40.00083752335814, 64.36468940276504
			</description>
			<Style>
				<LineStyle>
					<color>
						996825ea
					</color>
					<width>
						50.0
					</width>
				</LineStyle>
				<PolyStyle>
					<color>
						996825ea
					</color>
				</PolyStyle>
			</Style>
			<Polygon>
				<outerBoundaryIs>
					<LinearRing>
						<coordinates>
							64.3663015863,39.9987109492,0 64.3663416435,39.9986472142,0 64.3662611772,39.9984294122,0 64.366116338,39.9980965438,0 64.3659875919,39.9977718927,0 64.3658373882,39.9973897066,0 64.3657461931,39.9971308051,0 64.365654998,39.9969376557,0 64.3655316164,39.99660478,0 64.3654404213,39.9965184786,0 64.3652580311,39.9965390266,0 64.3649522592,39.9965801225,0 64.3645635148,39.9966644074,0 64.3642094632,39.9967424894,0 64.3640431663,39.9967712565,0 64.363833954,39.9968164618,0 64.3633912136,39.996925327,0 64.363115122,39.9970055019,0 64.3631283571,39.997122586,0 64.3631766369,39.9973075157,0 64.3634530803,39.9979054903,0 64.3636301061,39.9983739727,0 64.3637534877,39.9986862925,0 64.3638822337,39.9989616258,0 64.3639466068,39.9991054563,0 64.3640056154,39.9992205204,0 64.3641021749,39.9993068184,0 64.3642148277,39.9992862712,0 64.3644025823,39.9992287392,0 64.3645688793,39.9991629883,0 64.3647405406,39.9991054563,0 64.3649175664,39.9990684713,0 64.3649175664,39.9989739542,0 64.365078499,39.9989123125,0 64.3661084672,39.9987273871,0 64.3663015863,39.9987109492,0
						</coordinates>
					</LinearRing>
				</outerBoundaryIs>
			</Polygon>
		</Placemark>
		<Placemark>
			<name>
				8833-3 галла 2026
			</name>
			<description>
				39.99996843246453, 64.36169600737824
			</description>
			<Style>
				<LineStyle>
					<color>
						996825ea
					</color>
					<width>
						50.0
					</width>
				</LineStyle>
				<PolyStyle>
					<color>
						996825ea
					</color>
				</PolyStyle>
			</Style>
			<Polygon>
				<outerBoundaryIs>
					<LinearRing>
						<coordinates>
							64.3616960074,39.9999684325,0 64.3620768811,39.999857479,0 64.3623772885,39.9997752911,0 64.3626830603,39.9996725561,0 64.3629781033,39.999590368,0 64.363294604,39.9994835234,0 64.3635413672,39.9993972256,0 64.3638149525,39.9993109278,0 64.3638578678,39.9992205204,0 64.3637988592,39.9989903919,0 64.3636783357,39.9988322276,0 64.363656878,39.9987500385,0 64.3636139627,39.9985979884,0 64.3635603185,39.9984500474,0 64.3634905811,39.9982774492,0 64.3634154792,39.9980884126,0 64.3633457418,39.9979075944,0 64.363233089,39.9976528044,0 64.363168716,39.9974473279,0 64.363128307,39.9973260471,0 64.3630585696,39.9971287887,0 64.3629673745,39.997079474,0 64.3627420689,39.9971082409,0 64.3624953057,39.9971616652,0 64.3621895338,39.9972068702,0 64.3619266774,39.9972602944,0 64.3617228295,39.9972890612,0 64.3615350748,39.9973342662,0 64.3613473202,39.9973589234,0 64.3611381079,39.9973959093,0 64.360869887,39.9974370047,0 64.3606553103,39.9974781,0 64.3604650493,39.9975336281,0 64.3597462173,39.9976774616,0 64.3595423694,39.9977555424,0 64.3595048185,39.9978377327,0 64.3595584627,39.9980103321,0 64.3596764799,39.9983801863,0 64.359767675,39.9986185357,0 64.3598374124,39.9988774316,0 64.3599017854,39.9992102962,0 64.3600305315,39.999600691,0 64.3601753707,39.9999951929,0 64.3602772947,40.0002047711,0 64.3603363033,40.0003362708,0 64.3605777021,40.0002869584,0 64.3608942028,40.0001760055,0 64.3612643476,40.0001020367,0 64.3616960074,39.9999684325,0
						</coordinates>
					</LinearRing>
				</outerBoundaryIs>
			</Polygon>
		</Placemark>
		<Placemark>
			<name>
				8826-3 галла 2026
			</name>
			<description>
				40.000414348623465, 64.36713011270149
			</description>
			<Style>
				<LineStyle>
					<color>
						996825ea
					</color>
					<width>
						50.0
					</width>
				</LineStyle>
				<PolyStyle>
					<color>
						996825ea
					</color>
				</PolyStyle>
			</Style>
			<Polygon>
				<outerBoundaryIs>
					<LinearRing>
						<coordinates>
							64.3677445145,39.9985405097,0 64.3681547165,39.9984788137,0 64.368160081,39.9983637483,0 64.3680688859,39.9979897845,0 64.3680127354,39.9976651869,0 64.3679537268,39.997533682,0 64.3679000826,39.9973405338,0 64.3678732605,39.9971802614,0 64.3678464384,39.9969624548,0 64.3677255631,39.9966706211,0 64.367698741,39.996502128,0 64.3676640482,39.996337798,0 64.3676318617,39.9962186194,0 64.3675996752,39.9961158791,0 64.3674280138,39.9961158791,0 64.3671276064,39.9961569752,0 64.366762826,39.9962309482,0 64.3664570542,39.9962884827,0 64.3662478419,39.996358346,0 64.366006443,39.9964117708,0 64.3657811375,39.99641999,0 64.365606618,39.9964856897,0 64.3655744315,39.9965555527,0 64.3657031775,39.9968596617,0 64.3658265591,39.9972171935,0 64.3659767628,39.9976117092,0 64.3661376954,39.9980555366,0 64.3663039923,39.9984705948,0 64.3663790942,39.9987418196,0 64.3664946051,39.9988076247,0 64.3671705218,39.9986473558,0 64.3677445145,39.9985405097,0
						</coordinates>
					</LinearRing>
				</outerBoundaryIs>
			</Polygon>
		</Placemark>
		<Placemark>
			<name>
				8824-3 галла 2026
			</name>
			<description>
				39.99779672986236, 64.36815461633502
			</description>
			<Style>
				<LineStyle>
					<color>
						996825ea
					</color>
					<width>
						50.0
					</width>
				</LineStyle>
				<PolyStyle>
					<color>
						996825ea
					</color>
				</PolyStyle>
			</Style>
			<Polygon>
				<outerBoundaryIs>
					<LinearRing>
						<coordinates>
							64.3681362428,39.9978091075,0 64.3683722772,39.9977680123,0 64.3686427784,39.9977145395,0 64.3688841772,39.9976652252,0 64.3691769399,39.997607741,0 64.3694742632,39.9975337204,0 64.3697371197,39.9974679679,0 64.3699409675,39.9974145439,0 64.3701555443,39.9973816676,0 64.3701662731,39.9973282435,0 64.3701019001,39.9971885189,0 64.3699946117,39.9970200271,0 64.3699519224,39.9969090795,0 64.3698926878,39.9968063295,0 64.3698367633,39.9967077487,0 64.3697992124,39.9965967899,0 64.3696673822,39.9963953708,0 64.3696244669,39.996321398,0 64.3695761871,39.9962104386,0 64.3695225429,39.9961035886,0 64.3694367122,39.9959350941,0 64.3693937969,39.995836463,0 64.3692865085,39.9958241341,0 64.3691523981,39.9958898882,0 64.3690182876,39.9959350941,0 64.3687822532,39.9959803,0 64.3685975828,39.9960091164,0 64.3683638286,39.9960501636,0 64.3682297182,39.9960624924,0 64.3681387491,39.9960625031,0 64.3680205059,39.9960830405,0 64.3679185819,39.9960830405,0 64.3677791071,39.9960912598,0 64.3676588096,39.9961282954,0 64.3676771831,39.9962474251,0 64.3677446403,39.9964981598,0 64.3678036489,39.9968187073,0 64.3678917599,39.9970611227,0 64.3679507685,39.9972830385,0 64.3679936838,39.9974474202,0 64.368047328,39.9975830347,0 64.3680582828,39.9977433168,0 64.3681362428,39.9978091075,0
						</coordinates>
					</LinearRing>
				</outerBoundaryIs>
			</Polygon>
		</Placemark>
		<Placemark>
			<name>
				8818-3 галла 2026
			</name>
			<description>
				39.99538438401457, 64.37213769675911
			</description>
			<Style>
				<LineStyle>
					<color>
						996825ea
					</color>
					<width>
						50.0
					</width>
				</LineStyle>
				<PolyStyle>
					<color>
						996825ea
					</color>
				</PolyStyle>
			</Style>
			<Polygon>
				<outerBoundaryIs>
					<LinearRing>
						<coordinates>
							64.3721376968,39.995384384,0 64.3720625949,39.9950884878,0 64.3728592867,39.9949262919,0 64.3728807444,39.994737246,0 64.3727895492,39.9942358608,0 64.3726232523,39.99359474,0 64.3725159639,39.9929412838,0 64.3724086756,39.99280566,0 64.3720653528,39.9929166249,0 64.3718132252,39.9929988211,0 64.371593284,39.9931960914,0 64.3712472034,39.9933377425,0 64.3709978336,39.9934221295,0 64.3704613918,39.9935495326,0 64.3701019758,39.9936358377,0 64.3698391193,39.9936933744,0 64.369667458,39.9936358377,0 64.3693374705,39.993707622,0 64.3690048766,39.9938226952,0 64.3686937404,39.9939624267,0 64.3686186385,39.9940528411,0 64.3688546729,39.9942994251,0 64.3692007536,39.9945317607,0 64.3694125724,39.9946035441,0 64.3695949626,39.9946282023,0 64.3699919295,39.9947925904,0 64.3703245235,39.9950062942,0 64.3705391002,39.9951460233,0 64.3706785751,39.995162462,0 64.3708716941,39.9952528748,0 64.370946796,39.995359726,0 64.3712875122,39.995403014,0 64.3715610975,39.9954564396,0 64.3718454117,39.9954728782,0 64.3721376968,39.995384384,0
						</coordinates>
					</LinearRing>
				</outerBoundaryIs>
			</Polygon>
		</Placemark>
		<Placemark>
			<name>
				8817-3 галла 2026
			</name>
			<description>
				39.99391935974318, 64.3686131739024
			</description>
			<Style>
				<LineStyle>
					<color>
						996825ea
					</color>
					<width>
						50.0
					</width>
				</LineStyle>
				<PolyStyle>
					<color>
						996825ea
					</color>
				</PolyStyle>
			</Style>
			<Polygon>
				<outerBoundaryIs>
					<LinearRing>
						<coordinates>
							64.3686131739,39.9939193597,0 64.3688760304,39.9938412745,0 64.369063785,39.9937631891,0 64.3693427348,39.9936768841,0 64.3695762628,39.9935824107,0 64.3696806931,39.9934960543,0 64.3696109557,39.9933070045,0 64.3695090317,39.9930768561,0 64.3694339299,39.9929165737,0 64.3693266415,39.9927275223,0 64.3692222113,39.9925344116,0 64.3691496157,39.9923658571,0 64.3690451855,39.9921974046,0 64.3689915413,39.9920741089,0 64.3688574308,39.9918727255,0 64.368782329,39.9916507921,0 64.3687447781,39.9915398251,0 64.368704369,39.9914246968,0 64.3686292672,39.9912726304,0 64.368575623,39.9911370033,0 64.368487286,39.9909932073,0 64.3684068197,39.9908000406,0 64.3683610463,39.9906602514,0 64.3682430291,39.9904753036,0 64.3679640793,39.9905081833,0 64.3677655959,39.9905492828,0 64.3675188326,39.9905986022,0 64.3672237896,39.9906191519,0 64.3670735859,39.9906561414,0 64.3668590092,39.9907013508,0 64.3666311973,39.9907836008,0 64.3667384857,39.9909890974,0 64.3669369692,39.9913220005,0 64.3671300882,39.9916466822,0 64.3673149847,39.9919713112,0 64.3674680466,39.9923124803,0 64.3675778412,39.9924850424,0 64.367626121,39.9926453258,0 64.3676797652,39.9927275223,0 64.3676636719,39.9928631462,0 64.3677255386,39.9930440289,0 64.367768454,39.9931591032,0 64.3679401153,39.9933070557,0 64.3680713677,39.9934631761,0 64.3681815142,39.9935906303,0 64.3682727093,39.9937221427,0 64.3683799976,39.9938248866,0 64.3684819216,39.9939070817,0 64.3686131739,39.9939193597,0
						</coordinates>
					</LinearRing>
				</outerBoundaryIs>
			</Polygon>
		</Placemark>
		<Placemark>
			<name>
				8836-3 галла 2026
			</name>
			<description>
				39.99318595755642, 64.36575910307674
			</description>
			<Style>
				<LineStyle>
					<color>
						996825ea
					</color>
					<width>
						50.0
					</width>
				</LineStyle>
				<PolyStyle>
					<color>
						996825ea
					</color>
				</PolyStyle>
			</Style>
			<Polygon>
				<outerBoundaryIs>
					<LinearRing>
						<coordinates>
							64.3657591031,39.9931859576,0 64.3661399768,39.9930832127,0 64.3666013167,39.9929352597,0 64.3670304701,39.9927955261,0 64.3673845217,39.9926599021,0 64.3673684285,39.9925448269,0 64.3672557757,39.9922776873,0 64.3670358346,39.9918831409,0 64.3668909953,39.9916694272,0 64.3667568848,39.9913899545,0 64.3666281388,39.9911556898,0 64.3665208504,39.9909748533,0 64.3664564774,39.9908556654,0 64.3663491891,39.9907899064,0 64.3661601813,39.9908187046,0 64.3659348757,39.9908433642,0 64.3655003579,39.9909214529,0 64.3651904748,39.9909625235,0 64.3648739741,39.9910118426,0 64.3646486685,39.9910323922,0 64.3646218465,39.9911228105,0 64.3647881434,39.9914803723,0 64.3650456355,39.991973558,0 64.3652482302,39.9923270341,0 64.3653460429,39.992565376,0 64.3654801533,39.9928366243,0 64.3655767129,39.9930174558,0 64.3656464503,39.9931654086,0 64.3657591031,39.9931859576,0
						</coordinates>
					</LinearRing>
				</outerBoundaryIs>
			</Polygon>
		</Placemark>
		<Placemark>
			<name>
				8837-3 галла 2026
			</name>
			<description>
				39.993703827859015, 64.364090718962
			</description>
			<Style>
				<LineStyle>
					<color>
						996825ea
					</color>
					<width>
						50.0
					</width>
				</LineStyle>
				<PolyStyle>
					<color>
						996825ea
					</color>
				</PolyStyle>
			</Style>
			<Polygon>
				<outerBoundaryIs>
					<LinearRing>
						<coordinates>
							64.364090719,39.9937038279,0 64.3644286773,39.9936216326,0 64.3649393228,39.9934761543,0 64.3651421449,39.9933832657,0 64.3653781793,39.9933133994,0 64.3655391118,39.9932476428,0 64.3654532811,39.993021604,0 64.3653835437,39.9929024197,0 64.3653309253,39.9928062577,0 64.3652816198,39.9926681601,0 64.3652011535,39.9925078768,0 64.3651485351,39.9923377371,0 64.3650455854,39.9921667598,0 64.3649607805,39.9919555206,0 64.3648105768,39.9916596095,0 64.3647140173,39.9914869942,0 64.364633551,39.9912897189,0 64.3645627877,39.9911392885,0 64.3644984147,39.9910570902,0 64.3643106601,39.9910899695,0 64.3640799901,39.9911310687,0 64.3637205741,39.9911844976,0 64.3635220907,39.9912214868,0 64.3632914207,39.9912543661,0 64.3631143949,39.9912831354,0 64.362900844,39.991330818,0 64.3629802844,39.9914804107,0 64.3630510477,39.991606181,0 64.3631797937,39.9918979824,0 64.3632978109,39.9921527939,0 64.3633943704,39.9923952749,0 64.3634748367,39.9925391192,0 64.363565006,39.9927298074,0 64.3636089472,39.9928062577,0 64.3636733202,39.9929501011,0 64.3637645153,39.9930857246,0 64.3638825325,39.993352861,0 64.3640209815,39.9936257423,0 64.364090719,39.9937038279,0
						</coordinates>
					</LinearRing>
				</outerBoundaryIs>
			</Polygon>
		</Placemark>
		<Placemark>
			<name>
				8851-3 галла 2026
			</name>
			<description>
				39.99023126009826, 64.36656341500506
			</description>
			<Style>
				<LineStyle>
					<color>
						996825ea
					</color>
					<width>
						50.0
					</width>
				</LineStyle>
				<PolyStyle>
					<color>
						996825ea
					</color>
				</PolyStyle>
			</Style>
			<Polygon>
				<outerBoundaryIs>
					<LinearRing>
						<coordinates>
							64.366563415,39.9902312601,0 64.3668048138,39.9901901604,0 64.3672017808,39.9901490606,0 64.3675826544,39.990087411,0 64.3677596802,39.9900709711,0 64.36780796,39.9899928814,0 64.3677557449,39.9897935721,0 64.3676967363,39.9895757419,0 64.3675826544,39.9893024005,0 64.3675236458,39.9891010089,0 64.3674431796,39.9889407172,0 64.3674109931,39.9888585162,0 64.3673144335,39.988842076,0 64.3671052212,39.9888544061,0 64.3669389243,39.9888913966,0 64.3666975255,39.9888996167,0 64.3665204997,39.9889366071,0 64.3662630076,39.9889407172,0 64.3661020751,39.9889612674,0 64.3660162444,39.9889900377,0 64.3660859818,39.9891421092,0 64.3661571483,39.989341471,0 64.3662215213,39.9895469719,0 64.3662751655,39.9897072621,0 64.3663502674,39.9899045419,0 64.3663985471,39.9900401715,0 64.3664521913,39.9901675808,0 64.366563415,39.9902312601,0
						</coordinates>
					</LinearRing>
				</outerBoundaryIs>
			</Polygon>
		</Placemark>
		<Placemark>
			<name>
				8852-3 галла 2026
			</name>
			<description>
				39.990116383612154, 64.36789085793933
			</description>
			<Style>
				<LineStyle>
					<color>
						996825ea
					</color>
					<width>
						50.0
					</width>
				</LineStyle>
				<PolyStyle>
					<color>
						996825ea
					</color>
				</PolyStyle>
			</Style>
			<Polygon>
				<outerBoundaryIs>
					<LinearRing>
						<coordinates>
							64.3679581893,39.9901122352,0 64.3682663672,39.9900917237,0 64.3687682164,39.9899724959,0 64.3690847171,39.9898944061,0 64.3694119466,39.9898204262,0 64.3697016251,39.9897258963,0 64.3699752105,39.9896642462,0 64.3700610412,39.9896149261,0 64.3700634472,39.9895286543,0 64.3700258963,39.9894300139,0 64.3699400656,39.9892409528,0 64.3698786509,39.989072403,0 64.3698196423,39.9889573218,0 64.3697630398,39.9887682977,0 64.3697576754,39.9886819864,0 64.3696611159,39.9886655462,0 64.3693261159,39.9887312688,0 64.3690257085,39.9887518191,0 64.368660928,39.9887805895,0 64.3683980716,39.9888052499,0 64.3680922997,39.9888011398,0 64.3679230444,39.9888093983,0 64.3677513831,39.9888052882,0 64.3675719512,39.98881758,0 64.3674724333,39.988862829,0 64.3675236714,39.9890230825,0 64.3676309598,39.9892655746,0 64.3677221549,39.989549166,0 64.3677918923,39.9897998762,0 64.3678723586,39.9899889358,0 64.3679581893,39.9901122352,0
						</coordinates>
					</LinearRing>
				</outerBoundaryIs>
			</Polygon>
		</Placemark>
		<Placemark>
			<name>
				8360-3 галла 2026
			</name>
			<description>
				Оллот замини
			</description>
			<Style>
				<LineStyle>
					<color>
						996825ea
					</color>
					<width>
						10.0
					</width>
				</LineStyle>
				<PolyStyle>
					<color>
						996825ea
					</color>
				</PolyStyle>
			</Style>
			<Polygon>
				<outerBoundaryIs>
					<LinearRing>
						<coordinates>
							64.4228100671,40.0457069345,0 64.4228744401,40.0455755222,0 64.4239365948,40.0452716302,0 64.4253742589,40.04486507,0 64.4256800307,40.0447829363,0 64.4257873191,40.0448198965,0 64.4259120617,40.0450038605,0 64.4261895342,40.045822501,0 64.4265349329,40.0467761231,0 64.426615129,40.0469545959,0 64.4266722718,40.0471101921,0 64.4266364434,40.0471279862,0 64.4263765653,40.0472132238,0 64.425810093,40.0473425156,0 64.4247765256,40.0475706671,0 64.424079689,40.0476879794,0 64.4239407699,40.0476366189,0 64.4238132132,40.0475097215,0 64.4237049909,40.0472940131,0 64.4234765959,40.0469151332,0 64.4232821358,40.0465241491,0 64.4230675591,40.0461956218,0 64.4228851689,40.0458753061,0 64.4228100671,40.0457069345,0
						</coordinates>
					</LinearRing>
				</outerBoundaryIs>
			</Polygon>
		</Placemark>
		<Placemark>
			<name>
				8529-3 галла 2026
			</name>
			<description>
				бокиев лазиз
			</description>
			<Style>
				<LineStyle>
					<color>
						996825ea
					</color>
					<width>
						10.0
					</width>
				</LineStyle>
				<PolyStyle>
					<color>
						996825ea
					</color>
				</PolyStyle>
			</Style>
			<Polygon>
				<outerBoundaryIs>
					<LinearRing>
						<coordinates>
							64.3917257914,40.0278745899,0 64.3913127312,40.0278499437,0 64.3910015949,40.0277677895,0 64.3906850943,40.0276938507,0 64.3902237543,40.0275706191,0 64.390116466,40.0271639533,0 64.3901111016,40.0265970818,0 64.3901003727,40.0265601118,0 64.3898864963,40.0265403242,0 64.3896538218,40.0265602687,0 64.3894995579,40.0264779561,0 64.3894083628,40.026399908,0 64.3893278965,40.0262561351,0 64.3892527947,40.0261287931,0 64.3891360306,40.0260335759,0 64.3890019202,40.0258610475,0 64.3888624453,40.0256967342,0 64.3888248944,40.0255529598,0 64.3888678097,40.025327028,0 64.3889536404,40.0251339584,0 64.3890019202,40.0249983986,0 64.3890877509,40.024949104,0 64.3891896748,40.0249121331,0 64.3893827938,40.0249326725,0 64.3896349215,40.0249532119,0 64.3899675154,40.0249737513,0 64.3902881274,40.0249539494,0 64.3905885348,40.0249539494,0 64.3913300776,40.0250559089,0 64.3919738078,40.025146282,0 64.3925531649,40.0252202236,0 64.3934329295,40.0253311359,0 64.3938513541,40.0253681066,0 64.3939252028,40.0254058148,0 64.3939520249,40.0254797561,0 64.3939627537,40.0255988836,0 64.3935872444,40.0257714128,0 64.3933404812,40.0258782163,0 64.3931312689,40.0259480493,0 64.3931432509,40.0261773493,0 64.3932170996,40.0264122314,0 64.39335121,40.0267326385,0 64.3931956419,40.0268394405,0 64.3927825817,40.0269257036,0 64.3927825817,40.0274309564,0 64.3925572762,40.0275007878,0 64.392503632,40.0276938507,0 64.392503632,40.0279115593,0 64.3922515043,40.0279526363,0 64.3917257914,40.0278745899,0
						</coordinates>
					</LinearRing>
				</outerBoundaryIs>
			</Polygon>
		</Placemark>
		<Placemark>
			<name>
				8539-3 галла 2026
			</name>
			<description>
				бокиев лазиз
			</description>
			<Style>
				<LineStyle>
					<color>
						996825ea
					</color>
					<width>
						10.0
					</width>
				</LineStyle>
				<PolyStyle>
					<color>
						996825ea
					</color>
				</PolyStyle>
			</Style>
			<Polygon>
				<outerBoundaryIs>
					<LinearRing>
						<coordinates>
							64.3836774893,40.0195113721,0 64.3839135237,40.0194292078,0 64.3841495581,40.0193388271,0 64.3843802281,40.0192361216,0 64.3846752711,40.0191210912,0 64.3849220343,40.0190389265,0 64.3851687975,40.0189485452,0 64.3852760859,40.0188992463,0 64.3855174847,40.0187965401,0 64.3857964344,40.0186732924,0 64.3860485621,40.0185746942,0 64.3862470455,40.0185007454,0 64.3863757916,40.0184309048,0 64.3864348002,40.0183733889,0 64.3864430227,40.0182912642,0 64.3864001074,40.0181721239,0 64.3863410988,40.0180694166,0 64.3863142767,40.017950276,0 64.3862981834,40.0178188102,0 64.3862230816,40.0176791275,0 64.3861290283,40.0175845952,0 64.3860353269,40.0174572779,0 64.3859734602,40.0173545287,0 64.3859012165,40.0172189943,0 64.3858314791,40.0170875271,0 64.3857456484,40.0170012516,0 64.3856598177,40.0169108676,0 64.3855686226,40.0168081584,0 64.3854613342,40.0166972323,0 64.3853164949,40.0165698725,0 64.3852306642,40.0165082467,0 64.3851287403,40.0163644529,0 64.3850804605,40.0162494177,0 64.3849892654,40.0160398887,0 64.3849409857,40.0159495035,0 64.3848927059,40.0158591181,0 64.3847503729,40.0158878363,0 64.384648449,40.01590427,0 64.3844553299,40.0159700047,0 64.3842783041,40.0160480647,0 64.3841173716,40.0161055825,0 64.3839778967,40.0161754255,0 64.3838169642,40.0162493768,0 64.3836667605,40.0163315449,0 64.3834897347,40.0164096044,0 64.3832000561,40.0165575065,0 64.3829962082,40.0166396741,0 64.3828299113,40.016713625,0 64.3826314278,40.0168040092,0 64.3824383087,40.01690261,0 64.3823149271,40.0169436937,0 64.3821622171,40.0170217934,0 64.3819959202,40.0170957438,0 64.381840352,40.0171655857,0 64.3816901483,40.0172477527,0 64.3815399446,40.0173340279,0 64.3813922472,40.0173832871,0 64.3814083405,40.0174449121,0 64.3815424509,40.0175681619,0 64.3817087479,40.0177242781,0 64.3820198841,40.0180200762,0 64.3821861811,40.0182254908,0 64.3823685713,40.0184226882,0 64.3825616904,40.0185582611,0 64.3827172585,40.0186938337,0 64.3829586573,40.0188951381,0 64.3831625052,40.019047143,0 64.3832483359,40.0191128747,0 64.3833663531,40.0192114722,0 64.3834468193,40.0192936367,0 64.3835487433,40.0194045586,0 64.3835862942,40.0194620735,0 64.3836774893,40.0195113721,0
						</coordinates>
					</LinearRing>
				</outerBoundaryIs>
			</Polygon>
		</Placemark>
		<Placemark>
			<name>
				8337-3 галла 2026
			</name>
			<description>
				имомов яхшиобод
			</description>
			<Style>
				<LineStyle>
					<color>
						996825ea
					</color>
					<width>
						10.0
					</width>
				</LineStyle>
				<PolyStyle>
					<color>
						996825ea
					</color>
				</PolyStyle>
			</Style>
			<Polygon>
				<outerBoundaryIs>
					<LinearRing>
						<coordinates>
							64.4187988305,40.0372084741,0 64.4189758563,40.0371879383,0 64.4191582465,40.0371674026,0 64.419421103,40.037122224,0 64.4195605778,40.0371016883,0 64.419844892,40.0370441882,0 64.4201238417,40.0369990095,0 64.4203276896,40.0369620451,0 64.4204135203,40.0369209735,0 64.4205208087,40.0368511517,0 64.4206173682,40.0367649012,0 64.4206978345,40.0366950793,0 64.4207461142,40.0366252573,0 64.4207246566,40.0365431137,0 64.4207085633,40.0364691844,0 64.420665648,40.0363336471,0 64.4206602835,40.0362597176,0 64.4206549191,40.0361488231,0 64.4206334614,40.0360502501,0 64.4206120038,40.0359270336,0 64.4206012749,40.0358366747,0 64.4205851817,40.0357175651,0 64.420563724,40.0356313131,0 64.4205422663,40.0355080959,0 64.4205047154,40.0353479131,0 64.4204725289,40.0352370172,0 64.4204564357,40.0351466574,0 64.420434978,40.0350480829,0 64.4204242491,40.0349495083,0 64.4203759694,40.0348221825,0 64.4203652405,40.0346825347,0 64.4203276896,40.0345921741,0 64.4203115964,40.0344894915,0 64.4202901387,40.0343950234,0 64.4202740454,40.0342964479,0 64.4202257657,40.0341814429,0 64.4201989436,40.0341239403,0 64.4201077485,40.034119833,0 64.4199307227,40.0341362623,0 64.4198287987,40.0341650136,0 64.4196678662,40.0341855502,0 64.4195122981,40.0342143015,0 64.4193084502,40.0342389454,0 64.4191099667,40.0342800186,0 64.4189543986,40.0342882332,0 64.4187344575,40.0343251991,0 64.4186378979,40.0343293064,0 64.4185681605,40.0343539503,0 64.4184823298,40.0344032381,0 64.4185037875,40.0345511011,0 64.4185037875,40.0346825347,0 64.4185145163,40.0348632554,0 64.4184876942,40.0350152247,0 64.4185037875,40.035265768,0 64.4185145163,40.0355039886,0 64.4185198807,40.0358079241,0 64.4185413384,40.0359845346,0 64.4185413384,40.0362309672,0 64.4185735249,40.0365020419,0 64.4186110759,40.0367402582,0 64.41866472,40.036933295,0 64.41866472,40.0370441882,0 64.4186969065,40.0371345455,0 64.4187344575,40.0371920455,0 64.4187988305,40.0372084741,0
						</coordinates>
					</LinearRing>
				</outerBoundaryIs>
			</Polygon>
		</Placemark>
		<Placemark>
			<name>
				8338-3 галла 2026
			</name>
			<description>
				имомов яхшиобод
			</description>
			<Style>
				<LineStyle>
					<color>
						996825ea
					</color>
					<width>
						10.0
					</width>
				</LineStyle>
				<PolyStyle>
					<color>
						996825ea
					</color>
				</PolyStyle>
			</Style>
			<Polygon>
				<outerBoundaryIs>
					<LinearRing>
						<coordinates>
							64.4211001658,40.0368141872,0 64.4212612743,40.0368409243,0 64.4214704866,40.0367875311,0 64.42166897,40.0367546738,0 64.4218513602,40.0367177092,0 64.4219801063,40.0366766375,0 64.4221785897,40.0366602088,0 64.4224414462,40.0366150298,0 64.422682845,40.0365616365,0 64.4229027862,40.0365246719,0 64.4231173629,40.0364548497,0 64.4230850005,40.0363665047,0 64.4230850005,40.0363048967,0 64.423052814,40.0362104311,0 64.4230313563,40.0361241798,0 64.4230045342,40.0360214996,0 64.422988441,40.0358900686,0 64.4229562545,40.0357545301,0 64.4229294324,40.0356559565,0 64.4229026103,40.03556149,0 64.4228704238,40.0354464872,0 64.4228543305,40.0353725567,0 64.4228167796,40.0352329099,0 64.4227845931,40.0350850483,0 64.4227363133,40.0349659374,0 64.4227041268,40.0348262898,0 64.4226665759,40.0347195003,0 64.4226451182,40.034645569,0 64.4226182961,40.0345428865,0 64.4225861096,40.0344319892,0 64.4225431943,40.0343046625,0 64.4225110078,40.0341732282,0 64.4224895501,40.0340417937,0 64.4224573636,40.0339801837,0 64.4224305415,40.0339021442,0 64.4223876261,40.0338117827,0 64.4223232531,40.033803568,0 64.4222159648,40.0338199973,0 64.4220550322,40.0338323194,0 64.4218887353,40.0338487488,0 64.4216097855,40.0338939295,0 64.4213737511,40.0339308956,0 64.4211859965,40.0339555396,0 64.4209767842,40.033984291,0 64.4208212161,40.0340130424,0 64.4205744528,40.0340541157,0 64.4204081559,40.0340746524,0 64.4203115964,40.0341157257,0 64.420268681,40.0341978722,0 64.4203115964,40.0343827015,0 64.420370605,40.0345716376,0 64.4204296136,40.0348468263,0 64.420499351,40.0350932629,0 64.4205100798,40.0352698753,0 64.420563724,40.0354916669,0 64.4206120038,40.035664171,0 64.420628097,40.0358202458,0 64.4206602835,40.0359639985,0 64.4206763768,40.0361241798,0 64.4207085633,40.0362309672,0 64.4206817412,40.0362925751,0 64.4207085633,40.0363665047,0 64.4207461142,40.036481506,0 64.4207783007,40.0365841856,0 64.4208641314,40.0366622219,0 64.4209177756,40.0367156152,0 64.4209392333,40.0367731156,0 64.4209499621,40.0368224016,0 64.4211001658,40.0368141872,0
						</coordinates>
					</LinearRing>
				</outerBoundaryIs>
			</Polygon>
		</Placemark>
		<Placemark>
			<name>
				8339-3 галла 2026
			</name>
			<description/>
			<Style>
				<LineStyle>
					<color>
						996825ea
					</color>
					<width>
						10.0
					</width>
				</LineStyle>
				<PolyStyle>
					<color>
						996825ea
					</color>
				</PolyStyle>
			</Style>
			<Polygon>
				<outerBoundaryIs>
					<LinearRing>
						<coordinates>
							64.4231724361,40.0363573242,0 64.4234472746,40.0363193122,0 64.4236403937,40.0362782402,0 64.4238174195,40.036233061,0 64.4239890808,40.0362002034,0 64.424107098,40.0361550242,0 64.4242787594,40.0361344881,0 64.4244289631,40.0360934161,0 64.4246059889,40.0360359151,0 64.4248366589,40.0359743069,0 64.4249600405,40.0359496636,0 64.4250215554,40.035898283,0 64.4250430131,40.0358366747,0 64.4250017027,40.0357186525,0 64.4249373297,40.0355646312,0 64.4248783211,40.0354126631,0 64.4248123431,40.0352904116,0 64.4247790793,40.0351990857,0 64.4247050547,40.0350521902,0 64.4246299529,40.0348509335,0 64.4245763087,40.0347564659,0 64.4245333934,40.034645569,0 64.4244690203,40.0344977062,0 64.424426105,40.0343991307,0 64.4243456387,40.0342348381,0 64.4242866301,40.034095189,0 64.4242490792,40.0340130424,0 64.4242061639,40.0338733928,0 64.4241525197,40.0337501724,0 64.4241042399,40.0336433812,0 64.4240827822,40.0335817708,0 64.4240398669,40.0334955162,0 64.4239433074,40.0335037309,0 64.4237984681,40.0335365898,0 64.4236268067,40.0335530193,0 64.4234336877,40.0335776635,0 64.4232673907,40.0336146297,0 64.4230850005,40.0336515959,0 64.4229026103,40.0336721327,0 64.4227684998,40.0336967768,0 64.4226129317,40.0337173136,0 64.4225431943,40.0337460651,0 64.4224106888,40.0337902798,0 64.4224441285,40.0339001308,0 64.4225031371,40.0340890683,0 64.4225514168,40.0342780052,0 64.4226011256,40.0344002183,0 64.4226628164,40.0346117445,0 64.4227148556,40.034715393,0 64.4227738642,40.0349207573,0 64.4228167796,40.0350768338,0 64.4228704238,40.0352698753,0 64.4228972459,40.0354382727,0 64.42295089,40.0356354204,0 64.4230098986,40.0358202458,0 64.4230152631,40.0359147119,0 64.4230635428,40.0360338212,0 64.4230850005,40.0361570375,0 64.4231225514,40.0362556104,0 64.4231724361,40.0363573242,0
						</coordinates>
					</LinearRing>
				</outerBoundaryIs>
			</Polygon>
		</Placemark>
		<Placemark>
			<name>
				8340-3 галла 2026
			</name>
			<description>
				имомов яхшиобод
			</description>
			<Style>
				<LineStyle>
					<color>
						996825ea
					</color>
					<width>
						10.0
					</width>
				</LineStyle>
				<PolyStyle>
					<color>
						996825ea
					</color>
				</PolyStyle>
			</Style>
			<Polygon>
				<outerBoundaryIs>
					<LinearRing>
						<coordinates>
							64.4251771235,40.0358531036,0 64.4254185223,40.0357914952,0 64.4256760144,40.035733994,0 64.4259066844,40.035664171,0 64.4263143801,40.0355697045,0 64.4266255164,40.0354752379,0 64.4268830085,40.0354095219,0 64.4270761275,40.0353643422,0 64.4271286065,40.0353192025,0 64.4274826581,40.0352637546,0 64.4280351931,40.0351405367,0 64.4282873208,40.0350686595,0 64.4286252791,40.0349824067,0 64.429022246,40.0348386519,0 64.4289686019,40.034553195,0 64.4288344914,40.0342903271,0 64.4287432963,40.0340931755,0 64.428598457,40.0340664779,0 64.4270561868,40.0344032783,0 64.4267852837,40.0344669415,0 64.4267649913,40.0343950234,0 64.4267113471,40.0342266234,0 64.4266416096,40.034033579,0 64.4265772366,40.03381589,0 64.4265235924,40.0336680254,0 64.4264806771,40.0334996236,0 64.4264163041,40.0333435435,0 64.4263733887,40.0332121073,0 64.4263304734,40.0331587113,0 64.4261212611,40.0331956778,0 64.4259335065,40.0332244295,0 64.4257886672,40.0332449664,0 64.4255472684,40.0332819328,0 64.4253165984,40.0333188992,0 64.4251556658,40.0333435435,0 64.424914267,40.0333887246,0 64.4247694277,40.033392832,0 64.4245065713,40.0334462278,0 64.4243241811,40.0334626573,0 64.4241686129,40.0334873015,0 64.4241915876,40.0335838647,0 64.4242490792,40.0337501724,0 64.424361732,40.0339637543,0 64.4244314694,40.0341609063,0 64.424556368,40.034452566,0 64.4246889615,40.0347236076,0 64.4248016143,40.0350070102,0 64.4248874449,40.0352575535,0 64.4249893689,40.0354670234,0 64.4251020217,40.0357093506,0 64.4251771235,40.0358531036,0
						</coordinates>
					</LinearRing>
				</outerBoundaryIs>
			</Polygon>
		</Placemark>
		<Placemark>
			<name>
				8431-3 галла 2026
			</name>
			<description>
				&amp;lt;b&amp;gt;&amp;lt;/b&amp;gt;
			</description>
			<Style>
				<LineStyle>
					<color>
						996825ea
					</color>
					<width>
						10.0
					</width>
				</LineStyle>
				<PolyStyle>
					<color>
						996825ea
					</color>
				</PolyStyle>
			</Style>
			<Polygon>
				<outerBoundaryIs>
					<LinearRing>
						<coordinates>
							64.429697,40.032478,0 64.4300495947,40.0324328271,0 64.4305189813,40.0323630007,0 64.4334989155,40.0319152889,0 64.4335069621,40.0318043874,0 64.4333299363,40.0314573055,0 64.4329946602,40.030756975,0 64.4328659142,40.0304776623,0 64.4326620663,40.030050476,0 64.4324957693,40.0296807934,0 64.4324,40.029619,0 64.4291966522,40.0303934576,0 64.429697,40.032478,0
						</coordinates>
					</LinearRing>
				</outerBoundaryIs>
			</Polygon>
		</Placemark>
		<Placemark>
			<name>
				8430-3 галла 2026
			</name>
			<description>
				&amp;lt;b&amp;gt;&amp;lt;/b&amp;gt;
			</description>
			<Style>
				<LineStyle>
					<color>
						996825ea
					</color>
					<width>
						10.0
					</width>
				</LineStyle>
				<PolyStyle>
					<color>
						996825ea
					</color>
				</PolyStyle>
			</Style>
			<Polygon>
				<outerBoundaryIs>
					<LinearRing>
						<coordinates>
							64.428761809,40.0326115774,0 64.428656,40.032281,0 64.428205,40.030724,0 64.4282065917,40.0306584715,0 64.4291748692,40.0304284491,0 64.4296657134,40.032471925,0 64.428761809,40.0326115774,0
						</coordinates>
					</LinearRing>
				</outerBoundaryIs>
			</Polygon>
		</Placemark>
		<Placemark>
			<name>
				8429-3 галла 2026
			</name>
			<description>
				&amp;lt;b&amp;gt;&amp;lt;/b&amp;gt;
			</description>
			<Style>
				<LineStyle>
					<color>
						996825ea
					</color>
					<width>
						10.0
					</width>
				</LineStyle>
				<PolyStyle>
					<color>
						996825ea
					</color>
				</PolyStyle>
			</Style>
			<Polygon>
				<outerBoundaryIs>
					<LinearRing>
						<coordinates>
							64.428683,40.032638,0 64.4286563899,40.0325313178,0 64.4284686352,40.0318905566,0 64.4281682278,40.0309396723,0 64.4280984904,40.0307712638,0 64.428061,40.030683,0 64.4278570916,40.0307178659,0 64.4271543528,40.0308718982,0 64.426848581,40.0309294035,0 64.4256120826,40.0312189831,0 64.426087,40.032515,0 64.426199,40.032502,0 64.426398,40.03247,0 64.426543,40.03247,0 64.426559,40.032601,0 64.426655,40.032946,0 64.428683,40.032638,0
						</coordinates>
					</LinearRing>
				</outerBoundaryIs>
			</Polygon>
		</Placemark>
		<Placemark>
			<name>
				8381-3 галла 2026
			</name>
			<description>
				&amp;lt;b&amp;gt;&amp;lt;/b&amp;gt;
			</description>
			<Style>
				<LineStyle>
					<color>
						996825ea
					</color>
					<width>
						10.0
					</width>
				</LineStyle>
				<PolyStyle>
					<color>
						996825ea
					</color>
				</PolyStyle>
			</Style>
			<Polygon>
				<outerBoundaryIs>
					<LinearRing>
						<coordinates>
							64.438332192,40.0313874282,0 64.4384958067,40.0318187136,0 64.4389839687,40.0317981763,0 64.4390054264,40.0319316689,0 64.4390671172,40.0319480987,0 64.4390537062,40.0323075005,0 64.4389946976,40.0329195059,0 64.4389517822,40.0331741643,0 64.4381498017,40.0333589964,0 64.4369052568,40.0336280289,0 64.436783,40.033312,0 64.43663,40.032815,0 64.436266891,40.0316934358,0 64.4367952862,40.03161334,0 64.4373987832,40.0315270828,0 64.438332192,40.0313874282,0
						</coordinates>
					</LinearRing>
				</outerBoundaryIs>
			</Polygon>
		</Placemark>
		<Placemark>
			<name>
				8374-3 галла 2026
			</name>
			<description>
				&amp;lt;b&amp;gt;&amp;lt;/b&amp;gt;
			</description>
			<Style>
				<LineStyle>
					<color>
						996825ea
					</color>
					<width>
						10.0
					</width>
				</LineStyle>
				<PolyStyle>
					<color>
						996825ea
					</color>
				</PolyStyle>
			</Style>
			<Polygon>
				<outerBoundaryIs>
					<LinearRing>
						<coordinates>
							64.431564,40.034807,0 64.431392,40.034844,0 64.430893,40.034963,0 64.4305342523,40.0350448893,0 64.430206,40.035143,0 64.4299629418,40.0351824828,0 64.429815,40.035102,0 64.429547,40.034807,0 64.429423,40.034638,0 64.429246,40.034326,0 64.429123,40.034043,0 64.429032,40.033944,0 64.428946,40.033788,0 64.428769,40.033521,0 64.428578,40.033227,0 64.428482,40.033075,0 64.428415,40.032864,0 64.428514,40.032833,0 64.429785,40.032681,0 64.4305878965,40.032559944,0 64.4307783333,40.0325763737,0 64.430928537,40.0329398795,0 64.4311779825,40.033802428,0 64.431325504,40.0342480737,0 64.4314274279,40.0345232637,0 64.431564,40.034807,0
						</coordinates>
					</LinearRing>
				</outerBoundaryIs>
			</Polygon>
		</Placemark>
		<Placemark>
			<name>
				8423-3 галла 2026
			</name>
			<description>
				Unknown Area Type
			</description>
			<Style>
				<LineStyle>
					<color>
						996825ea
					</color>
					<width>
						10.0
					</width>
				</LineStyle>
				<PolyStyle>
					<color>
						996825ea
					</color>
				</PolyStyle>
			</Style>
			<Polygon>
				<outerBoundaryIs>
					<LinearRing>
						<coordinates>
							64.427567,40.028863,0 64.4281756166,40.0298160856,0 64.4280978326,40.0299085063,0 64.4279798154,40.0299454745,0 64.4278027896,40.0299742275,0 64.425883,40.030375,0 64.4250776652,40.0285160217,0 64.4270008091,40.0279984538,0 64.427567,40.028863,0
						</coordinates>
					</LinearRing>
				</outerBoundaryIs>
			</Polygon>
		</Placemark>
		<Placemark>
			<name>
				8420-3 галла 2026
			</name>
			<description>
				Unknown Area Type
			</description>
			<Style>
				<LineStyle>
					<color>
						996825ea
					</color>
					<width>
						10.0
					</width>
				</LineStyle>
				<PolyStyle>
					<color>
						996825ea
					</color>
				</PolyStyle>
			</Style>
			<Polygon>
				<outerBoundaryIs>
					<LinearRing>
						<coordinates>
							64.430314,40.027413,0 64.429171,40.027795,0 64.428876,40.027906,0 64.428243,40.028116,0 64.42732,40.028415,0 64.4266094922,40.0273779585,0 64.4263520001,40.0269897765,0 64.4262849449,40.0268768131,0 64.4266389965,40.0267741189,0 64.429278,40.026119,0 64.429443,40.026164,0 64.429796,40.026614,0 64.4300427197,40.0269240524,0 64.430364,40.027394,0 64.430314,40.027413,0
						</coordinates>
					</LinearRing>
				</outerBoundaryIs>
			</Polygon>
		</Placemark>
		<Placemark>
			<name>
				8421-3 галла 2026
			</name>
			<description>
				Unknown Area Type
			</description>
			<Style>
				<LineStyle>
					<color>
						996825ea
					</color>
					<width>
						10.0
					</width>
				</LineStyle>
				<PolyStyle>
					<color>
						996825ea
					</color>
				</PolyStyle>
			</Style>
			<Polygon>
				<outerBoundaryIs>
					<LinearRing>
						<coordinates>
							64.430378,40.027437,0 64.430427,40.027459,0 64.4304539773,40.027550675,0 64.4306122276,40.0277498993,0 64.4308187577,40.0280333309,0 64.4311138007,40.0284132916,0 64.431323013,40.0287069895,0 64.431438348,40.0288322729,0 64.431536,40.028852,0 64.431674,40.028838,0 64.431831,40.028782,0 64.431907,40.028758,0 64.432055256,40.0290109553,0 64.428259,40.029865,0 64.428093,40.029596,0 64.42739,40.028444,0 64.428243,40.028167,0 64.428903,40.027943,0 64.429041,40.027896,0 64.429211,40.027837,0 64.430316,40.027458,0 64.430378,40.027437,0
						</coordinates>
					</LinearRing>
				</outerBoundaryIs>
			</Polygon>
		</Placemark>
	</Document>
</kml>

