<?xml version="1.0" encoding="utf-8"?>

<kml>
	<Document>
		<name>
			Geofences
		</name>
		<Placemark>
			<name>
				8563-2 пахта томчи 2026
			</name>
			<description>
				40.01607266557124, 64.395168691048
			</description>
			<Style>
				<LineStyle>
					<color>
						99dbc200
					</color>
					<width>
						50.0
					</width>
				</LineStyle>
				<PolyStyle>
					<color>
						99dbc200
					</color>
				</PolyStyle>
			</Style>
			<Polygon>
				<outerBoundaryIs>
					<LinearRing>
						<coordinates>
							64.395168691,40.0160726656,0 64.3955173782,40.0162287852,0 64.3960001758,40.0163890128,0 64.3963381342,40.016516373,0 64.3967351011,40.0166889251,0 64.3970787757,40.0168019821,0 64.3975022129,40.0169231022,0 64.3974220984,40.0165965632,0 64.3972718947,40.0160871218,0 64.3970948689,40.015536592,0 64.3969443134,40.0150373371,0 64.3967730039,40.014513581,0 64.3966546348,40.0140430783,0 64.3965423339,40.0136836571,0 64.3964454225,40.0134144692,0 64.3963810495,40.0133281891,0 64.3960699133,40.0133528405,0 64.3942942909,40.0135418349,0 64.3941440872,40.0136075719,0 64.394321113,40.0141005978,0 64.3945145839,40.0148176099,0 64.3946272366,40.015265434,0 64.3947019867,40.0156453891,0 64.3947502664,40.0158179434,0 64.394846826,40.0159329793,0 64.395168691,40.0160726656,0
						</coordinates>
					</LinearRing>
				</outerBoundaryIs>
			</Polygon>
		</Placemark>
		<Placemark>
			<name>
				8556-2 пахта томчи 2026
			</name>
			<description>
				40.02004129841309, 64.3959840575346
			</description>
			<Style>
				<LineStyle>
					<color>
						99dbc200
					</color>
					<width>
						50.0
					</width>
				</LineStyle>
				<PolyStyle>
					<color>
						99dbc200
					</color>
				</PolyStyle>
			</Style>
			<Polygon>
				<outerBoundaryIs>
					<LinearRing>
						<coordinates>
							64.3959840575,40.0200412984,0 64.3965347718,40.019980551,0 64.3956729213,40.0168039787,0 64.3956013631,40.0166980363,0 64.3953063201,40.0166569525,0 64.39503992,40.0166478605,0 64.3951364795,40.0170833474,0 64.3954350661,40.0182263356,0 64.3956496428,40.0190274466,0 64.3958749484,40.0197463843,0 64.3959840575,40.0200412984,0
						</coordinates>
					</LinearRing>
				</outerBoundaryIs>
			</Polygon>
		</Placemark>
		<Placemark>
			<name>
				8545-2 пахта томчи 2026
			</name>
			<description>
				40.018080750673164, 64.39109380699787
			</description>
			<Style>
				<LineStyle>
					<color>
						99dbc200
					</color>
					<width>
						50.0
					</width>
				</LineStyle>
				<PolyStyle>
					<color>
						99dbc200
					</color>
				</PolyStyle>
			</Style>
			<Polygon>
				<outerBoundaryIs>
					<LinearRing>
						<coordinates>
							64.391093807,40.0180807507,0 64.3916448137,40.0179079467,0 64.392338352,40.0177027866,0 64.3926065729,40.0176041869,0 64.3927031324,40.0175138037,0 64.3936687277,40.0173412537,0 64.3947561761,40.0171396894,0 64.3946542522,40.016749395,0 64.3943446443,40.016404546,0 64.3942266271,40.0163223781,0 64.3941407964,40.0161744755,0 64.3941086099,40.0159772716,0 64.3940549657,40.0158293683,0 64.3939154909,40.0157307659,0 64.3937839633,40.0156238475,0 64.3917186624,40.016240111,0 64.3917199155,40.0164125074,0 64.3920900604,40.016683661,0 64.3922456285,40.0168521043,0 64.3927445194,40.0174149484,0 64.3926801463,40.0174437067,0 64.3921812555,40.0168890796,0 64.3918956882,40.0166756006,0 64.3915362722,40.0167824184,0 64.3909730083,40.0169631865,0 64.390545108,40.0171355811,0 64.391093807,40.0180807507,0
						</coordinates>
					</LinearRing>
				</outerBoundaryIs>
			</Polygon>
		</Placemark>
		<Placemark>
			<name>
				8553-2 пахта томчи 2026
			</name>
			<description>
				40.02002396538592, 64.39201109742629
			</description>
			<Style>
				<LineStyle>
					<color>
						99dbc200
					</color>
					<width>
						50.0
					</width>
				</LineStyle>
				<PolyStyle>
					<color>
						99dbc200
					</color>
				</PolyStyle>
			</Style>
			<Polygon>
				<outerBoundaryIs>
					<LinearRing>
						<coordinates>
							64.3920110974,40.0200239654,0 64.3926986816,40.019831852,0 64.3934067848,40.0196469832,0 64.3940290573,40.0194703304,0 64.3946825776,40.0192968141,0 64.3949400697,40.0191941085,0 64.3950322034,40.0191129151,0 64.395026839,40.0189568021,0 64.3951877716,40.0189075032,0 64.3950688157,40.0185408973,0 64.3949239764,40.0179369794,0 64.3948444488,40.0176298272,0 64.3948068979,40.0174531692,0 64.3947264316,40.0172518606,0 64.3935936007,40.0174152229,0 64.3931108031,40.0175220396,0 64.3925967576,40.017679127,0 64.3921300533,40.0178188097,0 64.3919315698,40.0178722177,0 64.391561425,40.0179749253,0 64.391158155,40.0181218528,0 64.3911751869,40.0182707223,0 64.3920110974,40.0200239654,0
						</coordinates>
					</LinearRing>
				</outerBoundaryIs>
			</Polygon>
		</Placemark>
		<Placemark>
			<name>
				8554-2 пахта томчи 2026
			</name>
			<description>
				40.02305575205175, 64.39347019407543
			</description>
			<Style>
				<LineStyle>
					<color>
						99dbc200
					</color>
					<width>
						50.0
					</width>
				</LineStyle>
				<PolyStyle>
					<color>
						99dbc200
					</color>
				</PolyStyle>
			</Style>
			<Polygon>
				<outerBoundaryIs>
					<LinearRing>
						<coordinates>
							64.3934701941,40.0230557521,0 64.3942320923,40.02287094,0 64.3950099329,40.0226819715,0 64.3951546213,40.0229571601,0 64.3956696055,40.022850352,0 64.396254302,40.0226901587,0 64.3960613588,40.0219959292,0 64.3958736042,40.0213263124,0 64.3956910631,40.020689506,0 64.3955034594,40.0200075999,0 64.3953371624,40.0193667211,0 64.3952189693,40.0192023634,0 64.3947039852,40.0193502594,0 64.3939853291,40.0195474824,0 64.393432794,40.0197077022,0 64.3925744871,40.0199295444,0 64.3920646915,40.0201020591,0 64.3934701941,40.0230557521,0
						</coordinates>
					</LinearRing>
				</outerBoundaryIs>
			</Polygon>
		</Placemark>
		<Placemark>
			<name>
				8748-2 пахта томчи 2026
			</name>
			<description>
				40.00850464264114, 64.37636181227877
			</description>
			<Style>
				<LineStyle>
					<color>
						99dbc200
					</color>
					<width>
						50.0
					</width>
				</LineStyle>
				<PolyStyle>
					<color>
						99dbc200
					</color>
				</PolyStyle>
			</Style>
			<Polygon>
				<outerBoundaryIs>
					<LinearRing>
						<coordinates>
							64.3763618123,40.0085046426,0 64.3766729485,40.0084306829,0 64.3770869223,40.0083231449,0 64.3773810517,40.0082293477,0 64.3776117217,40.0081718233,0 64.3779282223,40.0080937543,0 64.3781705348,40.0080930472,0 64.3784065692,40.0080355226,0 64.3786631476,40.0079787052,0 64.3790234772,40.007891711,0 64.379302427,40.0078300774,0 64.3795170037,40.0077478991,0 64.3793453423,40.0075301262,0 64.3791620385,40.0072719703,0 64.3789689194,40.0070336511,0 64.37890546,40.0069302198,0 64.3788455378,40.0068158759,0 64.3788026225,40.0067090425,0 64.3786416899,40.0066268629,0 64.3784485709,40.0066802796,0 64.3780891549,40.006795331,0 64.3777306525,40.0069178929,0 64.3774195163,40.0070288349,0 64.3769635407,40.0071726484,0 64.3766470401,40.007279481,0 64.3762983529,40.0073945314,0 64.3760453116,40.0074733083,0 64.3758790147,40.0075143976,0 64.3760292184,40.0077938043,0 64.3761579644,40.0080896454,0 64.3762598883,40.0083320699,0 64.3762974393,40.0084347918,0 64.3763618123,40.0085046426,0
						</coordinates>
					</LinearRing>
				</outerBoundaryIs>
			</Polygon>
		</Placemark>
		<Placemark>
			<name>
				8750-2 пахта томчи 2026
			</name>
			<description>
				40.006380611270366, 64.37868422947597
			</description>
			<Style>
				<LineStyle>
					<color>
						99dbc200
					</color>
					<width>
						50.0
					</width>
				</LineStyle>
				<PolyStyle>
					<color>
						99dbc200
					</color>
				</PolyStyle>
			</Style>
			<Polygon>
				<outerBoundaryIs>
					<LinearRing>
						<coordinates>
							64.3787177054,40.0063508532,0 64.3789237667,40.006691954,0 64.3792509962,40.0072137924,0 64.3795406748,40.0076370128,0 64.3799000908,40.008043795,0 64.3800395657,40.0082081507,0 64.3802863289,40.0085450787,0 64.3804472614,40.0088696786,0 64.3812926261,40.0087217053,0 64.382212155,40.0085532965,0 64.3821316887,40.0082204774,0 64.3813569991,40.0063344172,0 64.3810158897,40.0054387036,0 64.3807508198,40.0048551607,0 64.3806381671,40.0045839602,0 64.3805255143,40.0043867228,0 64.3799139706,40.0044606869,0 64.37959747,40.004501778,0 64.3792058675,40.0045058871,0 64.3789148995,40.0045027731,0 64.3788022467,40.004498664,0 64.3786735006,40.0044945549,0 64.3784374662,40.0045315369,0 64.3782979914,40.0045315369,0 64.3780565926,40.0045438642,0 64.3778634735,40.0045644097,0 64.3776167103,40.0045849553,0 64.3774968315,40.0046251058,0 64.377593391,40.0048059062,0 64.3776738573,40.0049168516,0 64.3777757813,40.0050729967,0 64.3778508831,40.0051962689,0 64.3779098917,40.0053359771,0 64.3780815531,40.0055373209,0 64.3781919924,40.005598902,0 64.3783207385,40.0058166811,0 64.3784387557,40.0059317339,0 64.3784977643,40.0060878767,0 64.3786372391,40.0062358011,0 64.3787177054,40.0063508532,0
						</coordinates>
					</LinearRing>
				</outerBoundaryIs>
			</Polygon>
		</Placemark>
		<Placemark>
			<name>
				8747-2 пахта томчи 2026
			</name>
			<description>
				40.006935323827584, 64.37556213818338
			</description>
			<Style>
				<LineStyle>
					<color>
						99dbc200
					</color>
					<width>
						50.0
					</width>
				</LineStyle>
				<PolyStyle>
					<color>
						99dbc200
					</color>
				</PolyStyle>
			</Style>
			<Polygon>
				<outerBoundaryIs>
					<LinearRing>
						<coordinates>
							64.3755738797,40.00701976,0 64.3757026257,40.007200554,0 64.3759225669,40.0074429815,0 64.3764482798,40.007278624,0 64.3770222726,40.0070813943,0 64.3778054776,40.0068184206,0 64.378141346,40.0067607501,0 64.3785222197,40.0066374807,0 64.378731432,40.006547083,0 64.3785704994,40.0062923253,0 64.3784471178,40.0060827658,0 64.3783666516,40.0060129124,0 64.3782754565,40.0058978598,0 64.3781788969,40.0057458256,0 64.3780501509,40.0056348815,0 64.3779804135,40.0055527006,0 64.3778784895,40.0054376471,0 64.3777679267,40.0053884833,0 64.3775201508,40.0054807346,0 64.3773860403,40.005509498,0 64.377176828,40.005591679,0 64.3768871494,40.0056820779,0 64.376688666,40.0057190593,0 64.376393623,40.0057765858,0 64.3761522242,40.0058176761,0 64.3759376474,40.0058875297,0 64.3757552572,40.0059245109,0 64.3754934134,40.005947313,0 64.3753261038,40.0059820372,0 64.3752563664,40.0060108004,0 64.3752831884,40.006154616,0 64.3753368326,40.0064093743,0 64.3754655787,40.0067463112,0 64.375508494,40.0068777983,0 64.3755738797,40.00701976,0
						</coordinates>
					</LinearRing>
				</outerBoundaryIs>
			</Polygon>
		</Placemark>
		<Placemark>
			<name>
				8746-2 пахта томчи 2026
			</name>
			<description>
				40.005879311601404, 64.37528855286348
			</description>
			<Style>
				<LineStyle>
					<color>
						99dbc200
					</color>
					<width>
						50.0
					</width>
				</LineStyle>
				<PolyStyle>
					<color>
						99dbc200
					</color>
				</PolyStyle>
			</Style>
			<Polygon>
				<outerBoundaryIs>
					<LinearRing>
						<coordinates>
							64.3752885529,40.0058793116,0 64.3754323149,40.0059184049,0 64.3755889603,40.0058834206,0 64.3758464523,40.0058587665,0 64.3760127493,40.0058300032,0 64.3762101555,40.0057869159,0 64.3763989874,40.0057478226,0 64.3765545555,40.0057149503,0 64.376817412,40.0056820779,0 64.3769568869,40.0056368785,0 64.3771392771,40.0055875699,0 64.3772519299,40.0055300433,0 64.3774411135,40.0054704812,0 64.3776074105,40.0054129544,0 64.3777898007,40.0053554276,0 64.3778327161,40.0052691373,0 64.3776127749,40.0049198658,0 64.3775162154,40.0047431748,0 64.3774572068,40.0046527746,0 64.3773123675,40.0046445564,0 64.3770656043,40.0046568837,0 64.3768603273,40.0046589191,0 64.3767315813,40.0046671374,0 64.3764740892,40.0047328829,0 64.3761039444,40.0047945194,0 64.3758840033,40.0048315012,0 64.3756479689,40.0048520467,0 64.3754977652,40.004913683,0 64.3753786707,40.0049363405,0 64.3752874756,40.0049527769,0 64.3751801872,40.0049856495,0 64.3751973578,40.0050780463,0 64.3752510019,40.005234191,0 64.3752724596,40.0053369176,0 64.3751480007,40.0053965565,0 64.3752885529,40.0058793116,0
						</coordinates>
					</LinearRing>
				</outerBoundaryIs>
			</Polygon>
		</Placemark>
		<Placemark>
			<name>
				8737-2 пахта томчи 2026
			</name>
			<description>
				40.00729287962686, 64.36576661064521
			</description>
			<Style>
				<LineStyle>
					<color>
						99dbc200
					</color>
					<width>
						50.0
					</width>
				</LineStyle>
				<PolyStyle>
					<color>
						99dbc200
					</color>
				</PolyStyle>
			</Style>
			<Polygon>
				<outerBoundaryIs>
					<LinearRing>
						<coordinates>
							64.3657666106,40.0072928796,0 64.3660131227,40.0072822427,0 64.3662598859,40.0071713011,0 64.3665710222,40.0070480325,0 64.3668660652,40.0069453084,0 64.367171837,40.0068590201,0 64.3674507867,40.0067645138,0 64.3675580751,40.006727533,0 64.3679282199,40.0066658983,0 64.3683305513,40.0065631737,0 64.3685880433,40.0065179748,0 64.3692478668,40.005987913,0 64.3690118324,40.005379775,0 64.3688884508,40.0050551586,0 64.3687811624,40.0048086134,0 64.3688133489,40.0045538491,0 64.3688079845,40.0042949748,0 64.3688240777,40.0040155538,0 64.3687167894,40.0038265331,0 64.3686202299,40.0037320225,0 64.367761923,40.0039292618,0 64.3670216333,40.0040813,0 64.3666890394,40.0041593736,0 64.3663349878,40.0042456653,0 64.3659004699,40.0043401752,0 64.3653425704,40.0044716669,0 64.3649831544,40.004586722,0 64.3649136682,40.0047124142,0 64.3649029393,40.0048439053,0 64.365026321,40.0051438683,0 64.3651172649,40.0055030466,0 64.3652138244,40.0057783525,0 64.3653696437,40.0061670198,0 64.3654447456,40.006466977,0 64.3655734916,40.0068121315,0 64.3656754155,40.007103868,0 64.3657666106,40.0072928796,0
						</coordinates>
					</LinearRing>
				</outerBoundaryIs>
			</Polygon>
		</Placemark>
		<Placemark>
			<name>
				8696-2 пахта томчи 2026
			</name>
			<description>
				40.013467709585896, 64.39434102846847
			</description>
			<Style>
				<LineStyle>
					<color>
						99dbc200
					</color>
					<width>
						50.0
					</width>
				</LineStyle>
				<PolyStyle>
					<color>
						99dbc200
					</color>
				</PolyStyle>
			</Style>
			<Polygon>
				<outerBoundaryIs>
					<LinearRing>
						<coordinates>
							64.3943410285,40.0134677096,0 64.3954943783,40.013328018,0 64.3954192765,40.0128925071,0 64.3953495391,40.012461102,0 64.395322717,40.0122556701,0 64.3952690728,40.0120748895,0 64.3952529795,40.0118941084,0 64.3952154286,40.0116558053,0 64.39515642,40.0111627618,0 64.3950841512,40.0108649372,0 64.3940191634,40.0109162387,0 64.3941990222,40.0122988684,0 64.3938664283,40.012360498,0 64.3938771571,40.0124591053,0 64.3941400136,40.0134410614,0 64.3943410285,40.0134677096,0
						</coordinates>
					</LinearRing>
				</outerBoundaryIs>
			</Polygon>
		</Placemark>
		<Placemark>
			<name>
				8695-2 пахта томчи 2026
			</name>
			<description>
				40.01330344326288, 64.39560693090834
			</description>
			<Style>
				<LineStyle>
					<color>
						99dbc200
					</color>
					<width>
						50.0
					</width>
				</LineStyle>
				<PolyStyle>
					<color>
						99dbc200
					</color>
				</PolyStyle>
			</Style>
			<Polygon>
				<outerBoundaryIs>
					<LinearRing>
						<coordinates>
							64.3956015665,40.0133322033,0 64.3964627315,40.01323569,0 64.3968865205,40.0131740612,0 64.3970016796,40.0130733623,0 64.3970313598,40.0129111109,0 64.3969641287,40.0125844376,0 64.396918707,40.012146906,0 64.3968167831,40.0114771925,0 64.3967280943,40.0109368591,0 64.396647628,40.0104890066,0 64.3965914775,40.0101089844,0 64.3965485622,40.0097104322,0 64.3964788247,40.0092420276,0 64.3964437801,40.0091659759,0 64.396352585,40.0091289964,0 64.3960092623,40.0091577582,0 64.395633753,40.0091536494,0 64.3952128221,40.0091475245,0 64.3950383026,40.0091700847,0 64.3949256498,40.0092399348,0 64.3950651247,40.0101479794,0 64.3951645423,40.0109142994,0 64.3952582437,40.011499752,0 64.3953279812,40.0118859678,0 64.3954191763,40.0124981565,0 64.3954488565,40.0128535904,0 64.3954835493,40.0130404935,0 64.3955157358,40.0131884029,0 64.3955318291,40.0132623574,0 64.3956015665,40.0133322033,0
						</coordinates>
					</LinearRing>
				</outerBoundaryIs>
			</Polygon>
		</Placemark>
		<Placemark>
			<name>
				8694-2 пахта томчи 2026
			</name>
			<description>
				40.01313088260572, 64.39715724771874
			</description>
			<Style>
				<LineStyle>
					<color>
						99dbc200
					</color>
					<width>
						50.0
					</width>
				</LineStyle>
				<PolyStyle>
					<color>
						99dbc200
					</color>
				</PolyStyle>
			</Style>
			<Polygon>
				<outerBoundaryIs>
					<LinearRing>
						<coordinates>
							64.3971572477,40.0131308826,0 64.397884484,40.0130214172,0 64.3987481553,40.0129269194,0 64.3994508941,40.0128406386,0 64.3999819715,40.012762575,0 64.4005076844,40.0126927285,0 64.4008027274,40.0126557509,0 64.4006172973,40.0122721814,0 64.4003383476,40.0117996857,0 64.4001268108,40.0114642405,0 64.4000164825,40.0112203605,0 64.3998394567,40.010953294,0 64.3997697193,40.0108587933,0 64.3996302444,40.0106040516,0 64.3995390493,40.010382179,0 64.3994263965,40.0101726321,0 64.3993030149,40.0099055615,0 64.3991689045,40.0096261634,0 64.399099167,40.0094946816,0 64.399072345,40.0094125053,0 64.3990294296,40.0093673083,0 64.398906048,40.0093467642,0 64.3986807424,40.0093015672,0 64.3984286148,40.0092481525,0 64.3981979448,40.0091783024,0 64.3979887325,40.0091166699,0 64.397725876,40.0090550374,0 64.3975112993,40.0090550374,0 64.3972269852,40.0090591462,0 64.3969480354,40.0091002346,0 64.3967066366,40.0091166699,0 64.3965403396,40.0091741936,0 64.3966613967,40.0097837645,0 64.3967066366,40.0103041126,0 64.3968169648,40.0108561513,0 64.3968246538,40.0111176427,0 64.3969051201,40.0117134036,0 64.3969909508,40.0122598555,0 64.3970285017,40.0126625015,0 64.3970798213,40.0129967656,0 64.3971572477,40.0131308826,0
						</coordinates>
					</LinearRing>
				</outerBoundaryIs>
			</Polygon>
		</Placemark>
		<Placemark>
			<name>
				8677-2 пахта томчи 2026
			</name>
			<description>
				40.00691036316204, 64.40786440061898
			</description>
			<Style>
				<LineStyle>
					<color>
						99dbc200
					</color>
					<width>
						50.0
					</width>
				</LineStyle>
				<PolyStyle>
					<color>
						99dbc200
					</color>
				</PolyStyle>
			</Style>
			<Polygon>
				<outerBoundaryIs>
					<LinearRing>
						<coordinates>
							64.4080160334,40.0067706773,0 64.4082359745,40.0067501325,0 64.408627577,40.0066679529,0 64.4087602584,40.0066309529,0 64.4087509586,40.0064583945,0 64.408793874,40.0063269066,0 64.4087992384,40.0061050201,0 64.4087978094,40.0060063845,0 64.4087763517,40.005920095,0 64.4087870805,40.0057187524,0 64.4087709873,40.0055872631,0 64.4087455942,40.0054393564,0 64.4087119787,40.0053448289,0 64.4086207836,40.0050859576,0 64.4085671394,40.0048558489,0 64.4085295885,40.0046832669,0 64.4084666445,40.0045764494,0 64.4084559156,40.0044737216,0 64.4083915426,40.0043340116,0 64.4083042829,40.0041162086,0 64.408229181,40.0039436247,0 64.4081379859,40.0038080228,0 64.408100435,40.0037176214,0 64.407908745,40.0033478153,0 64.407189913,40.0023122938,0 64.40689487,40.0018191828,0 64.4066534712,40.0015644074,0 64.4064657166,40.001309631,0 64.4063423349,40.00113704,0 64.4058380796,40.0005452962,0 64.4050870611,40.001071291,0 64.4043199493,40.0015726259,0 64.404277034,40.0018602755,0 64.4044540598,40.0021232683,0 64.4046579077,40.0023574954,0 64.4050495102,40.0027766367,0 64.4053928329,40.0031259191,0 64.405650325,40.0034916365,0 64.4060365631,40.0040217176,0 64.4061545803,40.0042641565,0 64.4062979906,40.0044737024,0 64.4064428298,40.0047079215,0 64.4067071154,40.0050489951,0 64.4069967939,40.0055215375,0 64.4072811081,40.0059365503,0 64.4074581339,40.0061214562,0 64.4075868799,40.0062981436,0 64.4076888039,40.0064666125,0 64.4077517478,40.0065693181,0 64.4078483074,40.0067172415,0 64.4080160334,40.0067706773,0
						</coordinates>
					</LinearRing>
				</outerBoundaryIs>
			</Polygon>
		</Placemark>
		<Placemark>
			<name>
				8763-2 пахта томчи 2026
			</name>
			<description>
				40.000529377002685, 64.38798316589242
			</description>
			<Style>
				<LineStyle>
					<color>
						99dbc200
					</color>
					<width>
						50.0
					</width>
				</LineStyle>
				<PolyStyle>
					<color>
						99dbc200
					</color>
				</PolyStyle>
			</Style>
			<Polygon>
				<outerBoundaryIs>
					<LinearRing>
						<coordinates>
							64.3879831659,40.000529377,0 64.3882917959,40.0004287362,0 64.3885839807,40.0001883,0 64.388742407,40.0000260181,0 64.3890910941,39.9998000018,0 64.3893403637,39.9995842198,0 64.3897831041,39.999339748,0 64.3900860178,39.9990787608,0 64.3899225789,39.9988219588,0 64.389820655,39.9986657994,0 64.389627536,39.9983329321,0 64.3894987899,39.9981397861,0 64.3894022304,39.9979754061,0 64.3892842132,39.9978069163,0 64.3891554672,39.9976671926,0 64.3889945346,39.9974576066,0 64.388871153,39.9972151436,0 64.3887316781,39.9969644606,0 64.3886619407,39.9967795299,0 64.3885331947,39.9965247357,0 64.3884259063,39.9963767902,0 64.3882864314,39.9961548714,0 64.3881576854,39.9959535,0 64.3880182105,39.9957233606,0 64.3878787357,39.9954891107,0 64.3877821761,39.9953247243,0 64.3877070743,39.995217873,0 64.3876373369,39.9951315698,0 64.3874252664,39.9951459153,0 64.387189232,39.9951787927,0 64.3869800197,39.9951993411,0 64.386572324,39.9952527668,0 64.3862747747,39.995304176,0 64.3859743673,39.995341163,0 64.385765155,39.9953617113,0 64.3855477201,39.995396605,0 64.3852526771,39.995421263,0 64.3850434648,39.9954418112,0 64.384880026,39.9954767817,0 64.3848878967,39.9955938684,0 64.3850702869,39.9959185298,0 64.3854511606,39.9965020945,0 64.3856711017,39.9968678473,0 64.3858856784,39.9972212695,0 64.3861270773,39.9975541422,0 64.3864113914,39.9979856415,0 64.3865830528,39.9982774157,0 64.3867386209,39.9985527507,0 64.38693174,39.9987993184,0 64.3872053253,39.9992554664,0 64.3874227601,39.9995657659,0 64.3876319724,39.9999150647,0 64.3877392608,40.00014519,0 64.3878626424,40.0003876427,0 64.3879831659,40.000529377,0
						</coordinates>
					</LinearRing>
				</outerBoundaryIs>
			</Polygon>
		</Placemark>
		<Placemark>
			<name>
				8792-2 пахта томчи 2026
			</name>
			<description>
				39.995063952080294, 64.3863574465821
			</description>
			<Style>
				<LineStyle>
					<color>
						99dbc200
					</color>
					<width>
						50.0
					</width>
				</LineStyle>
				<PolyStyle>
					<color>
						99dbc200
					</color>
				</PolyStyle>
			</Style>
			<Polygon>
				<outerBoundaryIs>
					<LinearRing>
						<coordinates>
							64.3863713467,39.9951201706,0 64.3866020166,39.9950708545,0 64.3869077885,39.9950297577,0 64.3872725689,39.9949886608,0 64.3876158917,39.9949393446,0 64.387889477,39.9949064671,0 64.3884473765,39.9948366023,0 64.3887446126,39.9947269575,0 64.3885761225,39.9945530329,0 64.3883369168,39.9942666696,0 64.3881277045,39.9940652926,0 64.3878970346,39.9938228175,0 64.3876770934,39.9935639025,0 64.3875107965,39.993391292,0 64.387299391,39.9931680465,0 64.3871384585,39.9929625565,0 64.3870119056,39.992778932,0 64.3860119307,39.991676175,0 64.3856847012,39.991606307,0 64.385207268,39.9914624608,0 64.3849551403,39.9914501311,0 64.3851107084,39.9919474268,0 64.3853896582,39.9926255515,0 64.3855130398,39.9929420074,0 64.3869077885,39.9927693953,0 64.3869936192,39.9928474818,0 64.385529133,39.9930570819,0 64.3855581483,39.9932885474,0 64.3856064281,39.9934364995,0 64.3852019035,39.9935954637,0 64.3852233612,39.9937598542,0 64.3854325735,39.9942406942,0 64.3856417858,39.9947133114,0 64.3858295405,39.9951735964,0 64.3863713467,39.9951201706,0
						</coordinates>
					</LinearRing>
				</outerBoundaryIs>
			</Polygon>
		</Placemark>
		<Placemark>
			<name>
				8758-2 пахта томчи 2026
			</name>
			<description>
				40.001294057423266, 64.38534878566836
			</description>
			<Style>
				<LineStyle>
					<color>
						99dbc200
					</color>
					<width>
						50.0
					</width>
				</LineStyle>
				<PolyStyle>
					<color>
						99dbc200
					</color>
				</PolyStyle>
			</Style>
			<Polygon>
				<outerBoundaryIs>
					<LinearRing>
						<coordinates>
							64.3853317048,40.001270002,0 64.3857394006,40.0011713785,0 64.3860076215,40.0010439897,0 64.3863777664,40.0008878354,0 64.3866737969,40.0007680644,0 64.3867747333,40.0006371659,0 64.3871234205,40.0005015574,0 64.3874613788,40.0003371831,0 64.3874248154,40.0002585048,0 64.3873389848,40.000106458,0 64.3871780522,39.9998352387,0 64.3869902976,39.9995886747,0 64.3868454583,39.9993297815,0 64.386764992,39.9991736233,0 64.386469949,39.9986845991,0 64.3863572963,39.9984791257,0 64.3862285502,39.9984709067,0 64.3860193379,39.9984955635,0 64.3856760152,39.9985448772,0 64.3853434213,39.998577753,0 64.3852254041,39.998577753,0 64.3849830177,39.9985989007,0 64.384435847,39.9986769805,0 64.383947685,39.9987139657,0 64.3832717683,39.998779717,0 64.382767513,39.9988331399,0 64.382831886,39.9990961444,0 64.3829391744,39.999244084,0 64.3830089118,39.9993468196,0 64.3832985904,39.9999262456,0 64.3837223794,40.0006659313,0 64.3840227869,40.0011631599,0 64.3842051771,40.0014302647,0 64.3844090249,40.0014631391,0 64.3849079158,40.0014220461,0 64.3853317048,40.001270002,0
						</coordinates>
					</LinearRing>
				</outerBoundaryIs>
			</Polygon>
		</Placemark>
		<Placemark>
			<name>
				8757-2 пахта томчи 2026
			</name>
			<description>
				40.00082152412777, 64.38073533605552
			</description>
			<Style>
				<LineStyle>
					<color>
						99dbc200
					</color>
					<width>
						50.0
					</width>
				</LineStyle>
				<PolyStyle>
					<color>
						99dbc200
					</color>
				</PolyStyle>
			</Style>
			<Polygon>
				<outerBoundaryIs>
					<LinearRing>
						<coordinates>
							64.3807825025,40.0008323049,0 64.3809275176,40.0011343947,0 64.3813727643,40.0018781766,0 64.3817051824,40.0024636904,0 64.3818501975,40.0027452269,0 64.3819894965,40.0029198139,0 64.382343724,40.0028972678,0 64.3825903113,40.0028253021,0 64.3828799899,40.0027348993,0 64.3830893781,40.0031027279,0 64.3832020309,40.0032177853,0 64.3836095508,40.0030882912,0 64.3837760236,40.0032835323,0 64.3838886764,40.003365716,0 64.3841086175,40.0032712047,0 64.3848703649,40.0028602849,0 64.3849613841,40.0027266809,0 64.3846987035,40.0024534719,0 64.3844573047,40.0021288415,0 64.384537771,40.0020425472,0 64.3841837194,40.0015494342,0 64.3838886764,40.0010193338,0 64.3836149152,40.000544651,0 64.3834058788,40.0002385583,0 64.3833252366,40.0000802929,0 64.3832286771,39.9998789331,0 64.3831535752,39.9997268855,0 64.3830623801,39.9996036034,0 64.3829872783,39.9994556646,0 64.3828799899,39.9992419747,0 64.382842439,39.9990817068,0 64.3827512439,39.9989419858,0 64.3826707776,39.9988639062,0 64.3819948609,39.9988967818,0 64.3815227921,39.9989543141,0 64.3812438424,39.9989789708,0 64.3805841949,39.9990016273,0 64.380020931,39.9990591594,0 64.3798009899,39.9991249104,0 64.3799351003,39.9994454456,0 64.3800262954,39.9996796819,0 64.3801655944,39.9999364645,0 64.3802782472,40.0001213867,0 64.3805153949,40.0004557925,0 64.3805904968,40.0005914011,0 64.3807825025,40.0008323049,0
						</coordinates>
					</LinearRing>
				</outerBoundaryIs>
			</Polygon>
		</Placemark>
		<Placemark>
			<name>
				8752-2 пахта томчи 2026
			</name>
			<description>
				39.99947372631216, 64.37858946862748
			</description>
			<Style>
				<LineStyle>
					<color>
						99dbc200
					</color>
					<width>
						50.0
					</width>
				</LineStyle>
				<PolyStyle>
					<color>
						99dbc200
					</color>
				</PolyStyle>
			</Style>
			<Polygon>
				<outerBoundaryIs>
					<LinearRing>
						<coordinates>
							64.3785294469,39.9992337558,0 64.3788405831,39.9991803332,0 64.3791892703,39.9991680049,0 64.3794628556,39.9991392389,0 64.3795808728,39.9991967709,0 64.3796881612,39.9994145704,0 64.3798276361,39.9996405881,0 64.3799402888,39.9998172922,0 64.3800851281,40.0000350897,0 64.3802406962,40.0002611053,0 64.3803908999,40.0005158855,0 64.3805357392,40.0007418995,0 64.3806752141,40.0009596941,0 64.3808951552,40.0013172044,0 64.3811204608,40.0016993685,0 64.3812974866,40.0020527657,0 64.3811043675,40.0021431694,0 64.380879062,40.0022171359,0 64.3809219773,40.0024061611,0 64.3800153907,40.0026116227,0 64.3798169072,40.0022376821,0 64.3796076949,40.0017322428,0 64.3794145759,40.0013418602,0 64.3792536433,40.0009679127,0 64.3790819819,40.0005816351,0 64.3789371427,40.0002159022,0 64.3787923034,39.9999035894,0 64.3786528285,39.9995255246,0 64.3785294469,39.9992337558,0
						</coordinates>
					</LinearRing>
				</outerBoundaryIs>
			</Polygon>
		</Placemark>
		<Placemark>
			<name>
				8744-2 пахта томчи 2026
			</name>
			<description>
				40.001931169416046, 64.37597692188452
			</description>
			<Style>
				<LineStyle>
					<color>
						99dbc200
					</color>
					<width>
						50.0
					</width>
				</LineStyle>
				<PolyStyle>
					<color>
						99dbc200
					</color>
				</PolyStyle>
			</Style>
			<Polygon>
				<outerBoundaryIs>
					<LinearRing>
						<coordinates>
							64.3766437147,40.002695556,0 64.3771265123,40.0025394055,0 64.3770084951,40.0021654645,0 64.3772874449,40.0020668424,0 64.3777058695,40.001996985,0 64.3782852266,40.0018819255,0 64.378880677,40.0017504288,0 64.3793688391,40.0016394782,0 64.3792937372,40.0014874345,0 64.3792347286,40.0013477184,0 64.3791435335,40.001154581,0 64.3789141166,40.0006121205,0 64.3787209976,40.0002011847,0 64.3785868871,39.9998847624,0 64.3783442352,39.9993793346,0 64.3776683185,39.9994656324,0 64.3771265123,39.9995108359,0 64.3763003919,39.9995889147,0 64.3762521122,39.9994081006,0 64.3760643575,39.9994204288,0 64.375608382,39.9994902889,0 64.3752221439,39.9995272736,0 64.374760804,39.9995724771,0 64.3752180326,40.0007559475,0 64.3753347967,40.0010230828,0 64.3754742716,40.0013353905,0 64.3757263992,40.0019641109,0 64.3760911796,40.0028188325,0 64.3766437147,40.002695556,0
						</coordinates>
					</LinearRing>
				</outerBoundaryIs>
			</Polygon>
		</Placemark>
		<Placemark>
			<name>
				8745-2 пахта томчи 2026
			</name>
			<description>
				40.00388722896834, 64.36894406963178
			</description>
			<Style>
				<LineStyle>
					<color>
						99dbc200
					</color>
					<width>
						50.0
					</width>
				</LineStyle>
				<PolyStyle>
					<color>
						99dbc200
					</color>
				</PolyStyle>
			</Style>
			<Polygon>
				<outerBoundaryIs>
					<LinearRing>
						<coordinates>
							64.3689681308,40.0039038722,0 64.3692325312,40.0039347375,0 64.3695651251,40.0039224101,0 64.370128389,40.0038977552,0 64.3708257633,40.003893646,0 64.371372934,40.0038854277,0 64.3718128162,40.0038895369,0 64.3720151203,40.0038751081,0 64.3722419697,40.0038731003,0 64.3724404531,40.0038731003,0 64.3728547053,40.0038667024,0 64.3732141213,40.0038954665,0 64.3736727254,40.003870999,0 64.374064328,40.0038340166,0 64.3746490495,40.0038011434,0 64.3747885244,40.003661432,0 64.3750728385,40.0035422662,0 64.3754161613,40.0044832595,0 64.3755395429,40.0047421332,0 64.3760169761,40.0047174786,0 64.3764568584,40.0046311874,0 64.3769825714,40.004536678,0 64.3772776144,40.0045407871,0 64.3778408782,40.0044544958,0 64.3778462427,40.0042819127,0 64.3775887506,40.0036121221,0 64.377336623,40.0029957445,0 64.3771488683,40.0026670075,0 64.3764675872,40.0028560315,0 64.3751533048,40.0031683308,0 64.3749295431,40.0031950872,0 64.3747026937,40.0032176411,0 64.3745363967,40.0028354854,0 64.3742252605,40.0028108302,0 64.3737156408,40.0028683591,0 64.3733186738,40.0028806867,0 64.3729727225,40.0029421374,0 64.3728600697,40.0029462466,0 64.3726186709,40.0029750111,0 64.3722646193,40.0029914479,0 64.371991034,40.0030119939,0 64.37173235,40.0030307194,0 64.3713043885,40.0030736319,0 64.3709664302,40.0030982871,0 64.3706392007,40.0031229422,0 64.3702839571,40.0031416677,0 64.3698279816,40.0031745413,0 64.3694846588,40.0032074148,0 64.369308825,40.0032297812,0 64.369076963,40.0032526159,0 64.3689547734,40.0032832006,0 64.368885036,40.00333662,0 64.3688876646,40.0034765195,0 64.3689333157,40.0036365896,0 64.3689601378,40.0038091743,0 64.3689681308,40.0039038722,0
						</coordinates>
					</LinearRing>
				</outerBoundaryIs>
			</Polygon>
		</Placemark>
		<Placemark>
			<name>
				8744-2 пахта томчи 2026
			</name>
			<description>
				40.003159963353376, 64.36884743494612
			</description>
			<Style>
				<LineStyle>
					<color>
						99dbc200
					</color>
					<width>
						50.0
					</width>
				</LineStyle>
				<PolyStyle>
					<color>
						99dbc200
					</color>
				</PolyStyle>
			</Style>
			<Polygon>
				<outerBoundaryIs>
					<LinearRing>
						<coordinates>
							64.3688762133,40.0032565135,0 64.3694448416,40.0032113124,0 64.3699008172,40.0031620021,0 64.3705874627,40.0031126918,0 64.3712667875,40.0030407967,0 64.3718139581,40.0029586126,0 64.3722055606,40.0029627218,0 64.3725721214,40.0029297812,0 64.3729690883,40.0028804707,0 64.3733714197,40.0027941772,0 64.3739883278,40.0027571943,0 64.37465888,40.002695556,0 64.3746857021,40.0027654127,0 64.3746481512,40.0028517062,0 64.3746803377,40.0030653849,0 64.3747876261,40.003110586,0 64.376069722,40.0028270509,0 64.3756566618,40.0018038494,0 64.3755064581,40.0014545602,0 64.3752865169,40.0009655523,0 64.3749646518,40.0001847762,0 64.3747125242,39.9995930241,0 64.3739561413,39.9996711028,0 64.373054919,39.9998026036,0 64.371912298,39.9999587604,0 64.3710593555,40.00009437,0 64.3703995321,40.0001806668,0 64.3698899124,40.0002505261,0 64.3698952768,40.0004149006,0 64.3699650142,40.000690227,0 64.3700081055,40.0008854716,0 64.3695574944,40.0009882048,0 64.3691068833,40.0011813427,0 64.3690103238,40.0013909173,0 64.3689674084,40.0014731032,0 64.3688547557,40.0015429612,0 64.3686187213,40.0016374748,0 64.368409509,40.0017484253,0 64.3685007041,40.0021470241,0 64.3685865348,40.0024182343,0 64.368768925,40.0029113409,0 64.3688762133,40.0032565135,0
						</coordinates>
					</LinearRing>
				</outerBoundaryIs>
			</Polygon>
		</Placemark>
		<Placemark>
			<name>
				8739-2 пахта томчи 2026
			</name>
			<description>
				40.00464342328254, 64.36497424996811
			</description>
			<Style>
				<LineStyle>
					<color>
						99dbc200
					</color>
					<width>
						50.0
					</width>
				</LineStyle>
				<PolyStyle>
					<color>
						99dbc200
					</color>
				</PolyStyle>
			</Style>
			<Polygon>
				<outerBoundaryIs>
					<LinearRing>
						<coordinates>
							64.3649944545,40.0045571513,0 64.3653270484,40.0044667508,0 64.3662175418,40.0042489674,0 64.3666788817,40.0041544575,0 64.3674030782,40.0039777645,0 64.3680414439,40.0038462718,0 64.3684866906,40.0037271063,0 64.3687186138,40.0036942139,0 64.36879908,40.0036325764,0 64.3688353778,40.0035175389,0 64.3688353778,40.0034107004,0 64.3688312665,40.0032380955,0 64.3687722579,40.0030942738,0 64.3687293426,40.002934015,0 64.3686864272,40.0028189571,0 64.3686435119,40.0026710253,0 64.3686005966,40.0025354208,0 64.3685576812,40.0023874884,0 64.3685147659,40.0022066816,0 64.3684825794,40.0020792948,0 64.3684557573,40.0019601262,0 64.3684289352,40.0018573945,0 64.3683538333,40.0017957554,0 64.3680641548,40.0019025965,0 64.3675210954,40.0021656083,0 64.3671200172,40.0023381775,0 64.366823721,40.0024738015,0 64.3665889398,40.0025724039,0 64.3662509815,40.0026956806,0 64.3660042182,40.0028189571,0 64.3657025577,40.0029751262,0 64.3654034034,40.003077837,0 64.3651351825,40.0031928945,0 64.3647918598,40.0033243884,0 64.364565301,40.0034517922,0 64.3645277501,40.0035380848,0 64.3645813943,40.0037353246,0 64.3646457673,40.0039037999,0 64.3647060291,40.0041544383,0 64.3647852422,40.0043393682,0 64.3648335219,40.004474969,0 64.3648710729,40.0045653695,0 64.3649944545,40.0045571513,0
						</coordinates>
					</LinearRing>
				</outerBoundaryIs>
			</Polygon>
		</Placemark>
		<Placemark>
			<name>
				8586-2 пахта томчи 2026
			</name>
			<description>
				40.01075586211191, 64.41280996674018
			</description>
			<Style>
				<LineStyle>
					<color>
						99dbc200
					</color>
					<width>
						50.0
					</width>
				</LineStyle>
				<PolyStyle>
					<color>
						99dbc200
					</color>
				</PolyStyle>
			</Style>
			<Polygon>
				<outerBoundaryIs>
					<LinearRing>
						<coordinates>
							64.4128289181,40.0107271562,0 64.4129415709,40.0107394824,0 64.4131025034,40.0108134397,0 64.4133009869,40.0109120491,0 64.4135745722,40.0110229846,0 64.4139500815,40.0111462461,0 64.414507981,40.0112736161,0 64.4148834902,40.0113352466,0 64.4153501946,40.0114050945,0 64.4157121169,40.0114091479,0 64.4159213292,40.0113762783,0 64.4159159648,40.0113023217,0 64.4157925832,40.0109612986,0 64.4157335746,40.0107558621,0 64.4156692015,40.010616165,0 64.4156209218,40.0104887938,0 64.4155350911,40.0102915735,0 64.415484305,40.0101026254,0 64.4153527009,40.0097944113,0 64.4152400481,40.0094821423,0 64.4151381242,40.009239722,0 64.4150683867,40.0091082394,0 64.4150362002,40.0089973008,0 64.4148967254,40.0087302256,0 64.4147922951,40.0085659264,0 64.4146528203,40.0083604827,0 64.4144783007,40.0080645875,0 64.4143388259,40.0078673601,0 64.414199351,40.0076660233,0 64.4141081559,40.0075057752,0 64.4139794099,40.0073619624,0 64.4138506638,40.0071811689,0 64.413673638,40.0069346314,0 64.4135770785,40.0068072533,0 64.4135073411,40.0067538367,0 64.4133946883,40.0067497277,0 64.4129362065,40.0068319624,0 64.4126275765,40.0068812148,0 64.4120160329,40.00697983,0 64.4116029727,40.0070455734,0 64.411388396,40.007078445,0 64.4112757432,40.0071400793,0 64.4113937604,40.0074646858,0 64.4116512524,40.0080193896,0 64.4120510775,40.0089110703,0 64.4123486268,40.0096095154,0 64.4126436698,40.0103655311,0 64.4127402293,40.0106408174,0 64.4128289181,40.0107271562,0
						</coordinates>
					</LinearRing>
				</outerBoundaryIs>
			</Polygon>
		</Placemark>
		<Placemark>
			<name>
				8588-2 пахта томчи 2026
			</name>
			<description>
				40.01284936491967, 64.4136385939154
			</description>
			<Style>
				<LineStyle>
					<color>
						99dbc200
					</color>
					<width>
						50.0
					</width>
				</LineStyle>
				<PolyStyle>
					<color>
						99dbc200
					</color>
				</PolyStyle>
			</Style>
			<Polygon>
				<outerBoundaryIs>
					<LinearRing>
						<coordinates>
							64.4137112396,40.0128422054,0 64.4140570185,40.0130999896,0 64.4144057057,40.0133711563,0 64.4147519367,40.0135653168,0 64.4148724101,40.013650539,0 64.4150308864,40.0138734586,0 64.41510308,40.0140408512,0 64.4152318261,40.0141928669,0 64.4153927586,40.0143489908,0 64.4155322335,40.014566742,0 64.4156556151,40.0147516245,0 64.4157843611,40.0147598415,0 64.415975024,40.0146992717,0 64.4161949651,40.0144568699,0 64.4163666265,40.0143500485,0 64.4165729306,40.0141764328,0 64.4167635934,40.014058343,0 64.416988899,40.0138981099,0 64.4172220252,40.0137121674,0 64.4174205086,40.0136299962,0 64.4176458142,40.0133916992,0 64.4178335688,40.0132355731,0 64.4179086707,40.0131780529,0 64.4179223077,40.0130353098,0 64.4178954856,40.0128627484,0 64.4178847568,40.0126367746,0 64.4178632991,40.0124477777,0 64.4178203838,40.0122423457,0 64.4178579347,40.0121560641,0 64.4180510538,40.0121026516,0 64.4183729188,40.0120697824,0 64.4187162416,40.0120081525,0 64.4190112846,40.0119711746,0 64.4191936748,40.0119177619,0 64.4193677924,40.0118345309,0 64.4192765973,40.0117112707,0 64.4192097681,40.0115479811,0 64.419131758,40.0114195539,0 64.4189440033,40.0114400974,0 64.4188045285,40.0114400974,0 64.4186006806,40.0114154452,0 64.4184612057,40.011378467,0 64.4182198069,40.011378467,0 64.4177667396,40.0114123942,0 64.4172624843,40.0114658073,0 64.4170908229,40.0114740247,0 64.4167957799,40.0114904594,0 64.4163690827,40.0114976191,0 64.4159482019,40.0115726332,0 64.4156638877,40.0115849592,0 64.4152991073,40.0115479811,0 64.4149850628,40.0114935104,0 64.4146768348,40.0114575899,0 64.4143871562,40.0114247203,0 64.4141482136,40.0113455974,0 64.4139121792,40.011296293,0 64.4136815093,40.011226445,0 64.4135985868,40.0112685897,0 64.4135181205,40.0113548725,0 64.4134805696,40.0114945681,0 64.4134644763,40.0116671329,0 64.4135020273,40.0119958265,0 64.4135127561,40.0122711062,0 64.4135824935,40.0124272345,0 64.4137112396,40.0128422054,0
						</coordinates>
					</LinearRing>
				</outerBoundaryIs>
			</Polygon>
		</Placemark>
		<Placemark>
			<name>
				8591-2 пахта томчи 2026
			</name>
			<description>
				40.00719579963929, 64.41804799520983
			</description>
			<Style>
				<LineStyle>
					<color>
						99dbc200
					</color>
					<width>
						50.0
					</width>
				</LineStyle>
				<PolyStyle>
					<color>
						99dbc200
					</color>
				</PolyStyle>
			</Style>
			<Polygon>
				<outerBoundaryIs>
					<LinearRing>
						<coordinates>
							64.4180226022,40.007183492,0 64.4184717842,40.0069985698,0 64.4186287814,40.0069492814,0 64.418815107,40.0069246084,0 64.4190296837,40.0068342111,0 64.4188902088,40.0065835634,0 64.4186073237,40.0061603557,0 64.4183966824,40.0057617612,0 64.4184342333,40.0056590352,0 64.4184020468,40.0055686362,0 64.4181713768,40.0052111482,0 64.4180211731,40.0049152946,0 64.4178602406,40.0046851853,0 64.4176202708,40.0043523665,0 64.4175115534,40.0041592184,0 64.4174271518,40.0039825447,0 64.4172554904,40.0040154178,0 64.4170301848,40.0040441818,0 64.4166493111,40.004171565,0 64.4160577961,40.0043441291,0 64.4150024348,40.0046975318,0 64.4154262238,40.0054248386,0 64.4157212668,40.0058069798,0 64.4157051736,40.0058439611,0 64.4161289626,40.0064726399,0 64.416595667,40.0071547293,0 64.4170355492,40.0070602234,0 64.4173037701,40.0074629,0 64.4177114659,40.0072985425,0 64.4180226022,40.007183492,0
						</coordinates>
					</LinearRing>
				</outerBoundaryIs>
			</Polygon>
		</Placemark>
		<Placemark>
			<name>
				8671-2 пахта томчи 2026
			</name>
			<description>
				40.00416745585765, 64.41619724593644
			</description>
			<Style>
				<LineStyle>
					<color>
						99dbc200
					</color>
					<width>
						50.0
					</width>
				</LineStyle>
				<PolyStyle>
					<color>
						99dbc200
					</color>
				</PolyStyle>
			</Style>
			<Polygon>
				<outerBoundaryIs>
					<LinearRing>
						<coordinates>
							64.4161972459,40.0041674559,0 64.4168316763,40.0040257099,0 64.4171215308,40.0039076126,0 64.4165421736,40.0021324378,0 64.4162042153,40.0009612903,0 64.4160003674,40.0010229302,0 64.4159252656,40.0010434768,0 64.415801708,40.0010341902,0 64.4155764025,40.0010547368,0 64.4152706306,40.0011122672,0 64.4151096981,40.0011903442,0 64.4151794355,40.0014656675,0 64.4153028171,40.0018231751,0 64.4155427869,40.0025402203,0 64.4157680925,40.0031812571,0 64.4159719404,40.0036497033,0 64.4160792287,40.0039948721,0 64.4161972459,40.0041674559,0
						</coordinates>
					</LinearRing>
				</outerBoundaryIs>
			</Polygon>
		</Placemark>
		<Placemark>
			<name>
				8672-2 пахта томчи 2026
			</name>
			<description>
				40.00472017025394, 64.41477830721443
			</description>
			<Style>
				<LineStyle>
					<color>
						99dbc200
					</color>
					<width>
						50.0
					</width>
				</LineStyle>
				<PolyStyle>
					<color>
						99dbc200
					</color>
				</PolyStyle>
			</Style>
			<Polygon>
				<outerBoundaryIs>
					<LinearRing>
						<coordinates>
							64.414765072,40.0046421357,0 64.4149474622,40.00457639,0 64.4150386574,40.0045270807,0 64.4150118353,40.0044613349,0 64.4160149814,40.0041284959,0 64.4159906657,40.0039312188,0 64.4157975466,40.003544958,0 64.4157331736,40.0032819706,0 64.4155429126,40.00286698,0 64.4154542239,40.0025751871,0 64.4152718337,40.0021149521,0 64.4151752741,40.0016958067,0 64.415057257,40.0012930961,0 64.4149850132,40.0011904018,0 64.4148401739,40.0011986204,0 64.4146792413,40.0012191669,0 64.414470029,40.00089864,0 64.4140194179,40.0010260291,0 64.4142018081,40.0014081949,0 64.4136760952,40.0016054409,0 64.4136625083,40.0017779923,0 64.4134908469,40.0018848334,0 64.4132333548,40.0019505817,0 64.4129973204,40.0020163299,0 64.4128149302,40.0020163299,0 64.4126754553,40.0021067336,0 64.4129222186,40.0024519102,0 64.4134400608,40.0030806586,0 64.4140194179,40.0037792186,0 64.4143706114,40.0042352949,0 64.4145744593,40.00462977,0 64.414765072,40.0046421357,0
						</coordinates>
					</LinearRing>
				</outerBoundaryIs>
			</Polygon>
		</Placemark>
		<Placemark>
			<name>
				8674-2 пахта томчи 2026
			</name>
			<description>
				40.00321215284507, 64.4102292306449
			</description>
			<Style>
				<LineStyle>
					<color>
						99dbc200
					</color>
					<width>
						50.0
					</width>
				</LineStyle>
				<PolyStyle>
					<color>
						99dbc200
					</color>
				</PolyStyle>
			</Style>
			<Polygon>
				<outerBoundaryIs>
					<LinearRing>
						<coordinates>
							64.4103647702,40.0033662664,0 64.4107241862,40.003592271,0 64.4112981789,40.0033169563,0 64.4118668072,40.0030457496,0 64.412043833,40.0029142551,0 64.4117205389,40.0025259148,0 64.4119580023,40.0024416947,0 64.4120960481,40.0023368899,0 64.4121296637,40.0022855435,0 64.4120491974,40.0021581568,0 64.4119365446,40.0020102236,0 64.4118024342,40.0018705085,0 64.4116951458,40.0016486076,0 64.4116078861,40.0014862715,0 64.4115005977,40.0014123042,0 64.411325001,40.0014965639,0 64.4107080929,40.0017677767,0 64.4099302523,40.0021252828,0 64.4095332854,40.0023184175,0 64.4093026154,40.002429367,0 64.4092382424,40.0025156609,0 64.4093294375,40.0026677023,0 64.409515763,40.0028669801,0 64.4097142465,40.002965601,0 64.4099878318,40.0031053138,0 64.4101165779,40.0032080437,0 64.4103647702,40.0033662664,0
						</coordinates>
					</LinearRing>
				</outerBoundaryIs>
			</Polygon>
		</Placemark>
		<Placemark>
			<name>
				8645-2 пахта томчи 2026
			</name>
			<description>
				40.00040146708737, 64.41943986123704
			</description>
			<Style>
				<LineStyle>
					<color>
						99dbc200
					</color>
					<width>
						50.0
					</width>
				</LineStyle>
				<PolyStyle>
					<color>
						99dbc200
					</color>
				</PolyStyle>
			</Style>
			<Polygon>
				<outerBoundaryIs>
					<LinearRing>
						<coordinates>
							64.4194398612,40.0004014671,0 64.41968126,40.0003110611,0 64.420078227,40.0002042176,0 64.4203839988,40.0000973739,0 64.4206093044,39.9999782019,0 64.4207823948,39.9998919239,0 64.4209594206,39.9998097361,0 64.4208710247,39.9995394926,0 64.4205502958,39.9989179726,0 64.4204444365,39.998667315,0 64.4203249902,39.998433056,0 64.420232659,39.9984011764,0 64.4200395399,39.9984628186,0 64.4196693951,39.9985778838,0 64.4190310293,39.9987422623,0 64.418591147,39.9988943121,0 64.4184957237,39.9990741314,0 64.418462401,39.9991778635,0 64.4183443838,39.9992929275,0 64.4184409433,39.9994079913,0 64.4187949949,39.9995353832,0 64.4189423994,39.9998426112,0 64.4191730694,40.0001877993,0 64.4192749934,40.000352174,0 64.4194398612,40.0004014671,0
						</coordinates>
					</LinearRing>
				</outerBoundaryIs>
			</Polygon>
		</Placemark>
		<Placemark>
			<name>
				8646-2 пахта томчи 2026
			</name>
			<description>
				39.998765942025344, 64.42059855047717
			</description>
			<Style>
				<LineStyle>
					<color>
						99dbc200
					</color>
					<width>
						50.0
					</width>
				</LineStyle>
				<PolyStyle>
					<color>
						99dbc200
					</color>
				</PolyStyle>
			</Style>
			<Polygon>
				<outerBoundaryIs>
					<LinearRing>
						<coordinates>
							64.4205985505,39.998765942,0 64.4207100922,39.9990669087,0 64.4209353977,39.9995271643,0 64.4212250763,39.9998148225,0 64.4215844923,39.9997696192,0 64.4218419844,39.999757291,0 64.4219331795,39.9998764634,0 64.4221102053,40.0000737138,0 64.4223569685,39.999999745,0 64.4225286299,39.9998682446,0 64.4229309612,39.9995970243,0 64.4227271133,39.9994819608,0 64.4219546371,39.9992847086,0 64.4209729486,39.9989518444,0 64.4208442026,39.9988491081,0 64.4215308481,39.9990586899,0 64.4220780188,39.9992600521,0 64.4223730618,39.999317584,0 64.4229052252,39.9994563465,0 64.4233558363,39.99957141,0 64.4237742609,39.9996535981,0 64.4242463297,39.999744005,0 64.4243804401,39.9997152392,0 64.4243750757,39.9996248323,0 64.4242774302,39.9993258029,0 64.4241658634,39.9989714338,0 64.424121862,39.9987833569,0 64.4239834732,39.9984166565,0 64.4239180141,39.9981669357,0 64.423826819,39.9980066653,0 64.4237034374,39.9979203657,0 64.423504954,39.9977929708,0 64.4233332926,39.9975998233,0 64.4231841749,39.9975659893,0 64.4230929798,39.9975577702,0 64.4226466471,39.9976943424,0 64.4219503588,39.9979070793,0 64.4213860088,39.9980518698,0 64.4207959229,39.9982244686,0 64.4204161352,39.9983714522,0 64.4204054064,39.9984536418,0 64.4205395168,39.9987207572,0 64.4205985505,39.998765942,0
						</coordinates>
					</LinearRing>
				</outerBoundaryIs>
			</Polygon>
		</Placemark>
		<Placemark>
			<name>
				8635-2 пахта томчи 2026
			</name>
			<description>
				40.00445014945912, 64.43075736780324
			</description>
			<Style>
				<LineStyle>
					<color>
						99dbc200
					</color>
					<width>
						50.0
					</width>
				</LineStyle>
				<PolyStyle>
					<color>
						99dbc200
					</color>
				</PolyStyle>
			</Style>
			<Polygon>
				<outerBoundaryIs>
					<LinearRing>
						<coordinates>
							64.4308088273,40.0044506476,0 64.4319804551,40.0048939324,0 64.433364475,40.0054116755,0 64.4344159009,40.0058143619,0 64.4353417605,40.0061312548,0 64.436092779,40.0064599751,0 64.4363341778,40.0063736862,0 64.4362215251,40.0061600179,0 64.4359072091,40.0056253462,0 64.435540244,40.0050711211,0 64.4351271838,40.0044506476,0 64.4347463101,40.003817841,0 64.4345339181,40.0034886098,0 64.4342442395,40.0034803915,0 64.4336734265,40.0036411472,0 64.433474943,40.0033863785,0 64.4329814166,40.0027042515,0 64.432756111,40.0023590761,0 64.4326220006,40.002190597,0 64.4322572201,40.002272782,0 64.4321735742,40.0021736619,0 64.4320233705,40.0019024508,0 64.4318978041,40.0017961078,0 64.4317046851,40.0018248727,0 64.4311972501,40.0018613581,0 64.4308217408,40.0019106693,0 64.4305888861,40.0019481508,0 64.4305835217,40.0022481265,0 64.430562064,40.0029836778,0 64.4305406064,40.0037110029,0 64.4305727929,40.0041712272,0 64.4308088273,40.0044506476,0
						</coordinates>
					</LinearRing>
				</outerBoundaryIs>
			</Polygon>
		</Placemark>
		<Placemark>
			<name>
				8636-2 пахта томчи 2026
			</name>
			<description>
				40.00326671414299, 64.42803224344416
			</description>
			<Style>
				<LineStyle>
					<color>
						99dbc200
					</color>
					<width>
						50.0
					</width>
				</LineStyle>
				<PolyStyle>
					<color>
						99dbc200
					</color>
				</PolyStyle>
			</Style>
			<Polygon>
				<outerBoundaryIs>
					<LinearRing>
						<coordinates>
							64.4280676097,40.0032261204,0 64.4284860343,40.0033904877,0 64.4290514829,40.0036036666,0 64.4296286553,40.0038055135,0 64.4301436394,40.0040479531,0 64.4303904027,40.0041013719,0 64.4303850382,40.0038712599,0 64.4304118603,40.0033699418,0 64.430433318,40.002848074,0 64.4304569604,40.0025681489,0 64.4304601401,40.0021988155,0 64.4304440468,40.001874184,0 64.4304569604,40.0016476757,0 64.4304462316,40.0014586484,0 64.4304462316,40.0011381226,0 64.4304247739,40.0010066244,0 64.4305084199,40.0005797517,0 64.4305727929,40.0003414091,0 64.4305191487,40.0002592219,0 64.430285299,40.000250505,0 64.4300041646,40.0002551125,0 64.429714486,40.0002592219,0 64.4293818921,40.0002592219,0 64.4290622117,40.0002833799,0 64.4287381619,40.0003044249,0 64.4283970239,40.0002915986,0 64.4281856269,40.0002962062,0 64.4280622452,40.0003660653,0 64.4280407876,40.0008838428,0 64.4280407876,40.0016194088,0 64.4279893281,40.0018860137,0 64.4280000569,40.0024941828,0 64.4279785993,40.0027982653,0 64.4279893281,40.0031270017,0 64.4280676097,40.0032261204,0
						</coordinates>
					</LinearRing>
				</outerBoundaryIs>
			</Polygon>
		</Placemark>
		<Placemark>
			<name>
				8637-2 пахта томчи 2026
			</name>
			<description>
				40.002559949681796, 64.42598837512085
			</description>
			<Style>
				<LineStyle>
					<color>
						99dbc200
					</color>
					<width>
						50.0
					</width>
				</LineStyle>
				<PolyStyle>
					<color>
						99dbc200
					</color>
				</PolyStyle>
			</Style>
			<Polygon>
				<outerBoundaryIs>
					<LinearRing>
						<coordinates>
							64.4259883751,40.0025599497,0 64.4261010279,40.0027037725,0 64.4263638844,40.0027777384,0 64.4266964783,40.0028969056,0 64.4271288365,40.0030453159,0 64.4275386919,40.0031352393,0 64.4278927435,40.0032092047,0 64.42792493,40.0030859289,0 64.4279410233,40.0027571924,0 64.4279410233,40.0025394035,0 64.4279356589,40.0022681938,0 64.4279517521,40.0020134201,0 64.427962481,40.001857268,0 64.4279302944,40.001812066,0 64.4279195656,40.0016970062,0 64.4279410233,40.0015285255,0 64.4279302944,40.0013025142,0 64.4279571165,40.0009244571,0 64.4279517521,40.0006326943,0 64.4279678454,40.0003984612,0 64.4279463877,40.0002998366,0 64.4278659214,40.0002792897,0 64.4276245226,40.0003121647,0 64.4274582257,40.0003080553,0 64.4273133864,40.0003121647,0 64.4270237078,40.0003244928,0 64.4268359532,40.0003327115,0 64.4265409102,40.0003532583,0 64.4263477911,40.0004107893,0 64.4262405028,40.000419008,0 64.4261385788,40.00040668,0 64.4259722819,40.000419008,0 64.4258220782,40.0004354455,0 64.4256450524,40.0004436642,0 64.4254948487,40.0004477735,0 64.4253821959,40.000464211,0 64.4253017296,40.0005258512,0 64.4252749075,40.0006943344,0 64.425307094,40.0008710359,0 64.4254197468,40.0010723927,0 64.4255109419,40.0013436072,0 64.4256504168,40.001692897,0 64.425832807,40.0021202608,0 64.4259293665,40.0024079081,0 64.4259883751,40.0025599497,0
						</coordinates>
					</LinearRing>
				</outerBoundaryIs>
			</Polygon>
		</Placemark>
		<Placemark>
			<name>
				8631-2 пахта томчи 2026
			</name>
			<description>
				40.00031220304744, 64.42511392487403
			</description>
			<Style>
				<LineStyle>
					<color>
						99dbc200
					</color>
					<width>
						50.0
					</width>
				</LineStyle>
				<PolyStyle>
					<color>
						99dbc200
					</color>
				</PolyStyle>
			</Style>
			<Polygon>
				<outerBoundaryIs>
					<LinearRing>
						<coordinates>
							64.4251139249,40.000312203,0 64.42520512,40.000402609,0 64.4253875102,40.0004190464,0 64.4255484427,40.0003902809,0 64.4258005704,40.0003820622,0 64.4260312404,40.0003491873,0 64.4262994613,40.0003409686,0 64.4265194024,40.0002916562,0 64.4268466319,40.0002793281,0 64.4271524037,40.0002546719,0 64.4276620234,40.0002464532,0 64.428053626,40.0002464532,0 64.4283272113,40.0002135782,0 64.4284505929,40.000188922,0 64.4284881438,40.0001313908,0 64.4283983778,39.9999834803,0 64.4282964538,39.9998273236,0 64.4281462501,39.9995478843,0 64.4279692243,39.9992273495,0 64.4279048513,39.9990670816,0 64.4278175916,39.9988656917,0 64.4277478541,39.9987300796,0 64.4276888455,39.9986067958,0 64.4276191081,39.9984835117,0 64.4273898672,39.9985040862,0 64.4269875359,39.9985862756,0 64.4266388487,39.9986479176,0 64.4264028143,39.9986766838,0 64.4262257885,39.9987218879,0 64.4260219406,39.9987547636,0 64.4258127283,39.9987712014,0 64.4255927872,39.9987794203,0 64.4253674816,39.9988081865,0 64.425038823,39.9988410349,0 64.4248578619,39.9988698283,0 64.4247130226,39.9988903755,0 64.4246379208,39.9989972211,0 64.4247169579,39.9992848544,0 64.4248510684,39.9996218264,0 64.4249583568,39.9999094842,0 64.4250495519,40.000156047,0 64.4251139249,40.000312203,0
						</coordinates>
					</LinearRing>
				</outerBoundaryIs>
			</Polygon>
		</Placemark>
		<Placemark>
			<name>
				8629-2 пахта томчи 2026
			</name>
			<description>
				39.998791721501334, 64.42455602539877
			</description>
			<Style>
				<LineStyle>
					<color>
						99dbc200
					</color>
					<width>
						50.0
					</width>
				</LineStyle>
				<PolyStyle>
					<color>
						99dbc200
					</color>
				</PolyStyle>
			</Style>
			<Polygon>
				<outerBoundaryIs>
					<LinearRing>
						<coordinates>
							64.4245639598,39.9987673238,0 64.4246311273,39.9988204877,0 64.4248832549,39.998795831,0 64.4250924672,39.9987341891,0 64.4253660525,39.9986930945,0 64.4255913581,39.9986643283,0 64.4258112992,39.9986807661,0 64.4260795201,39.998635562,0 64.4262565459,39.9986026863,0 64.4263262833,39.9985451537,0 64.4262726392,39.998315023,0 64.4261975373,39.9981424245,0 64.4261438931,39.997965716,0 64.4261063422,39.9978794163,0 64.4259829606,39.9975999691,0 64.4258675134,39.9974111896,0 64.4258353269,39.9972879033,0 64.4257870471,39.9971605073,0 64.425695852,39.9970947544,0 64.4255939281,39.9969796867,0 64.4255055274,39.9969218937,0 64.4254089679,39.9969218937,0 64.4250441874,39.9970123042,0 64.4245077456,39.9971561387,0 64.4242663468,39.9972054533,0 64.4240034903,39.9972835347,0 64.4239416873,39.9973906419,0 64.424129442,39.9977522804,0 64.4242903745,39.998155012,0 64.4244620359,39.9985330844,0 64.4245264089,39.9986933535,0 64.4245639598,39.9987673238,0
						</coordinates>
					</LinearRing>
				</outerBoundaryIs>
			</Polygon>
		</Placemark>
		<Placemark>
			<name>
				8630-2 пахта томчи 2026
			</name>
			<description>
				39.99853693479486, 64.42647112263539
			</description>
			<Style>
				<LineStyle>
					<color>
						99dbc200
					</color>
					<width>
						50.0
					</width>
				</LineStyle>
				<PolyStyle>
					<color>
						99dbc200
					</color>
				</PolyStyle>
			</Style>
			<Polygon>
				<outerBoundaryIs>
					<LinearRing>
						<coordinates>
							64.4264711226,39.9985369348,0 64.4266052331,39.998582139,0 64.4269135749,39.9985248654,0 64.4272193468,39.9984508949,0 64.4274875677,39.9984221285,0 64.4275493707,39.9983643368,0 64.4274367179,39.998113658,0 64.4273079718,39.9978999639,0 64.4272461688,39.997764609,0 64.4271577681,39.9976328453,0 64.4270773019,39.9975054499,0 64.4270236577,39.9973698352,0 64.426940397,39.9972385887,0 64.4268305386,39.9972383297,0 64.4266320552,39.9972917538,0 64.4264254129,39.9973331083,0 64.4262483871,39.9973742037,0 64.4260981834,39.9974235182,0 64.4260312404,39.9973944924,0 64.4259990538,39.9973164111,0 64.4260956134,39.9972835347,0 64.4261707152,39.9972424393,0 64.4264282073,39.9971643578,0 64.4266266908,39.9970903858,0 64.4267822589,39.9970451806,0 64.4268359031,39.9970246328,0 64.4267554368,39.996823264,0 64.4266642417,39.9966547713,0 64.4265945042,39.9966136754,0 64.4265086736,39.9966136754,0 64.4263638343,39.9966671,0 64.4261599864,39.9967123054,0 64.4259078587,39.9967821683,0 64.4257147397,39.996852031,0 64.4258273925,39.9970575093,0 64.4259346808,39.9973164111,0 64.4260097827,39.9974725736,0 64.426117071,39.9977191452,0 64.4262243594,39.9978670878,0 64.4262887324,39.9980437965,0 64.4263799275,39.9982780377,0 64.4264443005,39.9984711832,0 64.4264711226,39.9985369348,0
						</coordinates>
					</LinearRing>
				</outerBoundaryIs>
			</Polygon>
		</Placemark>
		<Placemark>
			<name>
				8632-2 пахта томчи 2026
			</name>
			<description>
				40.0002095072591, 64.42861683973845
			</description>
			<Style>
				<LineStyle>
					<color>
						99dbc200
					</color>
					<width>
						50.0
					</width>
				</LineStyle>
				<PolyStyle>
					<color>
						99dbc200
					</color>
				</PolyStyle>
			</Style>
			<Polygon>
				<outerBoundaryIs>
					<LinearRing>
						<coordinates>
							64.4286760243,40.0001848894,0 64.4290084423,40.0002136166,0 64.4294483245,40.0001807417,0 64.4299794019,40.0001643042,0 64.4302959026,40.0001519761,0 64.4305587591,40.0001396479,0 64.4306016744,40.0000697885,0 64.4305480302,39.9999218508,0 64.4304514707,39.9996917247,0 64.4302851737,39.9993342058,0 64.430097595,39.9989808329,0 64.4299901308,39.9987712126,0 64.4299257577,39.9986273815,0 64.429775554,39.998302733,0 64.4296253503,39.9980438349,0 64.4294644178,39.9977438407,0 64.4292927564,39.9974561738,0 64.4291264595,39.9971315197,0 64.4289708913,39.9968438503,0 64.42879923,39.9965191933,0 64.4286651195,39.9962890557,0 64.4285631956,39.9961452194,0 64.4284559072,39.9961370001,0 64.4282466949,39.9961780963,0 64.4278874548,39.9963137517,0 64.4276085051,39.9963753958,0 64.4273402842,39.9964493685,0 64.4270450653,39.9965068645,0 64.4267768444,39.9965726179,0 64.4266910137,39.9966507001,0 64.4269647749,39.9970206,0 64.4271257074,39.9973822405,0 64.4272383602,39.9975589505,0 64.4274100216,39.997854836,0 64.4275387676,39.9981301727,0 64.4278606327,39.9987096091,0 64.4281020315,39.9991452105,0 64.4282093199,39.999342463,0 64.4283434303,39.999630122,0 64.4284614475,39.9998438107,0 64.4285580071,40.0000205143,0 64.4286760243,40.0001848894,0
						</coordinates>
					</LinearRing>
				</outerBoundaryIs>
			</Polygon>
		</Placemark>
		<Placemark>
			<name>
				8633-2 пахта томчи 2026
			</name>
			<description>
				39.99873426584118, 64.4300249493757
			</description>
			<Style>
				<LineStyle>
					<color>
						99dbc200
					</color>
					<width>
						50.0
					</width>
				</LineStyle>
				<PolyStyle>
					<color>
						99dbc200
					</color>
				</PolyStyle>
			</Style>
			<Polygon>
				<outerBoundaryIs>
					<LinearRing>
						<coordinates>
							64.4301540973,39.9987343042,0 64.4301970127,39.9990219657,0 64.4303686741,39.999387705,0 64.4305617931,39.9997246766,0 64.4307119968,40.0001232872,0 64.4307173612,40.0006410665,0 64.4306100729,40.0008506427,0 64.4305832508,40.0012903398,0 64.4305296066,40.0015533348,0 64.4305778864,40.0018081102,0 64.4312806251,40.0017629082,0 64.4318760755,40.0016766133,0 64.4323266866,40.0013560886,0 64.4328899505,40.0011793884,0 64.4325305345,40.0005588796,0 64.4321872118,40.0001027403,0 64.4318868044,39.999626051,0 64.4312806251,39.9985699257,0 64.4310982349,39.998442532,0 64.4308993495,39.9980767493,0 64.4307974256,39.9979288072,0 64.4307276881,39.9978342884,0 64.430674044,39.997719222,0 64.4305935777,39.9975589505,0 64.4303307212,39.9972055301,0 64.4301697887,39.9969466279,0 64.4300249494,39.9967452588,0 64.4298747457,39.9964863549,0 64.4296655334,39.9961986827,0 64.4295206941,39.9960055307,0 64.4294563211,39.9959438863,0 64.4293865836,39.9959068997,0 64.4292739309,39.9959192285,0 64.4291455867,39.9959726921,0 64.4289578321,39.996038446,0 64.4287539842,39.9960836519,0 64.4285926498,39.9961164904,0 64.4286999381,39.9962973133,0 64.4289091504,39.9966466289,0 64.4291773713,39.9971726536,0 64.4294080413,39.9975589505,0 64.4296118892,39.9979452452,0 64.4298264659,39.9983274282,0 64.4299498475,39.9985822157,0 64.4301540973,39.9987343042,0
						</coordinates>
					</LinearRing>
				</outerBoundaryIs>
			</Polygon>
		</Placemark>
		<Placemark>
			<name>
				8627-2 пахта томчи 2026
			</name>
			<description>
				39.99644547961006, 64.42245278520936
			</description>
			<Style>
				<LineStyle>
					<color>
						99dbc200
					</color>
					<width>
						50.0
					</width>
				</LineStyle>
				<PolyStyle>
					<color>
						99dbc200
					</color>
				</PolyStyle>
			</Style>
			<Polygon>
				<outerBoundaryIs>
					<LinearRing>
						<coordinates>
							64.4225040233,39.9964290028,0 64.4226405398,39.9965400003,0 64.4229677693,39.9966756166,0 64.423244313,39.9968153039,0 64.4234267032,39.9970002345,0 64.4235822713,39.9971522882,0 64.4237539327,39.9971563977,0 64.4239255941,39.9970988639,0 64.424386934,39.9969920154,0 64.4246658838,39.9969139336,0 64.4249955194,39.9968441093,0 64.4253203428,39.9967618794,0 64.4255939281,39.9966755782,0 64.4258299625,39.9966262632,0 64.4257787244,39.9964783564,0 64.4256928937,39.9963427396,0 64.4256231563,39.9961824649,0 64.4255695121,39.9960550668,0 64.4254890458,39.9959071203,0 64.4253900802,39.9957098195,0 64.4252613342,39.9955166661,0 64.4251218593,39.9952043318,0 64.4250574863,39.9950563835,0 64.4249984777,39.9949372026,0 64.4249579684,39.9948139503,0 64.4248989598,39.9947112079,0 64.4248399512,39.9945632585,0 64.4247541205,39.9943742115,0 64.4247058408,39.9942673587,0 64.4246200101,39.9940824207,0 64.4245234506,39.9938810432,0 64.4244322555,39.9936755554,0 64.4243839757,39.9936015796,0 64.4242391364,39.9935974698,0 64.424091891,39.9936508584,0 64.4239202297,39.9937042853,0 64.423732475,39.9937700415,0 64.4235822713,39.9938810048,0 64.4234159744,39.9939673096,0 64.4232467191,39.9940166649,0 64.423091151,39.9940865305,0 64.4229355828,39.9941646154,0 64.4227078712,39.9942714301,0 64.4224020994,39.9944070509,0 64.4222089803,39.9944810258,0 64.4219944036,39.9945508909,0 64.4219085729,39.9946125366,0 64.4218978441,39.994731718,0 64.4220104968,39.994945422,0 64.4220802343,39.9951221383,0 64.4221392429,39.9953152928,0 64.4222089803,39.9954755696,0 64.4222411668,39.9956152977,0 64.4222894466,39.9958166701,0 64.4223484552,39.9959563975,0 64.4224342859,39.9961331112,0 64.4224718368,39.9962892764,0 64.4225040233,39.9964290028,0
						</coordinates>
					</LinearRing>
				</outerBoundaryIs>
			</Polygon>
		</Placemark>
		<Placemark>
			<name>
				8621-2 пахта томчи 2026
			</name>
			<description>
				40.00427598193526, 64.43672466907336
			</description>
			<Style>
				<LineStyle>
					<color>
						99dbc200
					</color>
					<width>
						50.0
					</width>
				</LineStyle>
				<PolyStyle>
					<color>
						99dbc200
					</color>
				</PolyStyle>
			</Style>
			<Polygon>
				<outerBoundaryIs>
					<LinearRing>
						<coordinates>
							64.4367246691,40.0042759819,0 64.4370840851,40.0041732537,0 64.4374971453,40.00400067,0 64.4379799429,40.00380754,0 64.4382910791,40.0036965928,0 64.4386558596,40.0035856454,0 64.4390313688,40.0033925143,0 64.4391011063,40.0033390949,0 64.439085013,40.003273348,0 64.4388006989,40.0030021412,0 64.4385432068,40.0027186057,0 64.4383447233,40.002504926,0 64.4381784264,40.0023405565,0 64.4380228582,40.0021885144,0 64.4378606727,40.0018762064,0 64.4378016641,40.0017241633,0 64.4376300028,40.0015639012,0 64.4374637058,40.0014036388,0 64.4373362127,40.0012187243,0 64.4372115782,40.0011447525,0 64.4370667389,40.0011159873,0 64.4366590431,40.0012967969,0 64.4365142038,40.0014077481,0 64.436374729,40.001518699,0 64.4362298897,40.0015228083,0 64.4356719902,40.0016666334,0 64.4353072098,40.0017734746,0 64.435065811,40.0018474415,0 64.4341592243,40.0021926195,0 64.4340197494,40.0022748044,0 64.4345186403,40.0030103555,0 64.4349102428,40.003655497,0 64.4352321079,40.0041362674,0 64.435425227,40.0044896519,0 64.4355378797,40.0046170343,0 64.4356988123,40.0046416889,0 64.4362298897,40.0044485608,0 64.4365195682,40.0043458329,0 64.4367246691,40.0042759819,0
						</coordinates>
					</LinearRing>
				</outerBoundaryIs>
			</Polygon>
		</Placemark>
		<Placemark>
			<name>
				8835-2 пахта томчи 2026
			</name>
			<description>
				39.9959432955397, 64.3677817893197
			</description>
			<Style>
				<LineStyle>
					<color>
						99dbc200
					</color>
					<width>
						50.0
					</width>
				</LineStyle>
				<PolyStyle>
					<color>
						99dbc200
					</color>
				</PolyStyle>
			</Style>
			<Polygon>
				<outerBoundaryIs>
					<LinearRing>
						<coordinates>
							64.3677817893,39.9959432955,0 64.3683826041,39.99589398,0 64.3689726901,39.9957953488,0 64.3693356423,39.9957008678,0 64.3695520473,39.9956145246,0 64.3700437454,39.9954419599,0 64.3704425407,39.995384384,0 64.37069284,39.9953268895,0 64.3705069137,39.9952528748,0 64.3701850486,39.9950638298,0 64.3698202682,39.9948747842,0 64.3696593356,39.9948008097,0 64.3693160129,39.9947268352,0 64.3690566925,39.9946118042,0 64.3687366557,39.9944391556,0 64.3685113502,39.9942418889,0 64.3683182311,39.9940199631,0 64.3679427219,39.9935761095,0 64.3676959586,39.9933541816,0 64.3675672126,39.9932226684,0 64.3675135684,39.9930336178,0 64.3674599242,39.9928199078,0 64.3673204494,39.9927952489,0 64.3670736861,39.9928856648,0 64.3666445327,39.9930007394,0 64.3663012099,39.9931158138,0 64.3661402774,39.9931404726,0 64.3661008982,39.9932144896,0 64.3661831927,39.9933870599,0 64.3665193228,39.9939254797,0 64.3668698383,39.9945377887,0 64.3672381548,39.9951378447,0 64.3674921107,39.9955569895,0 64.3676101279,39.9958446644,0 64.3677817893,39.9959432955,0
						</coordinates>
					</LinearRing>
				</outerBoundaryIs>
			</Polygon>
		</Placemark>
		<Placemark>
			<name>
				8816-2 пахта томчи 2026
			</name>
			<description>
				39.992990652869125, 64.3715554569668
			</description>
			<Style>
				<LineStyle>
					<color>
						99dbc200
					</color>
					<width>
						50.0
					</width>
				</LineStyle>
				<PolyStyle>
					<color>
						99dbc200
					</color>
				</PolyStyle>
			</Style>
			<Polygon>
				<outerBoundaryIs>
					<LinearRing>
						<coordinates>
							64.37153954,39.9929639433,0 64.3716843792,39.992906406,0 64.3719096848,39.9928324294,0 64.3721457192,39.992750233,0 64.372322745,39.9926803661,0 64.3723978468,39.9925981696,0 64.3723334738,39.9924050074,0 64.3722047278,39.9921132081,0 64.3723549315,39.9920351208,0 64.3725748726,39.9919529235,0 64.3725051352,39.9918131879,0 64.3724139401,39.9916241334,0 64.3722476431,39.9913569902,0 64.3720495287,39.9909954558,0 64.3718725029,39.9907077605,0 64.3717705789,39.9904488337,0 64.3716847482,39.9902392255,0 64.3716150108,39.9900378367,0 64.37153954,39.9898527493,0 64.3714057985,39.9897336973,0 64.3712123105,39.9897541093,0 64.3709172675,39.9898363093,0 64.3706923309,39.9899227571,0 64.370488483,39.989967967,0 64.370257444,39.9900171488,0 64.3700378719,39.9900871565,0 64.3695443455,39.9901981258,0 64.3683638045,39.9904856853,0 64.3686699453,39.9911105336,0 64.3689971748,39.9918379851,0 64.3695493409,39.9929844923,0 64.3698121974,39.9935064355,0 64.3701018759,39.9934776671,0 64.370590038,39.9933543737,0 64.370911903,39.9932762878,0 64.3712927767,39.9931242255,0 64.37153954,39.9929639433,0
						</coordinates>
					</LinearRing>
				</outerBoundaryIs>
			</Polygon>
		</Placemark>
		<Placemark>
			<name>
				8839-2 пахта томчи 2026
			</name>
			<description>
				39.99524089975642, 64.36324309080608
			</description>
			<Style>
				<LineStyle>
					<color>
						99dbc200
					</color>
					<width>
						50.0
					</width>
				</LineStyle>
				<PolyStyle>
					<color>
						99dbc200
					</color>
				</PolyStyle>
			</Style>
			<Polygon>
				<outerBoundaryIs>
					<LinearRing>
						<coordinates>
							64.3633773772,39.9943203803,0 64.3637260643,39.9942135274,0 64.3639406411,39.9941518814,0 64.3640747515,39.9941107841,0 64.3638439056,39.9936709881,0 64.3636186001,39.9931901441,0 64.3633772013,39.9926928574,0 64.3631358024,39.992170908,0 64.3629695055,39.9917763609,0 64.3627549288,39.9914146907,0 64.3626261827,39.9913818115,0 64.3623257753,39.991521548,0 64.3620951053,39.9916407348,0 64.36182152,39.9918749979,0 64.3615588395,39.9920353353,0 64.3618109671,39.9925696153,0 64.3619985458,39.9929846542,0 64.3621380207,39.9932928889,0 64.3624276993,39.993876476,0 64.3627390114,39.99447244,0 64.3629428593,39.9944231234,0 64.3633773772,39.9943203803,0
						</coordinates>
					</LinearRing>
				</outerBoundaryIs>
			</Polygon>
		</Placemark>
		<Placemark>
			<name>
				8840-2 пахта томчи 2026
			</name>
			<description>
				39.99552040931889, 64.36189925398797
			</description>
			<Style>
				<LineStyle>
					<color>
						99dbc200
					</color>
					<width>
						50.0
					</width>
				</LineStyle>
				<PolyStyle>
					<color>
						99dbc200
					</color>
				</PolyStyle>
			</Style>
			<Polygon>
				<outerBoundaryIs>
					<LinearRing>
						<coordinates>
							64.3619316164,39.9955101864,0 64.3621889326,39.9954752031,0 64.3625376197,39.9954012293,0 64.3628112051,39.9953272554,0 64.3630096885,39.9952984877,0 64.3630365106,39.9952491717,0 64.3629614088,39.9950395783,0 64.3628702137,39.9948217649,0 64.3627629253,39.9946368284,0 64.3626878234,39.9944970983,0 64.362553713,39.9941970885,0 64.3624625179,39.9940450282,0 64.3623605939,39.9938066628,0 64.3622801277,39.9936381627,0 64.3622425767,39.9935600771,0 64.3621352884,39.9933504785,0 64.362054998,39.9931594245,0 64.3619850847,39.9930340245,0 64.3618938896,39.9928367537,0 64.3618187877,39.9926518118,0 64.3617651435,39.9925120777,0 64.3616793128,39.9923189152,0 64.3615881177,39.9921463015,0 64.3614970985,39.9921607372,0 64.3613842699,39.9922326084,0 64.3611484114,39.9924607559,0 64.3608319107,39.992674467,0 64.3606441561,39.9927854322,0 64.3607351753,39.9929888166,0 64.360885379,39.9933299296,0 64.3611375066,39.9938847482,0 64.3613629881,39.994343035,0 64.3615400139,39.9947745545,0 64.3616473022,39.9950005875,0 64.3617653194,39.9952512777,0 64.3618350569,39.9954362126,0 64.3619316164,39.9955101864,0
						</coordinates>
					</LinearRing>
				</outerBoundaryIs>
			</Polygon>
		</Placemark>
		<Placemark>
			<name>
				8843-2 пахта томчи 2026
			</name>
			<description>
				39.99588416373454, 64.3604105778647
			</description>
			<Style>
				<LineStyle>
					<color>
						99dbc200
					</color>
					<width>
						50.0
					</width>
				</LineStyle>
				<PolyStyle>
					<color>
						99dbc200
					</color>
				</PolyStyle>
			</Style>
			<Polygon>
				<outerBoundaryIs>
					<LinearRing>
						<coordinates>
							64.360232663,39.9959355067,0 64.3607860871,39.9957978614,0 64.361118681,39.9957156687,0 64.3614244529,39.995654024,0 64.3617141314,39.9955923794,0 64.3617892333,39.9955471732,0 64.36177314,39.9954321029,0 64.3617248603,39.9952677164,0 64.3616674567,39.9950879946,0 64.361544075,39.9948167552,0 64.3614582444,39.9946482576,0 64.3613563204,39.994385236,0 64.3612474271,39.9942033043,0 64.3611133166,39.9938991834,0 64.3609577485,39.9935704027,0 64.360861189,39.993344365,0 64.360759265,39.9931512049,0 64.3607056209,39.9929950325,0 64.3606090613,39.9928142009,0 64.3605089306,39.9928758207,0 64.3603640913,39.9929662365,0 64.3601226925,39.9930936403,0 64.359988582,39.9931655618,0 64.3598410605,39.9932662516,0 64.3596559881,39.9933874903,0 64.3594923733,39.99348407,0 64.3592295169,39.9936587352,0 64.360232663,39.9959355067,0
						</coordinates>
					</LinearRing>
				</outerBoundaryIs>
			</Polygon>
		</Placemark>
		<Placemark>
			<name>
				8844-2 пахта томчи 2026
			</name>
			<description>
				39.99450541886756, 64.35778732732591
			</description>
			<Style>
				<LineStyle>
					<color>
						99dbc200
					</color>
					<width>
						50.0
					</width>
				</LineStyle>
				<PolyStyle>
					<color>
						99dbc200
					</color>
				</PolyStyle>
			</Style>
			<Polygon>
				<outerBoundaryIs>
					<LinearRing>
						<coordinates>
							64.3577774794,39.9945758082,0 64.3578946157,39.9947561109,0 64.3580984636,39.9951300924,0 64.3582495482,39.9954840479,0 64.3584471507,39.9958657204,0 64.3585982354,39.996145699,0 64.3587001593,39.9962607681,0 64.3588235409,39.9963018642,0 64.3590703042,39.9962813162,0 64.3594136269,39.9961580279,0 64.3596818478,39.9961004932,0 64.3598794504,39.9960424343,0 64.3601217301,39.9959895335,0 64.3603309424,39.9959361083,0 64.359209779,39.9936470076,0 64.3590747877,39.9937081298,0 64.3588548465,39.9938684103,0 64.3587421937,39.9939506053,0 64.3585124047,39.9940990803,0 64.3583246501,39.9942059334,0 64.3581950231,39.9943122621,0 64.3580617936,39.9943867613,0 64.3578999801,39.9944355537,0 64.3577980562,39.9944561023,0 64.3577774794,39.9945758082,0
						</coordinates>
					</LinearRing>
				</outerBoundaryIs>
			</Polygon>
		</Placemark>
		<Placemark>
			<name>
				8850-2 пахта томчи 2026
			</name>
			<description>
				39.9918383164258, 64.36071609913645
			</description>
			<Style>
				<LineStyle>
					<color>
						99dbc200
					</color>
					<width>
						50.0
					</width>
				</LineStyle>
				<PolyStyle>
					<color>
						99dbc200
					</color>
				</PolyStyle>
			</Style>
			<Polygon>
				<outerBoundaryIs>
					<LinearRing>
						<coordinates>
							64.3607645047,39.9918178547,0 64.3610433286,39.9916698114,0 64.3613491005,39.9914643169,0 64.3616816944,39.9912218326,0 64.3620142883,39.991004007,0 64.362293238,39.9908807091,0 64.3626151031,39.9908313899,0 64.362985248,39.9908026204,0 64.363344664,39.9907286415,0 64.36370408,39.9906752122,0 64.363832826,39.9906464426,0 64.3640314353,39.9906054308,0 64.3642621053,39.9906054308,0 64.3646590722,39.9905273417,0 64.3653510821,39.9904163729,0 64.36601627,39.990293074,0 64.3663005841,39.9902067647,0 64.3663434995,39.9900464756,0 64.3661772025,39.9896108161,0 64.3660860074,39.9893436651,0 64.36601627,39.9891340536,0 64.3659465325,39.9890313026,0 64.3649755729,39.9891422736,0 64.3644498599,39.9891957041,0 64.3641601813,39.9892080342,0 64.3638651383,39.9892696846,0 64.3633555186,39.9894012054,0 64.3631193584,39.9894668781,0 64.3627921289,39.9895614084,0 64.3623897976,39.9896970386,0 64.361998195,39.9898367786,0 64.3617354644,39.989914956,0 64.3615959895,39.9899519459,0 64.361381287,39.9900217281,0 64.3610969728,39.9901162576,0 64.3606678194,39.9902477768,0 64.3604639715,39.9903669658,0 64.3603031648,39.9904369227,0 64.3601046813,39.9904903521,0 64.3599275297,39.9905765735,0 64.3598470634,39.9906505526,0 64.359970445,39.9908519396,0 64.3601742929,39.9910656558,0 64.360329861,39.9912834812,0 64.3605068868,39.9914930862,0 64.3606088108,39.9916328224,0 64.3607053703,39.9917561189,0 64.3607645047,39.9918178547,0
						</coordinates>
					</LinearRing>
				</outerBoundaryIs>
			</Polygon>
		</Placemark>
		<Placemark>
			<name>
				8849-2 пахта томчи 2026
			</name>
			<description>
				39.99349050408643, 64.35848981554646
			</description>
			<Style>
				<LineStyle>
					<color>
						99dbc200
					</color>
					<width>
						50.0
					</width>
				</LineStyle>
				<PolyStyle>
					<color>
						99dbc200
					</color>
				</PolyStyle>
			</Style>
			<Polygon>
				<outerBoundaryIs>
					<LinearRing>
						<coordinates>
							64.3584898155,39.9934905041,0 64.358715297,39.9933467111,0 64.3590049756,39.9931576608,0 64.3593268407,39.9928946334,0 64.3596755279,39.9926644837,0 64.3598632825,39.9924959807,0 64.3600188506,39.9922945985,0 64.3601475966,39.9921671931,0 64.3603407157,39.9920315678,0 64.36052293,39.9919000029,0 64.3606194895,39.9918095857,0 64.3605765742,39.9917109486,0 64.3604853791,39.9915588828,0 64.3603619974,39.9914191464,0 64.3603029888,39.991308179,0 64.3601205986,39.9910698041,0 64.3599596661,39.990909517,0 64.3598201912,39.9907122401,0 64.359766547,39.9906547009,0 64.3595358771,39.9907738892,0 64.3592837494,39.9908560879,0 64.359112088,39.9909300667,0 64.3588009518,39.9910328148,0 64.3585649174,39.9911109033,0 64.3583771628,39.9911848818,0 64.358135764,39.9912465304,0 64.3578782719,39.9913205088,0 64.3576315087,39.9913903771,0 64.3574062031,39.9914725751,0 64.3572774571,39.991513674,0 64.3572881859,39.9916657399,0 64.3574383896,39.9919822002,0 64.3577066105,39.992380856,0 64.3580392044,39.9929110234,0 64.3582432282,39.9932151979,0 64.3583825272,39.993437077,0 64.3584898155,39.9934905041,0
						</coordinates>
					</LinearRing>
				</outerBoundaryIs>
			</Polygon>
		</Placemark>
		<Placemark>
			<name>
				8853-2 пахта томчи 2026
			</name>
			<description>
				39.98953691273424, 64.37019750758326
			</description>
			<Style>
				<LineStyle>
					<color>
						99dbc200
					</color>
					<width>
						50.0
					</width>
				</LineStyle>
				<PolyStyle>
					<color>
						99dbc200
					</color>
				</PolyStyle>
			</Style>
			<Polygon>
				<outerBoundaryIs>
					<LinearRing>
						<coordinates>
							64.3701975076,39.9895369127,0 64.3705354659,39.9894670425,0 64.3709056108,39.989372512,0 64.3712274758,39.9892903116,0 64.3716995446,39.9891752307,0 64.3722443593,39.9890395227,0 64.3726651399,39.9889409584,0 64.3729440896,39.9888669775,0 64.3732069461,39.9887560059,0 64.3734912603,39.9886614745,0 64.3735532773,39.9885298755,0 64.3734459889,39.9882997111,0 64.3733625142,39.988127164,0 64.3732605903,39.9879545397,0 64.3730382932,39.987995564,0 64.3727325213,39.9880942064,0 64.3725793092,39.9881148337,0 64.372359368,39.9881682649,0 64.3721477998,39.9881846285,0 64.3719385875,39.9882257295,0 64.3716971887,39.9882832707,0 64.3713991372,39.988353219,0 64.3710826366,39.9884025399,0 64.3708358733,39.9884436407,0 64.3704871862,39.9885176221,0 64.3702189653,39.9885751631,0 64.3699239223,39.988628594,0 64.3698059051,39.9886532544,0 64.3698059051,39.9887683361,0 64.3698679221,39.9888997811,0 64.3699215663,39.9890395227,0 64.3700127614,39.9891915941,0 64.3700610412,39.989327225,0 64.3700985921,39.9894505256,0 64.3701975076,39.9895369127,0
						</coordinates>
					</LinearRing>
				</outerBoundaryIs>
			</Polygon>
		</Placemark>
		<Placemark>
			<name>
				8854-2 пахта томчи 2026
			</name>
			<description>
				39.98865329277774, 64.37363604943224
			</description>
			<Style>
				<LineStyle>
					<color>
						99dbc200
					</color>
					<width>
						50.0
					</width>
				</LineStyle>
				<PolyStyle>
					<color>
						99dbc200
					</color>
				</PolyStyle>
			</Style>
			<Polygon>
				<outerBoundaryIs>
					<LinearRing>
						<coordinates>
							64.3736496364,39.9886389567,0 64.3739793722,39.9885710914,0 64.3743441526,39.9884683396,0 64.3748698656,39.988336817,0 64.3752936546,39.9882299547,0 64.3754384939,39.9881888538,0 64.3753955785,39.9880080095,0 64.3753097479,39.9877490724,0 64.3751863662,39.9873175085,0 64.3751112644,39.9870708993,0 64.3750200693,39.9867585263,0 64.3749342386,39.986466703,0 64.3748162214,39.9860885638,0 64.3747518484,39.9858953832,0 64.3746688758,39.9858604954,0 64.3744650279,39.9859180387,0 64.3742665445,39.9859714717,0 64.3740358745,39.9860372353,0 64.3736871873,39.986144101,0 64.3733545934,39.9861317703,0 64.3731024658,39.9861276601,0 64.3728796665,39.9861255558,0 64.3727806007,39.9861852031,0 64.3728396093,39.9864277053,0 64.3728743021,39.9866557718,0 64.3729386751,39.9868653909,0 64.372989813,39.9870113511,0 64.3730488216,39.9871921981,0 64.3731131946,39.9873894852,0 64.3731882965,39.9875415602,0 64.3732365762,39.987693635,0 64.3733385002,39.9879649026,0 64.3733975088,39.9881169763,0 64.3734482948,39.9882011841,0 64.3735369836,39.9883512515,0 64.3736013566,39.9884909942,0 64.3736496364,39.9886389567,0
						</coordinates>
					</LinearRing>
				</outerBoundaryIs>
			</Polygon>
		</Placemark>
		<Placemark>
			<name>
				8855-2 пахта томчи 2026
			</name>
			<description>
				39.98814574701461, 64.37559401192152
			</description>
			<Style>
				<LineStyle>
					<color>
						99dbc200
					</color>
					<width>
						50.0
					</width>
				</LineStyle>
				<PolyStyle>
					<color>
						99dbc200
					</color>
				</PolyStyle>
			</Style>
			<Polygon>
				<outerBoundaryIs>
					<LinearRing>
						<coordinates>
							64.37559687,39.9881766253,0 64.3758489977,39.9881273041,0 64.3761333118,39.9880738728,0 64.3764201323,39.9879936733,0 64.3765810648,39.9879649026,0 64.3766912113,39.9880081112,0 64.3767609488,39.9880738728,0 64.3768896948,39.9881108637,0 64.3770398985,39.9881314142,0 64.3771818797,39.9881087561,0 64.3772033373,39.9880553248,0 64.3771550576,39.9879320217,0 64.3770692269,39.9876648641,0 64.377031676,39.9874223663,0 64.3769887606,39.9872456301,0 64.3769673029,39.9871058848,0 64.3769565741,39.9870113511,0 64.376929752,39.9868798257,0 64.3768814722,39.986768851,0 64.3768331925,39.9866702066,0 64.3768360506,39.9865120169,0 64.3767824064,39.9863188375,0 64.3767205397,39.9861769827,0 64.3766722599,39.9861276601,0 64.3766400734,39.9859755819,0 64.3765596072,39.9856549835,0 64.3764898697,39.9854083683,0 64.3764308611,39.9851946344,0 64.3763182084,39.9848863632,0 64.3762674223,39.9846254117,0 64.3762191425,39.984419896,0 64.3762191425,39.9843130276,0 64.376044623,39.9843026992,0 64.3759051482,39.9843273612,0 64.3757603089,39.9843643541,0 64.3754438082,39.9844054573,0 64.3752399603,39.9844506708,0 64.3750979792,39.9845267642,0 64.3750736634,39.9846561864,0 64.3751594941,39.984869922,0 64.375261418,39.9849521278,0 64.3753150622,39.9850795466,0 64.3752560536,39.9851453111,0 64.3750897566,39.985219296,0 64.3749395529,39.9853056117,0 64.3747893492,39.9853302733,0 64.3746820609,39.9854248093,0 64.3746580969,39.9856981936,0 64.3747625271,39.9857782907,0 64.374837629,39.9859509205,0 64.3749985615,39.98652635,0 64.3751380364,39.9870113511,0 64.375261418,39.9874881285,0 64.3753365199,39.9877141856,0 64.375390164,39.987907361,0 64.3754545371,39.9880594349,0 64.3755081812,39.9881334167,0 64.37559687,39.9881766253,0
						</coordinates>
					</LinearRing>
				</outerBoundaryIs>
			</Polygon>
		</Placemark>
		<Placemark>
			<name>
				8856-2 пахта томчи 2026
			</name>
			<description>
				39.988159359484435, 64.37737928293367
			</description>
			<Style>
				<LineStyle>
					<color>
						99dbc200
					</color>
					<width>
						50.0
					</width>
				</LineStyle>
				<PolyStyle>
					<color>
						99dbc200
					</color>
				</PolyStyle>
			</Style>
			<Polygon>
				<outerBoundaryIs>
					<LinearRing>
						<coordinates>
							64.3773792829,39.9881593595,0 64.3778513517,39.9882744421,0 64.3782858696,39.9883813043,0 64.3787633028,39.9884676159,0 64.3792890158,39.9885498174,0 64.379664525,39.9885415973,0 64.3797825422,39.9885087167,0 64.3796937056,39.9882250089,0 64.3799404688,39.9881551373,0 64.380648572,39.9879825131,0 64.3809597082,39.9879290817,0 64.3809519853,39.9878387713,0 64.3807964172,39.9875264019,0 64.3807052221,39.9872469123,0 64.380614027,39.9871194975,0 64.3805067386,39.9867947943,0 64.3803350773,39.9864166569,0 64.3802277889,39.9860878401,0 64.3801151361,39.9858412265,0 64.3800102062,39.9855122948,0 64.3799112882,39.985261681,0 64.3797181692,39.9848424322,0 64.3796377029,39.9846204759,0 64.379535779,39.984361526,0 64.3793748464,39.9840203683,0 64.3792782869,39.9838148508,0 64.3792353716,39.9837120918,0 64.3790905323,39.9837079814,0 64.378779396,39.9837573058,0 64.3783609714,39.9838189611,0 64.3779425468,39.9838806165,0 64.3775133934,39.9839833752,0 64.3771593418,39.9840450304,0 64.37685357,39.9841190165,0 64.3765424337,39.9841683405,0 64.3763224926,39.9842464369,0 64.3762473907,39.984349195,0 64.3763332214,39.9845875934,0 64.376456603,39.9849821821,0 64.3765692558,39.9853274452,0 64.3767301884,39.9858864391,0 64.3767838325,39.9860508481,0 64.3769554939,39.9865522934,0 64.3770359602,39.9869386503,0 64.3771056976,39.9872592427,0 64.3770949688,39.9874236485,0 64.377212986,39.9877771196,0 64.3772934522,39.9880401666,0 64.3773792829,39.9881593595,0
						</coordinates>
					</LinearRing>
				</outerBoundaryIs>
			</Polygon>
		</Placemark>
		<Placemark>
			<name>
				8868-2 пахта томчи 2026
			</name>
			<description>
				39.99026399428786, 64.38898216836995
			</description>
			<Style>
				<LineStyle>
					<color>
						99dbc200
					</color>
					<width>
						50.0
					</width>
				</LineStyle>
				<PolyStyle>
					<color>
						99dbc200
					</color>
				</PolyStyle>
			</Style>
			<Polygon>
				<outerBoundaryIs>
					<LinearRing>
						<coordinates>
							64.3889821684,39.9902639943,0 64.3891730818,39.9902576225,0 64.3896397861,39.9902206328,0 64.3899241003,39.9902124128,0 64.3901118549,39.9902329627,0 64.3903157028,39.990191863,0 64.3904122623,39.9901384333,0 64.3905324852,39.9900831554,0 64.3907180342,39.9899534841,0 64.3908843311,39.9899206042,0 64.391190103,39.9898548444,0 64.3913456711,39.9898466244,0 64.3914176142,39.9898406662,0 64.3916321909,39.9897913463,0 64.391659013,39.9897214763,0 64.3915946399,39.989540636,0 64.3915173325,39.9893945236,0 64.3914605295,39.989314585,0 64.3914390718,39.9892077242,0 64.3914337074,39.989067983,0 64.3913854276,39.9889570118,0 64.3913371479,39.9887761695,0 64.3913049614,39.9886282072,0 64.3912513172,39.9885377857,0 64.3912459528,39.9884350338,0 64.3911923086,39.9882788507,0 64.3911333,39.9881062267,0 64.3910957491,39.9880075843,0 64.3910957491,39.987917162,0 64.3910152828,39.9878020788,0 64.3910206472,39.9876952157,0 64.3909830963,39.9875595815,0 64.3909187233,39.9874198369,0 64.3908758079,39.9873499645,0 64.3909187233,39.9873006427,0 64.3910581981,39.9872595412,0 64.3911118423,39.9872184397,0 64.3911118423,39.9871485671,0 64.3910581981,39.9870334827,0 64.3909455454,39.9869019573,0 64.3908436214,39.9868074233,0 64.3907148754,39.9866224651,0 64.3906183159,39.9864375064,0 64.3904949343,39.9862689881,0 64.3903608238,39.9860881387,0 64.390285722,39.9859936035,0 64.3901730692,39.9859401706,0 64.389990679,39.9859812729,0 64.3897385513,39.9860264853,0 64.3895078813,39.9860511467,0 64.3892289316,39.9860922489,0 64.3889338886,39.9861169102,0 64.3886205467,39.9861516402,0 64.3883845123,39.9861845219,0 64.3882074865,39.986225624,0 64.3876603159,39.9862174036,0 64.3870380434,39.9862708363,0 64.3866839918,39.9862420649,0 64.3866839918,39.9864475751,0 64.3867644581,39.9868092716,0 64.3867751869,39.9872038474,0 64.3865552458,39.9873929141,0 64.3861582788,39.987507998,0 64.3859061512,39.9875737601,0 64.385557464,39.987507998,0 64.3849995646,39.9875490993,0 64.3848439964,39.9876600728,0 64.3848761829,39.9879929921,0 64.3849566492,39.9882067172,0 64.3850853952,39.9885930648,0 64.3852785143,39.9890205107,0 64.3854555401,39.9894109637,0 64.385621837,39.9897068844,0 64.3858095917,39.989978144,0 64.3864372286,39.9899740341,0 64.3873974594,39.9900069139,0 64.3876603159,39.9900726736,0 64.3889017021,39.9902311145,0 64.3889821684,39.9902639943,0
						</coordinates>
					</LinearRing>
				</outerBoundaryIs>
			</Polygon>
		</Placemark>
		<Placemark>
			<name>
				8647-2 пахта томчи 2026
			</name>
			<description>
				39.9986357076509, 64.41871686190217
			</description>
			<Style>
				<LineStyle>
					<color>
						99dbc200
					</color>
					<width>
						50.0
					</width>
				</LineStyle>
				<PolyStyle>
					<color>
						99dbc200
					</color>
				</PolyStyle>
			</Style>
			<Polygon>
				<outerBoundaryIs>
					<LinearRing>
						<coordinates>
							64.4188754612,39.9985819932,0 64.4191651398,39.9984998038,0 64.4198195988,39.9983272058,0 64.4203667694,39.9981751547,0 64.420887118,39.9980354318,0 64.421439653,39.9978669421,0 64.4219760948,39.9977025614,0 64.4224267059,39.9975792757,0 64.4227700287,39.9974600993,0 64.4229041391,39.9974025658,0 64.4229577833,39.9973327036,0 64.4229255968,39.9972587317,0 64.4228206417,39.997205599,0 64.4226758024,39.9971069697,0 64.422504141,39.9970124498,0 64.4223378441,39.9969097107,0 64.4221179029,39.9968110809,0 64.4219837925,39.9967165607,0 64.4218067667,39.9966425882,0 64.4216619274,39.9965686156,0 64.4215707323,39.996494643,0 64.4215117237,39.9964823142,0 64.4213400623,39.9965439581,0 64.4211093923,39.996634369,0 64.4209109089,39.9967042319,0 64.4206779057,39.996777913,0 64.4205169731,39.9968190087,0 64.4203935915,39.9968518853,0 64.4201736504,39.9968970906,0 64.4199107939,39.9969710628,0 64.4195567423,39.9971025688,0 64.4192134195,39.9971888694,0 64.4187306219,39.9973327036,0 64.4185428673,39.9973820181,0 64.4184355789,39.9974436611,0 64.4184677654,39.9975258518,0 64.418513014,39.9976987433,0 64.4185452005,39.9978836715,0 64.4185827515,39.9981220226,0 64.4186179691,39.9982491255,0 64.4186394268,39.9984093954,0 64.4187091642,39.9986271974,0 64.4188754612,39.9985819932,0
						</coordinates>
					</LinearRing>
				</outerBoundaryIs>
			</Polygon>
		</Placemark>
		<Placemark>
			<name>
				8620-2 пахта томчи 2026
			</name>
			<description>
				сарвар бахром
			</description>
			<Style>
				<LineStyle>
					<color>
						99dbc200
					</color>
					<width>
						10.0
					</width>
				</LineStyle>
				<PolyStyle>
					<color>
						99dbc200
					</color>
				</PolyStyle>
			</Style>
			<Polygon>
				<outerBoundaryIs>
					<LinearRing>
						<coordinates>
							64.4365303786,40.0062565096,0 64.43666306,40.0062379985,0 64.4369005235,40.0061250213,0 64.4370882781,40.006055168,0 64.4372974904,40.0059770967,0 64.4375549825,40.0058949161,0 64.4377910168,40.0058086265,0 64.4380417154,40.005753134,0 64.4383274587,40.0056730283,0 64.4385688575,40.0055949565,0 64.4387512477,40.0055251026,0 64.4389161155,40.0054655008,0 64.4390663192,40.005407974,0 64.4392715962,40.005331977,0 64.4394754441,40.0052539048,0 64.4396188543,40.0052353934,0 64.4396939561,40.0051984118,0 64.4397261427,40.0051573211,0 64.4396939561,40.0051080122,0 64.4395344527,40.0049785968,0 64.4394217999,40.0048553242,0 64.4392018588,40.0046334329,0 64.4390448616,40.0044628844,0 64.4389429376,40.0043519382,0 64.4388249204,40.0042327736,0 64.4387122676,40.0041012814,0 64.4385781572,40.0039615706,0 64.4384815977,40.0038547328,0 64.438395767,40.0038177504,0 64.4382884786,40.0038013138,0 64.4381343396,40.0038526988,0 64.4378861473,40.0039081517,0 64.437676935,40.0039985529,0 64.4374409006,40.0040930631,0 64.4372209594,40.0041629184,0 64.436958103,40.0042738648,0 64.4366737888,40.0043560473,0 64.4364431188,40.0044464479,0 64.4362339065,40.004524521,0 64.4360246942,40.0045902668,0 64.4358530328,40.004639576,0 64.4356935294,40.0047115059,0 64.4356130631,40.004760815,0 64.4356184275,40.0048512151,0 64.4357954533,40.0051224145,0 64.4359510215,40.0053853948,0 64.4363050731,40.0059647696,0 64.4363801749,40.0061250213,0 64.4364499123,40.0062072015,0 64.4365303786,40.0062565096,0
						</coordinates>
					</LinearRing>
				</outerBoundaryIs>
			</Polygon>
		</Placemark>
	</Document>
</kml>

